{
"type": "FeatureCollection",
"name": "CommuterRail_Stations_iso_foot-walking",
"crs": { "type": "name", "properties": { "name": "urn:ogc:def:crs:OGC:1.3:CRS84" } },
"features": [
{ "type": "Feature", "properties": { "group_index": 0, "value": 300.0, "center": [ -111.98062136647515, 41.22481841275901 ], "point_id": 7 }, "geometry": { "type": "Polygon", "coordinates": [ [ [ -111.980414, 41.22385 ], [ -111.979477, 41.221705 ], [ -111.979117, 41.221702 ], [ -111.978842, 41.221887 ], [ -111.976809, 41.224639 ], [ -111.976726, 41.224752 ], [ -111.976721, 41.225112 ], [ -111.976811, 41.225222 ], [ -111.978328, 41.226533 ], [ -111.979228, 41.227239 ], [ -111.980619, 41.228277 ], [ -111.9808, 41.228325 ], [ -111.980977, 41.228326 ], [ -111.983208, 41.22798 ], [ -111.983425, 41.227693 ], [ -111.980414, 41.22385 ] ] ] } },
{ "type": "Feature", "properties": { "group_index": 0, "value": 600.0, "center": [ -111.98062136647515, 41.22481841275901 ], "point_id": 7 }, "geometry": { "type": "Polygon", "coordinates": [ [ [ -111.983855, 41.228041 ], [ -111.983425, 41.227693 ], [ -111.980414, 41.22385 ], [ -111.979661, 41.220586 ], [ -111.979639, 41.220128 ], [ -111.979607, 41.219639 ], [ -111.979573, 41.218675 ], [ -111.979291, 41.218129 ], [ -111.978931, 41.218116 ], [ -111.978488, 41.218371 ], [ -111.975623, 41.220422 ], [ -111.97479, 41.221029 ], [ -111.971744, 41.224692 ], [ -111.97174, 41.225052 ], [ -111.974248, 41.22716 ], [ -111.974411, 41.227292 ], [ -111.978199, 41.230388 ], [ -111.978643, 41.230585 ], [ -111.979003, 41.230596 ], [ -111.979102, 41.23054 ], [ -111.98448, 41.229908 ], [ -111.985199, 41.230361 ], [ -111.985656, 41.230676 ], [ -111.986043, 41.230619 ], [ -111.986242, 41.230319 ], [ -111.983855, 41.228041 ] ] ] } },
{ "type": "Feature", "properties": { "group_index": 0, "value": 900.0, "center": [ -111.98062136647515, 41.22481841275901 ], "point_id": 7 }, "geometry": { "type": "Polygon", "coordinates": [ [ [ -111.990768, 41.23079 ], [ -111.990285, 41.230922 ], [ -111.984997, 41.229243 ], [ -111.983855, 41.228041 ], [ -111.984355, 41.223097 ], [ -111.98436, 41.222737 ], [ -111.982626, 41.222716 ], [ -111.980162, 41.21763 ], [ -111.980439, 41.216659 ], [ -111.979403, 41.214416 ], [ -111.979239, 41.214288 ], [ -111.97917, 41.214288 ], [ -111.978625, 41.214594 ], [ -111.977404, 41.215378 ], [ -111.973355, 41.217906 ], [ -111.971213, 41.219715 ], [ -111.970332, 41.220594 ], [ -111.966764, 41.224623 ], [ -111.966759, 41.224983 ], [ -111.966863, 41.2251 ], [ -111.967773, 41.226003 ], [ -111.97036, 41.228248 ], [ -111.974269, 41.231264 ], [ -111.977324, 41.233432 ], [ -111.978396, 41.234165 ], [ -111.978511, 41.234208 ], [ -111.978871, 41.234213 ], [ -111.97941, 41.233889 ], [ -111.97958, 41.233788 ], [ -111.984651, 41.231966 ], [ -111.985415, 41.231992 ], [ -111.986939, 41.232162 ], [ -111.989898, 41.231401 ], [ -111.99038, 41.231269 ], [ -111.990863, 41.231137 ], [ -111.990768, 41.23079 ] ] ] } },
{ "type": "Feature", "properties": { "group_index": 0, "value": 300.0, "center": [ -112.01380783474808, 41.094784632913175 ], "point_id": 5 }, "geometry": { "type": "Polygon", "coordinates": [ [ [ -112.014462, 41.095592 ], [ -112.013558, 41.094342 ], [ -112.011579, 41.09285 ], [ -112.011396, 41.092755 ], [ -112.011232, 41.092707 ], [ -112.01101, 41.09268 ], [ -112.01061, 41.09268 ], [ -112.01021, 41.092679 ], [ -112.010209, 41.093039 ], [ -112.01048, 41.095906 ], [ -112.010652, 41.096223 ], [ -112.010729, 41.096286 ], [ -112.01091, 41.096326 ], [ -112.011115, 41.096365 ], [ -112.014538, 41.09724 ], [ -112.014823, 41.097021 ], [ -112.014462, 41.095592 ] ] ] } },
{ "type": "Feature", "properties": { "group_index": 0, "value": 600.0, "center": [ -112.01380783474808, 41.094784632913175 ], "point_id": 5 }, "geometry": { "type": "Polygon", "coordinates": [ [ [ -112.01738, 41.099391 ], [ -112.017189, 41.099141 ], [ -112.017065, 41.098981 ], [ -112.016941, 41.098821 ], [ -112.014462, 41.095592 ], [ -112.013558, 41.094342 ], [ -112.011579, 41.09285 ], [ -112.011396, 41.092755 ], [ -112.011232, 41.092707 ], [ -112.007092, 41.091905 ], [ -112.006732, 41.091904 ], [ -112.005618, 41.092679 ], [ -112.00562, 41.093039 ], [ -112.006475, 41.097072 ], [ -112.006714, 41.097663 ], [ -112.006825, 41.097779 ], [ -112.008605, 41.098437 ], [ -112.010283, 41.098878 ], [ -112.010533, 41.098922 ], [ -112.010782, 41.098958 ], [ -112.01671, 41.09982 ], [ -112.017285, 41.099859 ], [ -112.017571, 41.099641 ], [ -112.01738, 41.099391 ] ] ] } },
{ "type": "Feature", "properties": { "group_index": 0, "value": 900.0, "center": [ -112.01380783474808, 41.094784632913175 ], "point_id": 5 }, "geometry": { "type": "Polygon", "coordinates": [ [ [ -112.01917, 41.103051 ], [ -112.018701, 41.101527 ], [ -112.018414, 41.101041 ], [ -112.017571, 41.099641 ], [ -112.01738, 41.099391 ], [ -112.017189, 41.099141 ], [ -112.017065, 41.098981 ], [ -112.016941, 41.098821 ], [ -112.013558, 41.094342 ], [ -112.010894, 41.09135 ], [ -112.008486, 41.088776 ], [ -112.007114, 41.088155 ], [ -112.006754, 41.088159 ], [ -112.002535, 41.090098 ], [ -112.002281, 41.090353 ], [ -112.000678, 41.092638 ], [ -112.000679, 41.092998 ], [ -112.001791, 41.097674 ], [ -112.00235, 41.098464 ], [ -112.002636, 41.098682 ], [ -112.006421, 41.10138 ], [ -112.006721, 41.101472 ], [ -112.006823, 41.10149 ], [ -112.007183, 41.10149 ], [ -112.011552, 41.101693 ], [ -112.016798, 41.103395 ], [ -112.017158, 41.103395 ], [ -112.018647, 41.103376 ], [ -112.018724, 41.10337 ], [ -112.019173, 41.103274 ], [ -112.01917, 41.103051 ] ] ] } },
{ "type": "Feature", "properties": { "group_index": 0, "value": 300.0, "center": [ -111.96538470350531, 41.057189169417256 ], "point_id": 4 }, "geometry": { "type": "Polygon", "coordinates": [ [ [ -111.96695, 41.058096 ], [ -111.964133, 41.055662 ], [ -111.963477, 41.055631 ], [ -111.96326, 41.055651 ], [ -111.962883, 41.055881 ], [ -111.962917, 41.056239 ], [ -111.964777, 41.058718 ], [ -111.965993, 41.059769 ], [ -111.966322, 41.059856 ], [ -111.966416, 41.059875 ], [ -111.966472, 41.059875 ], [ -111.968531, 41.059766 ], [ -111.96868, 41.05973 ], [ -111.968858, 41.059417 ], [ -111.96695, 41.058096 ] ] ] } },
{ "type": "Feature", "properties": { "group_index": 0, "value": 600.0, "center": [ -111.96538470350531, 41.057189169417256 ], "point_id": 4 }, "geometry": { "type": "Polygon", "coordinates": [ [ [ -111.973022, 41.059921 ], [ -111.972979, 41.059776 ], [ -111.972545, 41.059548 ], [ -111.971685, 41.059023 ], [ -111.969071, 41.054107 ], [ -111.968916, 41.053782 ], [ -111.968669, 41.05375 ], [ -111.967278, 41.053733 ], [ -111.967153, 41.053752 ], [ -111.967105, 41.053761 ], [ -111.966759, 41.053861 ], [ -111.961268, 41.056006 ], [ -111.961041, 41.056027 ], [ -111.960899, 41.05604 ], [ -111.958506, 41.056017 ], [ -111.958333, 41.056017 ], [ -111.958312, 41.056526 ], [ -111.961814, 41.060167 ], [ -111.966861, 41.062275 ], [ -111.96882, 41.063006 ], [ -111.969446, 41.062884 ], [ -111.973025, 41.060281 ], [ -111.973022, 41.059921 ] ] ] } },
{ "type": "Feature", "properties": { "group_index": 0, "value": 900.0, "center": [ -111.96538470350531, 41.057189169417256 ], "point_id": 4 }, "geometry": { "type": "Polygon", "coordinates": [ [ [ -111.977974, 41.059904 ], [ -111.974568, 41.057523 ], [ -111.973873, 41.052445 ], [ -111.973771, 41.052099 ], [ -111.96877, 41.05102 ], [ -111.96757, 41.050809 ], [ -111.967394, 41.050931 ], [ -111.967204, 41.051104 ], [ -111.966986, 41.051767 ], [ -111.966191, 41.053711 ], [ -111.965481, 41.0546 ], [ -111.959738, 41.053946 ], [ -111.958699, 41.053075 ], [ -111.958064, 41.052788 ], [ -111.957704, 41.052784 ], [ -111.957566, 41.05288 ], [ -111.957417, 41.052988 ], [ -111.956296, 41.054055 ], [ -111.955017, 41.05829 ], [ -111.955103, 41.058591 ], [ -111.955138, 41.058638 ], [ -111.95793, 41.060995 ], [ -111.960678, 41.062894 ], [ -111.965733, 41.065992 ], [ -111.966057, 41.066094 ], [ -111.967932, 41.066151 ], [ -111.971766, 41.065994 ], [ -111.972014, 41.065734 ], [ -111.972643, 41.064717 ], [ -111.977067, 41.060998 ], [ -111.977262, 41.060896 ], [ -111.977783, 41.060436 ], [ -111.977974, 41.060264 ], [ -111.977974, 41.059904 ] ] ] } },
{ "type": "Feature", "properties": { "group_index": 0, "value": 300.0, "center": [ -111.90290777461979, 40.88103234562655 ], "point_id": 2 }, "geometry": { "type": "Polygon", "coordinates": [ [ [ -111.902287, 40.878538 ], [ -111.901927, 40.878535 ], [ -111.900264, 40.879228 ], [ -111.898725, 40.881504 ], [ -111.898724, 40.881864 ], [ -111.899492, 40.882643 ], [ -111.901281, 40.884328 ], [ -111.901415, 40.884406 ], [ -111.9015, 40.884381 ], [ -111.901739, 40.884297 ], [ -111.903401, 40.879973 ], [ -111.902287, 40.878538 ] ] ] } },
{ "type": "Feature", "properties": { "group_index": 0, "value": 600.0, "center": [ -111.90290777461979, 40.88103234562655 ], "point_id": 2 }, "geometry": { "type": "Polygon", "coordinates": [ [ [ -111.907416, 40.88395 ], [ -111.905302, 40.88285 ], [ -111.90413, 40.877975 ], [ -111.904326, 40.87752 ], [ -111.904525, 40.877056 ], [ -111.904786, 40.87634 ], [ -111.905047, 40.875624 ], [ -111.904708, 40.8755 ], [ -111.902298, 40.874792 ], [ -111.901938, 40.874787 ], [ -111.900168, 40.875741 ], [ -111.899273, 40.876712 ], [ -111.897716, 40.878597 ], [ -111.897594, 40.878959 ], [ -111.89621, 40.88399 ], [ -111.896251, 40.884347 ], [ -111.896369, 40.884465 ], [ -111.898331, 40.886148 ], [ -111.899002, 40.886514 ], [ -111.901837, 40.887549 ], [ -111.902197, 40.887551 ], [ -111.907192, 40.884416 ], [ -111.907417, 40.88431 ], [ -111.907416, 40.88395 ] ] ] } },
{ "type": "Feature", "properties": { "group_index": 0, "value": 900.0, "center": [ -111.90290777461979, 40.88103234562655 ], "point_id": 2 }, "geometry": { "type": "Polygon", "coordinates": [ [ [ -111.91144, 40.883948 ], [ -111.910818, 40.883312 ], [ -111.907638, 40.880753 ], [ -111.908315, 40.874823 ], [ -111.908314, 40.874463 ], [ -111.905959, 40.872563 ], [ -111.902329, 40.871043 ], [ -111.901969, 40.871043 ], [ -111.901855, 40.871108 ], [ -111.901567, 40.871274 ], [ -111.897407, 40.874213 ], [ -111.897073, 40.87463 ], [ -111.897072, 40.87499 ], [ -111.897594, 40.878959 ], [ -111.897583, 40.879275 ], [ -111.89331, 40.883361 ], [ -111.892235, 40.883353 ], [ -111.892213, 40.883351 ], [ -111.892037, 40.883514 ], [ -111.891528, 40.883967 ], [ -111.891465, 40.884065 ], [ -111.891466, 40.884425 ], [ -111.89154, 40.884525 ], [ -111.891783, 40.884754 ], [ -111.891807, 40.884772 ], [ -111.893608, 40.886098 ], [ -111.8942, 40.886497 ], [ -111.897827, 40.887487 ], [ -111.901707, 40.891259 ], [ -111.901851, 40.891298 ], [ -111.902211, 40.891297 ], [ -111.902316, 40.891233 ], [ -111.905891, 40.887803 ], [ -111.910275, 40.885224 ], [ -111.911305, 40.884419 ], [ -111.911442, 40.884308 ], [ -111.91144, 40.883948 ] ] ] } },
{ "type": "Feature", "properties": { "group_index": 0, "value": 300.0, "center": [ -111.90489670986916, 40.98652587071849 ], "point_id": 3 }, "geometry": { "type": "Polygon", "coordinates": [ [ [ -111.908767, 40.985152 ], [ -111.908744, 40.984967 ], [ -111.908713, 40.984796 ], [ -111.90773, 40.98406 ], [ -111.905853, 40.983048 ], [ -111.905493, 40.983053 ], [ -111.903682, 40.98315 ], [ -111.90364, 40.983267 ], [ -111.903252, 40.986787 ], [ -111.905642, 40.988312 ], [ -111.906134, 40.988638 ], [ -111.906661, 40.988982 ], [ -111.907038, 40.989153 ], [ -111.907244, 40.988857 ], [ -111.908686, 40.986204 ], [ -111.908767, 40.985152 ] ] ] } },
{ "type": "Feature", "properties": { "group_index": 0, "value": 600.0, "center": [ -111.90489670986916, 40.98652587071849 ], "point_id": 3 }, "geometry": { "type": "Polygon", "coordinates": [ [ [ -111.912572, 40.987761 ], [ -111.912578, 40.987356 ], [ -111.911958, 40.984013 ], [ -111.910896, 40.982491 ], [ -111.909247, 40.981377 ], [ -111.908008, 40.980662 ], [ -111.90655, 40.979808 ], [ -111.90619, 40.979808 ], [ -111.902465, 40.98005 ], [ -111.901542, 40.980514 ], [ -111.901393, 40.980674 ], [ -111.901394, 40.980701 ], [ -111.901877, 40.983964 ], [ -111.9022, 40.985908 ], [ -111.902257, 40.986096 ], [ -111.902521, 40.986342 ], [ -111.906248, 40.989258 ], [ -111.910651, 40.991432 ], [ -111.91091, 40.99156 ], [ -111.911116, 40.991265 ], [ -111.912517, 40.9888 ], [ -111.912572, 40.987761 ] ] ] } },
{ "type": "Feature", "properties": { "group_index": 0, "value": 900.0, "center": [ -111.90489670986916, 40.98652587071849 ], "point_id": 3 }, "geometry": { "type": "Polygon", "coordinates": [ [ [ -111.915871, 40.99132 ], [ -111.915852, 40.985664 ], [ -111.915888, 40.982347 ], [ -111.915854, 40.981988 ], [ -111.911512, 40.979159 ], [ -111.906053, 40.97709 ], [ -111.901847, 40.976771 ], [ -111.901488, 40.976747 ], [ -111.898716, 40.978504 ], [ -111.896707, 40.980369 ], [ -111.896704, 40.980729 ], [ -111.901321, 40.983172 ], [ -111.9022, 40.985908 ], [ -111.902257, 40.986096 ], [ -111.902241, 40.991123 ], [ -111.902272, 40.991482 ], [ -111.902289, 40.99148 ], [ -111.903246, 40.9911 ], [ -111.903414, 40.991037 ], [ -111.903805, 40.990866 ], [ -111.909787, 40.990948 ], [ -111.910311, 40.991231 ], [ -111.910651, 40.991432 ], [ -111.91091, 40.99156 ], [ -111.911014, 40.991595 ], [ -111.914051, 40.992444 ], [ -111.915868, 40.99168 ], [ -111.915871, 40.99132 ] ] ] } },
{ "type": "Feature", "properties": { "group_index": 0, "value": 300.0, "center": [ -112.0110306, 41.3084111 ], "point_id": 8 }, "geometry": { "type": "Polygon", "coordinates": [ [ [ -112.012553, 41.306849 ], [ -112.012007, 41.306264 ], [ -112.011821, 41.306268 ], [ -112.011634, 41.306271 ], [ -112.007548, 41.306677 ], [ -112.007232, 41.30682 ], [ -112.006734, 41.308564 ], [ -112.00686, 41.308901 ], [ -112.008157, 41.310129 ], [ -112.012666, 41.311331 ], [ -112.012956, 41.311117 ], [ -112.012553, 41.306849 ] ] ] } },
{ "type": "Feature", "properties": { "group_index": 0, "value": 600.0, "center": [ -112.0110306, 41.3084111 ], "point_id": 8 }, "geometry": { "type": "Polygon", "coordinates": [ [ [ -112.017533, 41.306848 ], [ -112.01746, 41.306527 ], [ -112.015115, 41.304971 ], [ -112.014214, 41.304728 ], [ -112.013946, 41.304733 ], [ -112.013679, 41.304737 ], [ -112.011634, 41.306271 ], [ -112.007548, 41.306677 ], [ -112.00401, 41.30482 ], [ -112.000214, 41.306514 ], [ -112.000213, 41.306874 ], [ -112.003059, 41.307763 ], [ -112.00604, 41.309016 ], [ -112.007959, 41.313578 ], [ -112.00828, 41.313742 ], [ -112.010606, 41.313393 ], [ -112.012999, 41.312745 ], [ -112.013503, 41.31222 ], [ -112.016477, 41.307744 ], [ -112.017413, 41.307187 ], [ -112.017533, 41.306848 ] ] ] } },
{ "type": "Feature", "properties": { "group_index": 0, "value": 900.0, "center": [ -112.0110306, 41.3084111 ], "point_id": 8 }, "geometry": { "type": "Polygon", "coordinates": [ [ [ -112.022395, 41.306674 ], [ -112.022311, 41.306503 ], [ -112.018908, 41.303941 ], [ -112.01616, 41.301892 ], [ -112.015375, 41.301706 ], [ -112.015017, 41.301745 ], [ -112.014725, 41.301959 ], [ -112.00996, 41.303645 ], [ -112.006673, 41.302579 ], [ -112.00557, 41.302072 ], [ -112.002636, 41.301736 ], [ -112.001214, 41.301717 ], [ -112.000948, 41.301959 ], [ -111.99934, 41.304116 ], [ -111.996261, 41.306688 ], [ -111.996237, 41.307047 ], [ -111.996848, 41.307087 ], [ -111.997458, 41.307126 ], [ -112.001928, 41.310376 ], [ -112.002854, 41.311308 ], [ -112.002956, 41.311388 ], [ -112.003316, 41.311397 ], [ -112.006256, 41.3166 ], [ -112.006654, 41.316915 ], [ -112.010021, 41.316378 ], [ -112.013056, 41.316658 ], [ -112.013344, 41.316441 ], [ -112.016616, 41.311809 ], [ -112.020781, 41.308444 ], [ -112.022401, 41.307034 ], [ -112.022395, 41.306674 ] ] ] } },
{ "type": "Feature", "properties": { "group_index": 0, "value": 300.0, "center": [ -112.03945052776315, 41.18873213332462 ], "point_id": 6 }, "geometry": { "type": "Polygon", "coordinates": [ [ [ -112.039971, 41.187171 ], [ -112.039926, 41.187099 ], [ -112.039823, 41.187113 ], [ -112.039402, 41.187289 ], [ -112.038523, 41.187682 ], [ -112.036448, 41.18921 ], [ -112.036445, 41.189455 ], [ -112.036513, 41.189808 ], [ -112.037446, 41.190649 ], [ -112.038871, 41.189628 ], [ -112.039412, 41.18904 ], [ -112.039883, 41.188421 ], [ -112.039971, 41.187171 ] ] ] } },
{ "type": "Feature", "properties": { "group_index": 0, "value": 600.0, "center": [ -112.03945052776315, 41.18873213332462 ], "point_id": 6 }, "geometry": { "type": "Polygon", "coordinates": [ [ [ -112.042104, 41.19054 ], [ -112.041213, 41.188407 ], [ -112.039926, 41.187099 ], [ -112.036863, 41.186446 ], [ -112.036499, 41.186566 ], [ -112.032486, 41.190225 ], [ -112.032356, 41.19056 ], [ -112.032376, 41.190619 ], [ -112.033681, 41.193492 ], [ -112.033909, 41.193771 ], [ -112.037242, 41.192851 ], [ -112.040715, 41.191614 ], [ -112.042003, 41.190722 ], [ -112.042104, 41.190603 ], [ -112.042104, 41.19054 ] ] ] } },
{ "type": "Feature", "properties": { "group_index": 0, "value": 900.0, "center": [ -112.03945052776315, 41.18873213332462 ], "point_id": 6 }, "geometry": { "type": "Polygon", "coordinates": [ [ [ -112.046829, 41.190457 ], [ -112.0452, 41.188776 ], [ -112.044376, 41.184837 ], [ -112.044103, 41.184602 ], [ -112.03907, 41.184213 ], [ -112.037383, 41.183242 ], [ -112.036952, 41.182965 ], [ -112.036592, 41.182964 ], [ -112.033884, 41.184239 ], [ -112.032126, 41.185523 ], [ -112.029649, 41.188258 ], [ -112.027545, 41.19044 ], [ -112.027548, 41.1908 ], [ -112.027639, 41.190897 ], [ -112.030773, 41.195872 ], [ -112.031001, 41.196151 ], [ -112.033814, 41.1967 ], [ -112.034711, 41.195696 ], [ -112.035608, 41.194692 ], [ -112.040539, 41.192265 ], [ -112.041688, 41.192254 ], [ -112.044625, 41.192227 ], [ -112.046711, 41.190908 ], [ -112.046831, 41.190817 ], [ -112.046829, 41.190457 ] ] ] } },
{ "type": "Feature", "properties": { "group_index": 0, "value": 300.0, "center": [ -111.8966364783375, 40.42539741003109 ], "point_id": 0 }, "geometry": { "type": "Polygon", "coordinates": [ [ [ -111.899951, 40.425652 ], [ -111.899938, 40.425598 ], [ -111.895001, 40.423221 ], [ -111.894448, 40.422744 ], [ -111.894242, 40.42257 ], [ -111.894037, 40.422395 ], [ -111.893804, 40.42267 ], [ -111.892467, 40.426467 ], [ -111.892417, 40.426823 ], [ -111.89261, 40.427077 ], [ -111.893996, 40.427823 ], [ -111.895198, 40.427894 ], [ -111.896636, 40.427993 ], [ -111.897228, 40.427953 ], [ -111.899133, 40.427726 ], [ -111.899452, 40.427388 ], [ -111.899989, 40.42601 ], [ -111.899951, 40.425652 ] ] ] } },
{ "type": "Feature", "properties": { "group_index": 0, "value": 600.0, "center": [ -111.8966364783375, 40.42539741003109 ], "point_id": 0 }, "geometry": { "type": "Polygon", "coordinates": [ [ [ -111.903243, 40.427168 ], [ -111.902889, 40.426196 ], [ -111.901614, 40.425111 ], [ -111.899075, 40.422953 ], [ -111.896028, 40.420975 ], [ -111.893113, 40.419393 ], [ -111.892753, 40.419389 ], [ -111.890981, 40.419575 ], [ -111.890934, 40.419626 ], [ -111.890737, 40.419839 ], [ -111.890691, 40.419892 ], [ -111.890137, 40.421342 ], [ -111.888467, 40.425425 ], [ -111.888291, 40.426128 ], [ -111.888195, 40.426564 ], [ -111.888084, 40.42708 ], [ -111.888009, 40.427542 ], [ -111.890266, 40.42976 ], [ -111.890734, 40.43022 ], [ -111.890751, 40.430235 ], [ -111.890993, 40.430274 ], [ -111.892506, 40.430529 ], [ -111.895518, 40.43101 ], [ -111.900172, 40.430793 ], [ -111.902664, 40.43088 ], [ -111.902897, 40.430606 ], [ -111.903243, 40.427168 ] ] ] } },
{ "type": "Feature", "properties": { "group_index": 0, "value": 900.0, "center": [ -111.8966364783375, 40.42539741003109 ], "point_id": 0 }, "geometry": { "type": "Polygon", "coordinates": [ [ [ -111.906758, 40.432405 ], [ -111.906749, 40.432191 ], [ -111.906566, 40.428828 ], [ -111.906462, 40.428483 ], [ -111.902889, 40.426196 ], [ -111.89952, 40.421432 ], [ -111.898937, 40.420563 ], [ -111.898715, 40.420362 ], [ -111.893809, 40.417131 ], [ -111.893592, 40.416932 ], [ -111.893369, 40.416728 ], [ -111.893211, 40.416595 ], [ -111.893053, 40.416462 ], [ -111.887509, 40.416308 ], [ -111.887216, 40.416517 ], [ -111.886108, 40.419967 ], [ -111.884921, 40.424899 ], [ -111.884924, 40.425185 ], [ -111.884943, 40.425338 ], [ -111.885013, 40.425397 ], [ -111.888444, 40.43028 ], [ -111.888482, 40.431197 ], [ -111.888493, 40.431557 ], [ -111.889212, 40.431793 ], [ -111.889648, 40.431796 ], [ -111.894702, 40.434411 ], [ -111.895055, 40.434484 ], [ -111.896684, 40.434676 ], [ -111.902204, 40.43392 ], [ -111.906164, 40.432948 ], [ -111.906657, 40.432751 ], [ -111.906758, 40.432405 ] ] ] } },
{ "type": "Feature", "properties": { "group_index": 0, "value": 300.0, "center": [ -111.81967908559471, 40.37307916002236 ], "point_id": 0 }, "geometry": { "type": "Polygon", "coordinates": [ [ [ -111.823912, 40.372592 ], [ -111.821792, 40.371023 ], [ -111.820199, 40.370224 ], [ -111.81984, 40.370207 ], [ -111.817417, 40.370645 ], [ -111.817285, 40.370708 ], [ -111.815174, 40.372477 ], [ -111.815141, 40.372553 ], [ -111.815139, 40.372913 ], [ -111.81996, 40.37477 ], [ -111.820765, 40.374937 ], [ -111.821569, 40.375105 ], [ -111.821891, 40.375079 ], [ -111.823901, 40.372979 ], [ -111.823912, 40.372592 ] ] ] } },
{ "type": "Feature", "properties": { "group_index": 0, "value": 600.0, "center": [ -111.81967908559471, 40.37307916002236 ], "point_id": 0 }, "geometry": { "type": "Polygon", "coordinates": [ [ [ -111.82882, 40.372641 ], [ -111.826636, 40.370898 ], [ -111.824545, 40.369285 ], [ -111.822843, 40.367993 ], [ -111.821664, 40.367098 ], [ -111.821659, 40.367098 ], [ -111.821659, 40.367098 ], [ -111.821653, 40.367098 ], [ -111.817587, 40.367041 ], [ -111.817513, 40.367074 ], [ -111.81651, 40.367544 ], [ -111.813365, 40.370195 ], [ -111.810877, 40.371742 ], [ -111.810071, 40.37249 ], [ -111.810068, 40.37285 ], [ -111.810736, 40.372877 ], [ -111.814742, 40.372911 ], [ -111.81996, 40.37477 ], [ -111.820765, 40.374937 ], [ -111.821569, 40.375105 ], [ -111.821891, 40.375079 ], [ -111.821944, 40.375061 ], [ -111.827568, 40.372993 ], [ -111.828818, 40.373001 ], [ -111.82882, 40.372641 ] ] ] } },
{ "type": "Feature", "properties": { "group_index": 0, "value": 900.0, "center": [ -111.81967908559471, 40.37307916002236 ], "point_id": 0 }, "geometry": { "type": "Polygon", "coordinates": [ [ [ -111.833899, 40.372716 ], [ -111.831179, 40.370719 ], [ -111.828707, 40.36872 ], [ -111.826404, 40.366636 ], [ -111.823858, 40.364121 ], [ -111.823712, 40.364025 ], [ -111.823494, 40.363982 ], [ -111.822966, 40.36398 ], [ -111.822768, 40.364016 ], [ -111.819617, 40.364886 ], [ -111.81924, 40.365183 ], [ -111.813777, 40.366451 ], [ -111.813418, 40.366445 ], [ -111.80963, 40.368918 ], [ -111.807438, 40.37021 ], [ -111.804982, 40.371682 ], [ -111.804874, 40.372025 ], [ -111.80523, 40.373082 ], [ -111.805329, 40.3732 ], [ -111.806327, 40.374275 ], [ -111.806687, 40.374274 ], [ -111.807941, 40.373783 ], [ -111.811519, 40.372818 ], [ -111.814742, 40.372911 ], [ -111.81996, 40.37477 ], [ -111.820765, 40.374937 ], [ -111.821569, 40.375105 ], [ -111.821891, 40.375079 ], [ -111.821944, 40.375061 ], [ -111.827568, 40.372993 ], [ -111.828069, 40.372997 ], [ -111.828818, 40.373001 ], [ -111.831185, 40.373014 ], [ -111.832427, 40.373025 ], [ -111.833833, 40.37307 ], [ -111.833899, 40.372716 ] ] ] } },
{ "type": "Feature", "properties": { "group_index": 0, "value": 300.0, "center": [ -111.72609041341013, 40.27993748551257 ], "point_id": 0 }, "geometry": { "type": "Polygon", "coordinates": [ [ [ -111.729471, 40.278988 ], [ -111.729466, 40.278883 ], [ -111.728334, 40.277995 ], [ -111.724933, 40.276769 ], [ -111.72434, 40.277066 ], [ -111.72373, 40.277736 ], [ -111.722301, 40.279658 ], [ -111.722361, 40.280013 ], [ -111.726931, 40.28272 ], [ -111.727997, 40.282912 ], [ -111.728356, 40.282895 ], [ -111.72869, 40.282643 ], [ -111.729412, 40.281112 ], [ -111.729471, 40.278988 ] ] ] } },
{ "type": "Feature", "properties": { "group_index": 0, "value": 600.0, "center": [ -111.72609041341013, 40.27993748551257 ], "point_id": 0 }, "geometry": { "type": "Polygon", "coordinates": [ [ [ -111.734557, 40.279118 ], [ -111.734555, 40.278758 ], [ -111.731335, 40.276848 ], [ -111.7295, 40.275462 ], [ -111.726047, 40.273915 ], [ -111.726013, 40.273909 ], [ -111.72597, 40.273915 ], [ -111.724166, 40.274253 ], [ -111.722549, 40.275187 ], [ -111.719644, 40.277225 ], [ -111.719412, 40.2775 ], [ -111.718749, 40.278826 ], [ -111.71843, 40.279697 ], [ -111.718307, 40.280182 ], [ -111.718462, 40.280904 ], [ -111.71851, 40.280978 ], [ -111.718629, 40.281084 ], [ -111.721731, 40.282118 ], [ -111.72373, 40.282472 ], [ -111.72861, 40.283812 ], [ -111.730677, 40.284936 ], [ -111.731037, 40.284933 ], [ -111.73164, 40.284499 ], [ -111.732801, 40.28334 ], [ -111.73359, 40.282053 ], [ -111.734557, 40.279118 ] ] ] } },
{ "type": "Feature", "properties": { "group_index": 0, "value": 900.0, "center": [ -111.72609041341013, 40.27993748551257 ], "point_id": 0 }, "geometry": { "type": "Polygon", "coordinates": [ [ [ -111.739105, 40.279099 ], [ -111.739088, 40.278973 ], [ -111.738684, 40.278107 ], [ -111.737444, 40.277493 ], [ -111.737084, 40.277494 ], [ -111.732135, 40.274106 ], [ -111.73148, 40.273518 ], [ -111.730614, 40.273211 ], [ -111.730387, 40.273213 ], [ -111.726199, 40.272306 ], [ -111.723943, 40.270889 ], [ -111.721694, 40.2725 ], [ -111.721391, 40.272695 ], [ -111.721333, 40.272754 ], [ -111.718468, 40.27506 ], [ -111.715882, 40.275474 ], [ -111.715698, 40.275467 ], [ -111.715515, 40.275461 ], [ -111.715204, 40.277762 ], [ -111.715636, 40.280619 ], [ -111.716462, 40.282799 ], [ -111.71655, 40.282876 ], [ -111.716646, 40.282941 ], [ -111.71804, 40.283769 ], [ -111.721041, 40.284321 ], [ -111.723862, 40.285901 ], [ -111.723974, 40.285971 ], [ -111.724334, 40.285959 ], [ -111.724466, 40.285902 ], [ -111.730446, 40.285959 ], [ -111.730828, 40.28646 ], [ -111.731462, 40.287253 ], [ -111.732083, 40.2877 ], [ -111.732221, 40.287702 ], [ -111.732643, 40.287693 ], [ -111.734173, 40.287014 ], [ -111.735034, 40.286639 ], [ -111.7376, 40.282562 ], [ -111.739015, 40.279448 ], [ -111.739115, 40.279224 ], [ -111.739105, 40.279099 ] ] ] } },
{ "type": "Feature", "properties": { "group_index": 0, "value": 300.0, "center": [ -111.66069005363003, 40.225462209608224 ], "point_id": 0 }, "geometry": { "type": "Polygon", "coordinates": [ [ [ -111.665, 40.225877 ], [ -111.662378, 40.222901 ], [ -111.662022, 40.222849 ], [ -111.659122, 40.223125 ], [ -111.658585, 40.223193 ], [ -111.657542, 40.223887 ], [ -111.656785, 40.224516 ], [ -111.656785, 40.22462 ], [ -111.656785, 40.224625 ], [ -111.656788, 40.22473 ], [ -111.658216, 40.225945 ], [ -111.658347, 40.226049 ], [ -111.660063, 40.227224 ], [ -111.661734, 40.228123 ], [ -111.661949, 40.228171 ], [ -111.662309, 40.228173 ], [ -111.662441, 40.228138 ], [ -111.662579, 40.228038 ], [ -111.664046, 40.226931 ], [ -111.66416, 40.226848 ], [ -111.665001, 40.226237 ], [ -111.665, 40.225877 ] ] ] } },
{ "type": "Feature", "properties": { "group_index": 0, "value": 600.0, "center": [ -111.66069005363003, 40.225462209608224 ], "point_id": 0 }, "geometry": { "type": "Polygon", "coordinates": [ [ [ -111.668732, 40.226803 ], [ -111.665899, 40.221517 ], [ -111.663615, 40.219999 ], [ -111.663248, 40.219751 ], [ -111.661975, 40.219234 ], [ -111.661916, 40.219238 ], [ -111.661916, 40.219238 ], [ -111.661856, 40.219242 ], [ -111.659199, 40.21952 ], [ -111.659017, 40.21956 ], [ -111.656364, 40.220724 ], [ -111.655113, 40.221992 ], [ -111.653314, 40.225532 ], [ -111.653311, 40.225892 ], [ -111.654924, 40.22721 ], [ -111.656666, 40.228661 ], [ -111.65801, 40.229768 ], [ -111.658178, 40.229889 ], [ -111.658513, 40.230095 ], [ -111.660121, 40.230995 ], [ -111.661917, 40.231951 ], [ -111.662111, 40.231951 ], [ -111.662793, 40.231905 ], [ -111.666993, 40.228489 ], [ -111.668053, 40.227701 ], [ -111.668728, 40.227163 ], [ -111.668732, 40.226803 ] ] ] } },
{ "type": "Feature", "properties": { "group_index": 0, "value": 900.0, "center": [ -111.66069005363003, 40.225462209608224 ], "point_id": 0 }, "geometry": { "type": "Polygon", "coordinates": [ [ [ -111.673622, 40.227024 ], [ -111.673561, 40.226918 ], [ -111.672128, 40.225611 ], [ -111.670666, 40.221206 ], [ -111.670442, 40.220925 ], [ -111.667548, 40.219148 ], [ -111.665364, 40.217987 ], [ -111.664889, 40.217787 ], [ -111.659395, 40.215999 ], [ -111.659149, 40.215958 ], [ -111.658789, 40.215959 ], [ -111.658564, 40.216045 ], [ -111.656087, 40.217247 ], [ -111.655256, 40.21773 ], [ -111.652405, 40.220337 ], [ -111.650062, 40.221924 ], [ -111.648406, 40.225477 ], [ -111.648405, 40.225837 ], [ -111.650146, 40.227317 ], [ -111.651757, 40.228639 ], [ -111.653159, 40.229815 ], [ -111.654742, 40.231089 ], [ -111.654997, 40.231292 ], [ -111.656599, 40.232509 ], [ -111.658798, 40.234063 ], [ -111.661911, 40.235649 ], [ -111.662271, 40.235648 ], [ -111.662392, 40.235632 ], [ -111.662741, 40.235423 ], [ -111.664591, 40.234089 ], [ -111.666573, 40.23262 ], [ -111.669951, 40.230016 ], [ -111.673621, 40.227384 ], [ -111.673622, 40.227024 ] ] ] } },
{ "type": "Feature", "properties": { "group_index": 0, "value": 300.0, "center": [ -111.89628619705994, 40.66029234406321 ], "point_id": 0 }, "geometry": { "type": "Polygon", "coordinates": [ [ [ -111.898228, 40.660743 ], [ -111.896553, 40.65891 ], [ -111.895782, 40.658589 ], [ -111.894517, 40.658828 ], [ -111.894388, 40.658858 ], [ -111.893433, 40.659799 ], [ -111.893046, 40.661703 ], [ -111.893093, 40.662027 ], [ -111.893172, 40.662176 ], [ -111.894933, 40.663158 ], [ -111.895271, 40.663283 ], [ -111.897756, 40.661805 ], [ -111.898106, 40.661379 ], [ -111.898205, 40.661235 ], [ -111.898292, 40.661097 ], [ -111.898228, 40.660743 ] ] ] } },
{ "type": "Feature", "properties": { "group_index": 0, "value": 600.0, "center": [ -111.89628619705994, 40.66029234406321 ], "point_id": 0 }, "geometry": { "type": "Polygon", "coordinates": [ [ [ -111.903163, 40.660249 ], [ -111.899893, 40.658506 ], [ -111.897736, 40.6555 ], [ -111.897446, 40.655287 ], [ -111.894116, 40.655234 ], [ -111.893682, 40.655479 ], [ -111.893607, 40.655547 ], [ -111.892478, 40.65659 ], [ -111.891781, 40.657235 ], [ -111.889538, 40.661548 ], [ -111.889573, 40.663086 ], [ -111.889814, 40.664442 ], [ -111.890016, 40.664635 ], [ -111.890352, 40.664825 ], [ -111.891894, 40.665665 ], [ -111.892143, 40.665714 ], [ -111.892162, 40.665714 ], [ -111.892314, 40.665715 ], [ -111.89254, 40.665714 ], [ -111.893125, 40.665147 ], [ -111.898833, 40.664689 ], [ -111.899192, 40.664672 ], [ -111.899852, 40.664259 ], [ -111.903115, 40.660713 ], [ -111.903216, 40.660605 ], [ -111.903163, 40.660249 ] ] ] } },
{ "type": "Feature", "properties": { "group_index": 0, "value": 900.0, "center": [ -111.89628619705994, 40.66029234406321 ], "point_id": 0 }, "geometry": { "type": "Polygon", "coordinates": [ [ [ -111.908128, 40.660607 ], [ -111.907367, 40.659062 ], [ -111.906231, 40.657833 ], [ -111.906147, 40.657781 ], [ -111.901301, 40.654793 ], [ -111.89863, 40.651937 ], [ -111.898271, 40.651923 ], [ -111.892807, 40.652953 ], [ -111.892209, 40.652651 ], [ -111.891944, 40.652645 ], [ -111.89185, 40.652654 ], [ -111.891721, 40.652729 ], [ -111.888356, 40.655985 ], [ -111.888218, 40.656127 ], [ -111.886136, 40.660056 ], [ -111.884948, 40.662918 ], [ -111.884826, 40.663256 ], [ -111.885952, 40.665253 ], [ -111.886027, 40.665315 ], [ -111.888886, 40.667691 ], [ -111.890021, 40.668351 ], [ -111.891868, 40.669243 ], [ -111.892069, 40.669342 ], [ -111.892148, 40.66936 ], [ -111.892508, 40.669359 ], [ -111.893534, 40.669118 ], [ -111.895132, 40.667899 ], [ -111.899552, 40.668371 ], [ -111.899571, 40.668371 ], [ -111.899856, 40.668245 ], [ -111.900919, 40.667581 ], [ -111.901012, 40.667449 ], [ -111.905469, 40.663444 ], [ -111.905807, 40.66332 ], [ -111.90802, 40.66095 ], [ -111.908128, 40.660607 ] ] ] } },
{ "type": "Feature", "properties": { "group_index": 0, "value": 300.0, "center": [ -111.90182223871608, 40.563127156389335 ], "point_id": 0 }, "geometry": { "type": "Polygon", "coordinates": [ [ [ -111.904798, 40.564599 ], [ -111.90425, 40.562166 ], [ -111.90305, 40.56144 ], [ -111.902723, 40.561289 ], [ -111.902313, 40.561183 ], [ -111.902122, 40.561232 ], [ -111.90109, 40.561708 ], [ -111.901055, 40.561796 ], [ -111.90077, 40.564026 ], [ -111.901161, 40.565088 ], [ -111.901632, 40.565327 ], [ -111.901937, 40.565477 ], [ -111.902475, 40.565742 ], [ -111.903375, 40.566046 ], [ -111.903699, 40.565889 ], [ -111.90386, 40.565788 ], [ -111.904797, 40.564959 ], [ -111.904798, 40.564599 ] ] ] } },
{ "type": "Feature", "properties": { "group_index": 0, "value": 600.0, "center": [ -111.90182223871608, 40.563127156389335 ], "point_id": 0 }, "geometry": { "type": "Polygon", "coordinates": [ [ [ -111.90575, 40.565532 ], [ -111.905191, 40.560746 ], [ -111.905138, 40.558838 ], [ -111.902894, 40.557555 ], [ -111.902683, 40.557482 ], [ -111.902323, 40.557484 ], [ -111.900281, 40.558975 ], [ -111.900039, 40.559577 ], [ -111.899967, 40.559871 ], [ -111.900876, 40.565784 ], [ -111.9041, 40.569774 ], [ -111.904184, 40.569772 ], [ -111.904323, 40.569717 ], [ -111.904619, 40.569552 ], [ -111.905304, 40.567644 ], [ -111.90575, 40.565532 ] ] ] } },
{ "type": "Feature", "properties": { "group_index": 0, "value": 900.0, "center": [ -111.90182223871608, 40.563127156389335 ], "point_id": 0 }, "geometry": { "type": "Polygon", "coordinates": [ [ [ -111.909175, 40.56985 ], [ -111.909004, 40.569768 ], [ -111.90575, 40.565532 ], [ -111.904878, 40.561391 ], [ -111.908273, 40.559224 ], [ -111.908665, 40.559235 ], [ -111.90905, 40.559245 ], [ -111.909329, 40.559264 ], [ -111.909609, 40.559283 ], [ -111.909633, 40.558923 ], [ -111.909275, 40.558579 ], [ -111.906249, 40.556158 ], [ -111.903475, 40.554002 ], [ -111.903012, 40.553874 ], [ -111.897937, 40.555752 ], [ -111.89526, 40.55893 ], [ -111.895243, 40.559289 ], [ -111.896081, 40.55933 ], [ -111.899677, 40.563368 ], [ -111.899722, 40.563677 ], [ -111.899308, 40.56936 ], [ -111.899236, 40.569713 ], [ -111.899429, 40.569976 ], [ -111.900917, 40.571058 ], [ -111.903818, 40.5725 ], [ -111.90539, 40.572929 ], [ -111.906138, 40.573089 ], [ -111.907464, 40.572297 ], [ -111.909191, 40.570257 ], [ -111.909347, 40.569932 ], [ -111.909175, 40.56985 ] ] ] } },
{ "type": "Feature", "properties": { "group_index": 0, "value": 300.0, "center": [ -111.90438359776039, 40.515933128987136 ], "point_id": 0 }, "geometry": { "type": "Polygon", "coordinates": [ [ [ -111.907305, 40.515197 ], [ -111.905835, 40.513067 ], [ -111.905711, 40.512983 ], [ -111.905351, 40.512985 ], [ -111.904571, 40.514288 ], [ -111.904379, 40.514986 ], [ -111.904406, 40.516472 ], [ -111.90537, 40.516729 ], [ -111.90573, 40.516728 ], [ -111.906008, 40.516561 ], [ -111.907204, 40.515647 ], [ -111.907308, 40.515557 ], [ -111.907305, 40.515197 ] ] ] } },
{ "type": "Feature", "properties": { "group_index": 0, "value": 600.0, "center": [ -111.90438359776039, 40.515933128987136 ], "point_id": 0 }, "geometry": { "type": "Polygon", "coordinates": [ [ [ -111.909996, 40.513518 ], [ -111.909479, 40.512122 ], [ -111.907185, 40.509642 ], [ -111.907132, 40.509621 ], [ -111.906354, 40.509441 ], [ -111.905075, 40.51081 ], [ -111.905035, 40.510914 ], [ -111.904708, 40.512236 ], [ -111.904379, 40.514986 ], [ -111.904406, 40.516472 ], [ -111.904935, 40.51878 ], [ -111.90519, 40.519702 ], [ -111.90539, 40.520393 ], [ -111.905748, 40.520422 ], [ -111.90666, 40.520109 ], [ -111.910153, 40.5173 ], [ -111.909996, 40.513518 ] ] ] } },
{ "type": "Feature", "properties": { "group_index": 0, "value": 900.0, "center": [ -111.90438359776039, 40.515933128987136 ], "point_id": 0 }, "geometry": { "type": "Polygon", "coordinates": [ [ [ -111.911978, 40.517221 ], [ -111.911833, 40.511477 ], [ -111.911951, 40.511104 ], [ -111.91207, 40.510731 ], [ -111.907784, 40.506751 ], [ -111.90365, 40.507051 ], [ -111.902499, 40.507905 ], [ -111.902408, 40.508253 ], [ -111.902396, 40.508327 ], [ -111.902396, 40.509468 ], [ -111.902405, 40.509565 ], [ -111.902681, 40.510683 ], [ -111.904379, 40.514986 ], [ -111.904406, 40.516472 ], [ -111.904935, 40.51878 ], [ -111.905399, 40.5205 ], [ -111.906382, 40.523928 ], [ -111.906738, 40.52398 ], [ -111.907272, 40.523427 ], [ -111.907347, 40.523325 ], [ -111.908992, 40.520219 ], [ -111.911986, 40.51758 ], [ -111.911978, 40.517221 ] ] ] } },
{ "type": "Feature", "properties": { "group_index": 0, "value": 300.0, "center": [ -111.90898626622871, 40.76237447665463 ], "point_id": 0 }, "geometry": { "type": "Polygon", "coordinates": [ [ [ -111.911624, 40.764659 ], [ -111.908893, 40.759954 ], [ -111.90888, 40.759304 ], [ -111.908886, 40.758967 ], [ -111.908228, 40.758805 ], [ -111.907868, 40.758805 ], [ -111.905972, 40.760594 ], [ -111.905673, 40.762478 ], [ -111.905673, 40.762838 ], [ -111.905878, 40.763003 ], [ -111.906067, 40.763156 ], [ -111.907452, 40.764319 ], [ -111.908267, 40.764719 ], [ -111.911021, 40.765644 ], [ -111.911381, 40.765642 ], [ -111.911624, 40.765019 ], [ -111.911624, 40.764659 ] ] ] } },
{ "type": "Feature", "properties": { "group_index": 0, "value": 600.0, "center": [ -111.90898626622871, 40.76237447665463 ], "point_id": 0 }, "geometry": { "type": "Polygon", "coordinates": [ [ [ -111.916571, 40.764655 ], [ -111.912972, 40.761629 ], [ -111.910415, 40.760439 ], [ -111.908337, 40.756138 ], [ -111.908336, 40.755745 ], [ -111.908336, 40.755352 ], [ -111.907976, 40.755353 ], [ -111.907076, 40.755937 ], [ -111.902334, 40.759426 ], [ -111.90118, 40.760301 ], [ -111.901038, 40.760459 ], [ -111.901038, 40.760819 ], [ -111.901058, 40.760998 ], [ -111.903572, 40.765016 ], [ -111.905209, 40.766363 ], [ -111.908262, 40.768694 ], [ -111.908622, 40.768695 ], [ -111.911367, 40.767304 ], [ -111.91549, 40.765858 ], [ -111.915712, 40.765733 ], [ -111.916249, 40.765325 ], [ -111.916443, 40.765173 ], [ -111.916586, 40.765015 ], [ -111.916571, 40.764655 ] ] ] } },
{ "type": "Feature", "properties": { "group_index": 0, "value": 900.0, "center": [ -111.90898626622871, 40.76237447665463 ], "point_id": 0 }, "geometry": { "type": "Polygon", "coordinates": [ [ [ -111.92139, 40.764799 ], [ -111.919108, 40.762795 ], [ -111.916556, 40.76061 ], [ -111.916443, 40.760525 ], [ -111.912874, 40.759555 ], [ -111.912509, 40.759352 ], [ -111.912495, 40.759353 ], [ -111.908336, 40.755745 ], [ -111.908713, 40.754124 ], [ -111.908849, 40.752634 ], [ -111.908783, 40.751915 ], [ -111.908696, 40.75161 ], [ -111.908287, 40.751607 ], [ -111.907927, 40.751605 ], [ -111.907866, 40.751609 ], [ -111.905219, 40.753397 ], [ -111.901871, 40.755949 ], [ -111.900435, 40.757035 ], [ -111.899475, 40.757783 ], [ -111.899012, 40.758141 ], [ -111.896203, 40.760308 ], [ -111.896096, 40.760398 ], [ -111.896096, 40.760758 ], [ -111.896097, 40.760897 ], [ -111.896136, 40.760993 ], [ -111.898504, 40.764845 ], [ -111.898871, 40.765331 ], [ -111.901521, 40.767521 ], [ -111.904992, 40.770808 ], [ -111.908054, 40.772091 ], [ -111.908465, 40.772217 ], [ -111.908572, 40.772216 ], [ -111.909447, 40.771616 ], [ -111.909544, 40.771536 ], [ -111.91201, 40.769673 ], [ -111.915419, 40.769171 ], [ -111.915512, 40.769167 ], [ -111.916631, 40.76875 ], [ -111.916947, 40.768583 ], [ -111.919453, 40.76677 ], [ -111.921196, 40.765321 ], [ -111.921391, 40.765159 ], [ -111.92139, 40.764799 ] ] ] } },
{ "type": "Feature", "properties": { "group_index": 0, "value": 300.0, "center": [ -111.90508628926047, 40.77221478266119 ], "point_id": 0 }, "geometry": { "type": "Polygon", "coordinates": [ [ [ -111.907599, 40.769154 ], [ -111.905782, 40.768708 ], [ -111.90561, 40.768709 ], [ -111.904786, 40.768724 ], [ -111.904403, 40.768837 ], [ -111.90429, 40.768927 ], [ -111.902618, 40.770201 ], [ -111.902488, 40.770298 ], [ -111.901387, 40.771171 ], [ -111.900982, 40.771515 ], [ -111.900983, 40.771875 ], [ -111.902919, 40.774342 ], [ -111.904237, 40.775518 ], [ -111.904561, 40.775676 ], [ -111.904749, 40.775652 ], [ -111.904939, 40.775459 ], [ -111.905027, 40.775126 ], [ -111.905052, 40.774778 ], [ -111.907697, 40.769501 ], [ -111.907599, 40.769154 ] ] ] } },
{ "type": "Feature", "properties": { "group_index": 0, "value": 600.0, "center": [ -111.90508628926047, 40.77221478266119 ], "point_id": 0 }, "geometry": { "type": "Polygon", "coordinates": [ [ [ -111.911466, 40.769109 ], [ -111.909535, 40.767139 ], [ -111.908228, 40.76607 ], [ -111.905646, 40.764841 ], [ -111.905638, 40.764841 ], [ -111.905076, 40.764977 ], [ -111.904039, 40.765334 ], [ -111.904001, 40.765347 ], [ -111.903338, 40.76572 ], [ -111.899727, 40.768379 ], [ -111.896333, 40.771189 ], [ -111.896043, 40.771501 ], [ -111.896044, 40.771861 ], [ -111.899914, 40.776169 ], [ -111.902683, 40.77807 ], [ -111.905318, 40.778545 ], [ -111.905678, 40.778535 ], [ -111.905946, 40.778379 ], [ -111.906191, 40.778188 ], [ -111.908833, 40.776201 ], [ -111.909015, 40.776057 ], [ -111.909084, 40.775983 ], [ -111.909127, 40.77588 ], [ -111.909127, 40.77552 ], [ -111.909253, 40.771859 ], [ -111.911483, 40.769468 ], [ -111.911466, 40.769109 ] ] ] } },
{ "type": "Feature", "properties": { "group_index": 0, "value": 900.0, "center": [ -111.90508628926047, 40.77221478266119 ], "point_id": 0 }, "geometry": { "type": "Polygon", "coordinates": [ [ [ -111.914156, 40.775877 ], [ -111.914265, 40.771758 ], [ -111.915798, 40.769694 ], [ -111.915867, 40.769623 ], [ -111.915916, 40.769559 ], [ -111.915915, 40.769512 ], [ -111.915867, 40.769263 ], [ -111.912272, 40.764972 ], [ -111.908333, 40.762479 ], [ -111.905781, 40.761274 ], [ -111.905072, 40.761163 ], [ -111.904945, 40.761157 ], [ -111.902328, 40.762481 ], [ -111.901856, 40.762801 ], [ -111.899477, 40.764664 ], [ -111.896728, 40.766839 ], [ -111.894819, 40.768378 ], [ -111.891383, 40.771188 ], [ -111.890918, 40.771692 ], [ -111.890918, 40.771693 ], [ -111.890918, 40.771693 ], [ -111.890918, 40.771694 ], [ -111.894822, 40.776144 ], [ -111.898774, 40.779026 ], [ -111.899732, 40.779698 ], [ -111.902566, 40.781682 ], [ -111.902926, 40.781683 ], [ -111.908091, 40.780547 ], [ -111.908516, 40.780246 ], [ -111.909495, 40.779495 ], [ -111.911397, 40.778057 ], [ -111.913844, 40.776199 ], [ -111.914156, 40.775878 ], [ -111.914156, 40.775877 ] ] ] } },
{ "type": "Feature", "properties": { "group_index": 0, "value": 300.0, "center": [ -111.6377354674211, 40.161437594967786 ], "point_id": 0 }, "geometry": { "type": "Polygon", "coordinates": [ [ [ -111.642492, 40.161081 ], [ -111.641999, 40.160636 ], [ -111.641677, 40.160619 ], [ -111.641317, 40.160611 ], [ -111.638284, 40.161177 ], [ -111.634961, 40.161428 ], [ -111.637111, 40.161436 ], [ -111.641548, 40.162258 ], [ -111.64155, 40.162258 ], [ -111.642294, 40.16188 ], [ -111.64251, 40.161726 ], [ -111.642731, 40.161373 ], [ -111.642492, 40.161081 ] ] ] } },
{ "type": "Feature", "properties": { "group_index": 0, "value": 600.0, "center": [ -111.6377354674211, 40.161437594967786 ], "point_id": 0 }, "geometry": { "type": "Polygon", "coordinates": [ [ [ -111.647638, 40.161224 ], [ -111.645848, 40.159119 ], [ -111.645549, 40.158919 ], [ -111.642442, 40.157255 ], [ -111.642082, 40.157256 ], [ -111.641864, 40.157306 ], [ -111.641014, 40.157999 ], [ -111.637115, 40.161159 ], [ -111.635275, 40.161166 ], [ -111.633381, 40.161158 ], [ -111.63338, 40.161518 ], [ -111.635274, 40.161526 ], [ -111.637168, 40.161535 ], [ -111.6383, 40.161439 ], [ -111.642209, 40.165447 ], [ -111.642569, 40.165449 ], [ -111.647127, 40.161678 ], [ -111.647409, 40.161674 ], [ -111.647641, 40.161584 ], [ -111.647638, 40.161224 ] ] ] } },
{ "type": "Feature", "properties": { "group_index": 0, "value": 900.0, "center": [ -111.6377354674211, 40.161437594967786 ], "point_id": 0 }, "geometry": { "type": "Polygon", "coordinates": [ [ [ -111.652781, 40.161047 ], [ -111.65121, 40.160179 ], [ -111.651011, 40.160091 ], [ -111.649506, 40.160175 ], [ -111.646394, 40.156125 ], [ -111.646396, 40.155785 ], [ -111.646399, 40.155445 ], [ -111.643316, 40.153798 ], [ -111.643003, 40.15364 ], [ -111.642474, 40.153497 ], [ -111.642114, 40.153511 ], [ -111.641681, 40.15374 ], [ -111.639687, 40.156721 ], [ -111.639598, 40.156824 ], [ -111.639611, 40.157506 ], [ -111.639599, 40.158013 ], [ -111.635275, 40.161166 ], [ -111.632577, 40.158258 ], [ -111.632225, 40.158183 ], [ -111.631469, 40.158667 ], [ -111.628612, 40.160967 ], [ -111.628483, 40.16107 ], [ -111.628475, 40.16143 ], [ -111.630447, 40.161471 ], [ -111.632418, 40.161512 ], [ -111.63338, 40.161518 ], [ -111.634852, 40.161524 ], [ -111.635274, 40.161526 ], [ -111.637168, 40.161535 ], [ -111.639341, 40.166667 ], [ -111.639335, 40.167026 ], [ -111.639647, 40.167235 ], [ -111.640006, 40.167258 ], [ -111.644541, 40.167383 ], [ -111.6449, 40.167394 ], [ -111.645425, 40.167044 ], [ -111.645426, 40.166684 ], [ -111.648637, 40.161658 ], [ -111.650865, 40.162412 ], [ -111.651185, 40.162447 ], [ -111.651247, 40.162447 ], [ -111.651366, 40.162391 ], [ -111.65278, 40.161407 ], [ -111.652781, 40.161047 ] ] ] } },
{ "type": "Feature", "properties": { "group_index": 0, "value": 300.0, "center": [ -111.67968402333383, 40.110480760024835 ], "point_id": 0 }, "geometry": { "type": "Polygon", "coordinates": [ [ [ -111.681888, 40.107922 ], [ -111.68036, 40.106608 ], [ -111.677961, 40.107869 ], [ -111.677957, 40.108229 ], [ -111.679486, 40.112866 ], [ -111.679475, 40.11427 ], [ -111.679473, 40.114435 ], [ -111.679833, 40.114438 ], [ -111.679835, 40.114272 ], [ -111.679846, 40.112868 ], [ -111.681898, 40.108282 ], [ -111.681888, 40.107922 ] ] ] } },
{ "type": "Feature", "properties": { "group_index": 0, "value": 600.0, "center": [ -111.67968402333383, 40.110480760024835 ], "point_id": 0 }, "geometry": { "type": "Polygon", "coordinates": [ [ [ -111.686635, 40.107926 ], [ -111.684625, 40.10518 ], [ -111.683539, 40.105179 ], [ -111.682453, 40.105178 ], [ -111.682236, 40.105208 ], [ -111.679607, 40.105898 ], [ -111.675527, 40.106282 ], [ -111.675167, 40.106283 ], [ -111.673062, 40.107852 ], [ -111.673058, 40.108212 ], [ -111.673141, 40.108297 ], [ -111.673522, 40.108549 ], [ -111.674116, 40.109015 ], [ -111.674635, 40.109422 ], [ -111.674632, 40.115263 ], [ -111.674629, 40.115623 ], [ -111.679452, 40.117975 ], [ -111.679812, 40.117975 ], [ -111.68289, 40.115703 ], [ -111.682894, 40.115343 ], [ -111.679858, 40.111299 ], [ -111.684341, 40.108282 ], [ -111.686634, 40.108286 ], [ -111.686635, 40.107926 ] ] ] } },
{ "type": "Feature", "properties": { "group_index": 0, "value": 900.0, "center": [ -111.67968402333383, 40.110480760024835 ], "point_id": 0 }, "geometry": { "type": "Polygon", "coordinates": [ [ [ -111.691046, 40.107939 ], [ -111.685729, 40.105341 ], [ -111.685611, 40.105259 ], [ -111.680785, 40.102637 ], [ -111.680426, 40.102619 ], [ -111.675347, 40.102735 ], [ -111.674697, 40.102903 ], [ -111.674044, 40.103157 ], [ -111.670769, 40.105696 ], [ -111.668161, 40.107827 ], [ -111.668162, 40.108187 ], [ -111.668249, 40.108276 ], [ -111.668742, 40.10861 ], [ -111.669853, 40.109621 ], [ -111.671486, 40.115251 ], [ -111.671487, 40.115611 ], [ -111.67171, 40.115871 ], [ -111.673484, 40.115613 ], [ -111.674629, 40.115623 ], [ -111.675021, 40.115626 ], [ -111.67945, 40.119339 ], [ -111.679476, 40.120532 ], [ -111.679502, 40.121726 ], [ -111.679862, 40.121718 ], [ -111.683146, 40.119538 ], [ -111.686547, 40.115721 ], [ -111.688455, 40.115722 ], [ -111.688455, 40.115362 ], [ -111.686547, 40.115361 ], [ -111.684638, 40.115361 ], [ -111.683918, 40.115354 ], [ -111.683196, 40.115346 ], [ -111.679858, 40.111299 ], [ -111.684341, 40.108282 ], [ -111.684522, 40.108282 ], [ -111.686634, 40.108286 ], [ -111.688043, 40.108289 ], [ -111.688906, 40.108288 ], [ -111.689767, 40.108287 ], [ -111.691043, 40.108299 ], [ -111.692319, 40.108311 ], [ -111.692322, 40.107951 ], [ -111.691046, 40.107939 ] ] ] } },
{ "type": "Feature", "properties": { "group_index": 0, "value": 300.0, "center": [ -111.76039230804949, 40.03255605649781 ], "point_id": 0 }, "geometry": { "type": "Polygon", "coordinates": [ [ [ -111.760548, 40.033092 ], [ -111.760649, 40.032691 ], [ -111.760582, 40.032337 ], [ -111.760006, 40.032446 ], [ -111.759429, 40.032555 ], [ -111.759355, 40.032587 ], [ -111.758031, 40.033495 ], [ -111.758873, 40.035192 ], [ -111.759081, 40.035311 ], [ -111.760056, 40.034953 ], [ -111.760548, 40.033092 ] ] ] } },
{ "type": "Feature", "properties": { "group_index": 0, "value": 600.0, "center": [ -111.76039230804949, 40.03255605649781 ], "point_id": 0 }, "geometry": { "type": "Polygon", "coordinates": [ [ [ -111.763524, 40.035462 ], [ -111.763351, 40.032614 ], [ -111.760582, 40.032337 ], [ -111.760006, 40.032446 ], [ -111.759429, 40.032555 ], [ -111.759355, 40.032587 ], [ -111.756873, 40.033726 ], [ -111.756686, 40.033806 ], [ -111.756644, 40.033864 ], [ -111.756646, 40.034349 ], [ -111.75837, 40.038785 ], [ -111.75869, 40.038951 ], [ -111.763525, 40.0355 ], [ -111.763524, 40.035462 ] ] ] } },
{ "type": "Feature", "properties": { "group_index": 0, "value": 900.0, "center": [ -111.76039230804949, 40.03255605649781 ], "point_id": 0 }, "geometry": { "type": "Polygon", "coordinates": [ [ [ -111.763573, 40.037327 ], [ -111.764184, 40.032217 ], [ -111.764296, 40.029504 ], [ -111.763457, 40.028934 ], [ -111.763097, 40.028937 ], [ -111.7603, 40.031249 ], [ -111.756686, 40.033806 ], [ -111.756644, 40.033864 ], [ -111.755086, 40.039227 ], [ -111.754708, 40.041143 ], [ -111.754937, 40.041421 ], [ -111.758503, 40.04242 ], [ -111.758863, 40.042419 ], [ -111.763616, 40.038852 ], [ -111.763573, 40.037327 ] ] ] } },
{ "type": "Feature", "properties": { "group_index": 0, "value": 300.0, "center": [ -111.9265471, 40.478665 ], "point_id": 0 }, "geometry": { "type": "Polygon", "coordinates": [ [ [ -111.928119, 40.475531 ], [ -111.928054, 40.475332 ], [ -111.927994, 40.475312 ], [ -111.927811, 40.475345 ], [ -111.927089, 40.475528 ], [ -111.926173, 40.475801 ], [ -111.925861, 40.475987 ], [ -111.925244, 40.476439 ], [ -111.92495, 40.476812 ], [ -111.924861, 40.477246 ], [ -111.925511, 40.47833 ], [ -111.926108, 40.478506 ], [ -111.926788, 40.478275 ], [ -111.92704, 40.477883 ], [ -111.927282, 40.47749 ], [ -111.927778, 40.476703 ], [ -111.928015, 40.476304 ], [ -111.928193, 40.475964 ], [ -111.928119, 40.475531 ] ] ] } },
{ "type": "Feature", "properties": { "group_index": 0, "value": 600.0, "center": [ -111.9265471, 40.478665 ], "point_id": 0 }, "geometry": { "type": "Polygon", "coordinates": [ [ [ -111.929836, 40.473255 ], [ -111.928621, 40.472495 ], [ -111.928283, 40.472375 ], [ -111.923738, 40.47291 ], [ -111.923393, 40.473013 ], [ -111.924032, 40.477508 ], [ -111.92474, 40.47901 ], [ -111.925091, 40.47909 ], [ -111.926788, 40.478275 ], [ -111.92704, 40.477883 ], [ -111.927778, 40.476703 ], [ -111.928841, 40.474988 ], [ -111.929717, 40.473594 ], [ -111.929836, 40.473255 ] ] ] } },
{ "type": "Feature", "properties": { "group_index": 0, "value": 900.0, "center": [ -111.9265471, 40.478665 ], "point_id": 0 }, "geometry": { "type": "Polygon", "coordinates": [ [ [ -111.931675, 40.470582 ], [ -111.931747, 40.470288 ], [ -111.931811, 40.469982 ], [ -111.931459, 40.469908 ], [ -111.926597, 40.469875 ], [ -111.92633, 40.469876 ], [ -111.925808, 40.469913 ], [ -111.925286, 40.46995 ], [ -111.92391, 40.470468 ], [ -111.923747, 40.470661 ], [ -111.923584, 40.470855 ], [ -111.922462, 40.472322 ], [ -111.922399, 40.472548 ], [ -111.922393, 40.472577 ], [ -111.922379, 40.472713 ], [ -111.923866, 40.474192 ], [ -111.921111, 40.479509 ], [ -111.921113, 40.479869 ], [ -111.922667, 40.482049 ], [ -111.923043, 40.482087 ], [ -111.923718, 40.481966 ], [ -111.92393, 40.481669 ], [ -111.924318, 40.481142 ], [ -111.924498, 40.480908 ], [ -111.926788, 40.478275 ], [ -111.929007, 40.476748 ], [ -111.929201, 40.476445 ], [ -111.930495, 40.47386 ], [ -111.931605, 40.470872 ], [ -111.931675, 40.470582 ] ] ] } },
{ "type": "Feature", "properties": { "group_index": 0, "value": 300.0, "center": [ -111.89480912200777, 40.921588917280836 ], "point_id": 0 }, "geometry": { "type": "Polygon", "coordinates": [ [ [ -111.899638, 40.921348 ], [ -111.89951, 40.921196 ], [ -111.899, 40.920742 ], [ -111.897994, 40.919966 ], [ -111.897083, 40.919453 ], [ -111.896723, 40.919449 ], [ -111.895643, 40.919744 ], [ -111.890025, 40.921441 ], [ -111.889716, 40.921434 ], [ -111.889708, 40.921794 ], [ -111.89007, 40.921825 ], [ -111.895456, 40.922916 ], [ -111.896712, 40.923814 ], [ -111.897072, 40.923815 ], [ -111.899632, 40.921708 ], [ -111.899638, 40.921348 ] ] ] } },
{ "type": "Feature", "properties": { "group_index": 0, "value": 600.0, "center": [ -111.89480912200777, 40.921588917280836 ], "point_id": 0 }, "geometry": { "type": "Polygon", "coordinates": [ [ [ -111.90098, 40.923433 ], [ -111.901302, 40.921829 ], [ -111.901364, 40.92152 ], [ -111.901522, 40.920698 ], [ -111.901682, 40.919867 ], [ -111.901825, 40.919103 ], [ -111.901695, 40.91795 ], [ -111.90143, 40.917706 ], [ -111.89696, 40.915708 ], [ -111.8966, 40.915709 ], [ -111.896387, 40.915825 ], [ -111.894787, 40.91714 ], [ -111.892601, 40.91897 ], [ -111.889169, 40.919514 ], [ -111.888331, 40.919419 ], [ -111.887857, 40.919404 ], [ -111.887217, 40.919664 ], [ -111.885084, 40.921194 ], [ -111.884926, 40.921444 ], [ -111.884929, 40.921804 ], [ -111.885722, 40.922435 ], [ -111.886358, 40.922946 ], [ -111.886687, 40.923138 ], [ -111.887571, 40.923655 ], [ -111.888623, 40.924103 ], [ -111.890286, 40.924804 ], [ -111.893385, 40.925203 ], [ -111.896162, 40.927218 ], [ -111.896547, 40.927501 ], [ -111.896752, 40.927641 ], [ -111.896871, 40.927637 ], [ -111.89778, 40.927053 ], [ -111.900658, 40.925036 ], [ -111.90098, 40.923433 ] ] ] } },
{ "type": "Feature", "properties": { "group_index": 0, "value": 900.0, "center": [ -111.89480912200777, 40.921588917280836 ], "point_id": 0 }, "geometry": { "type": "Polygon", "coordinates": [ [ [ -111.905473, 40.915646 ], [ -111.902584, 40.913945 ], [ -111.902232, 40.913868 ], [ -111.896692, 40.911916 ], [ -111.89636, 40.912054 ], [ -111.896184, 40.912144 ], [ -111.895142, 40.912996 ], [ -111.89512, 40.913166 ], [ -111.890883, 40.916751 ], [ -111.889158, 40.916204 ], [ -111.888848, 40.916161 ], [ -111.887117, 40.916238 ], [ -111.886757, 40.916244 ], [ -111.885472, 40.917052 ], [ -111.88238, 40.919482 ], [ -111.880203, 40.921194 ], [ -111.880043, 40.921327 ], [ -111.879941, 40.921453 ], [ -111.879936, 40.921813 ], [ -111.883841, 40.925339 ], [ -111.885489, 40.926117 ], [ -111.890614, 40.928738 ], [ -111.89472, 40.930871 ], [ -111.89508, 40.93088 ], [ -111.899908, 40.92877 ], [ -111.900229, 40.927174 ], [ -111.900549, 40.925577 ], [ -111.900658, 40.925036 ], [ -111.900925, 40.923703 ], [ -111.903062, 40.918771 ], [ -111.905637, 40.915966 ], [ -111.905473, 40.915646 ] ] ] } },
{ "type": "Feature", "properties": { "group_index": 0, "value": 300.0, "center": [ -112.03556874212168, 41.13994863419441 ], "point_id": 0 }, "geometry": { "type": "Polygon", "coordinates": [ [ [ -112.040576, 41.139818 ], [ -112.040397, 41.139598 ], [ -112.036455, 41.1363 ], [ -112.036095, 41.136298 ], [ -112.034924, 41.136567 ], [ -112.034554, 41.136776 ], [ -112.034396, 41.1369 ], [ -112.030766, 41.139612 ], [ -112.03058, 41.139772 ], [ -112.03058, 41.140132 ], [ -112.031881, 41.141174 ], [ -112.036171, 41.143296 ], [ -112.036531, 41.14329 ], [ -112.037715, 41.142367 ], [ -112.040577, 41.140178 ], [ -112.040576, 41.139818 ] ] ] } },
{ "type": "Feature", "properties": { "group_index": 0, "value": 600.0, "center": [ -112.03556874212168, 41.13994863419441 ], "point_id": 0 }, "geometry": { "type": "Polygon", "coordinates": [ [ [ -112.045466, 41.139843 ], [ -112.045461, 41.139783 ], [ -112.045404, 41.139698 ], [ -112.045089, 41.139437 ], [ -112.041935, 41.136797 ], [ -112.038813, 41.134875 ], [ -112.036323, 41.132879 ], [ -112.035141, 41.132756 ], [ -112.034781, 41.132746 ], [ -112.030213, 41.136114 ], [ -112.026069, 41.139433 ], [ -112.025783, 41.139814 ], [ -112.025724, 41.139951 ], [ -112.025726, 41.140113 ], [ -112.026195, 41.140636 ], [ -112.02993, 41.143484 ], [ -112.030784, 41.144002 ], [ -112.031144, 41.144005 ], [ -112.03382, 41.144311 ], [ -112.03703, 41.145797 ], [ -112.037759, 41.145883 ], [ -112.038119, 41.145884 ], [ -112.038231, 41.14586 ], [ -112.040964, 41.143872 ], [ -112.044528, 41.141023 ], [ -112.045459, 41.140203 ], [ -112.045488, 41.140127 ], [ -112.045466, 41.139843 ] ] ] } },
{ "type": "Feature", "properties": { "group_index": 0, "value": 900.0, "center": [ -112.03556874212168, 41.13994863419441 ], "point_id": 0 }, "geometry": { "type": "Polygon", "coordinates": [ [ [ -112.050871, 41.139812 ], [ -112.047802, 41.13743 ], [ -112.044873, 41.134334 ], [ -112.040677, 41.132208 ], [ -112.038694, 41.130744 ], [ -112.037083, 41.12985 ], [ -112.034556, 41.128958 ], [ -112.034196, 41.128959 ], [ -112.03232, 41.130422 ], [ -112.027819, 41.134248 ], [ -112.027742, 41.134306 ], [ -112.026628, 41.135205 ], [ -112.025868, 41.135823 ], [ -112.025724, 41.139951 ], [ -112.025726, 41.140113 ], [ -112.025883, 41.144148 ], [ -112.027949, 41.146112 ], [ -112.029452, 41.14703 ], [ -112.03008, 41.147414 ], [ -112.030925, 41.147885 ], [ -112.03094, 41.147886 ], [ -112.036182, 41.148748 ], [ -112.03774, 41.149552 ], [ -112.0381, 41.149554 ], [ -112.038807, 41.149175 ], [ -112.042326, 41.146731 ], [ -112.04262, 41.146523 ], [ -112.045445, 41.144556 ], [ -112.046417, 41.143587 ], [ -112.050871, 41.140172 ], [ -112.050871, 41.139812 ] ] ] } },
{ "type": "Feature", "properties": { "group_index": 0, "value": 300.0, "center": [ -111.98927819829682, 41.251853645770915 ], "point_id": 0 }, "geometry": { "type": "Polygon", "coordinates": [ [ [ -111.989274, 41.252135 ], [ -111.98927, 41.250974 ], [ -111.988955, 41.249649 ], [ -111.988797, 41.248955 ], [ -111.988626, 41.248869 ], [ -111.988266, 41.248869 ], [ -111.98579, 41.249776 ], [ -111.985616, 41.250091 ], [ -111.985652, 41.250185 ], [ -111.986764, 41.252001 ], [ -111.986836, 41.252092 ], [ -111.987823, 41.252934 ], [ -111.989272, 41.252946 ], [ -111.989274, 41.252135 ] ] ] } },
{ "type": "Feature", "properties": { "group_index": 0, "value": 600.0, "center": [ -111.98927819829682, 41.251853645770915 ], "point_id": 0 }, "geometry": { "type": "Polygon", "coordinates": [ [ [ -111.988566, 41.255336 ], [ -111.989272, 41.252946 ], [ -111.989274, 41.252135 ], [ -111.98927, 41.250974 ], [ -111.988662, 41.245124 ], [ -111.988527, 41.244975 ], [ -111.988483, 41.244975 ], [ -111.988483, 41.244975 ], [ -111.988439, 41.244974 ], [ -111.988302, 41.24512 ], [ -111.982762, 41.24724 ], [ -111.981314, 41.248543 ], [ -111.981308, 41.248903 ], [ -111.981852, 41.252026 ], [ -111.982119, 41.252276 ], [ -111.985684, 41.255173 ], [ -111.988352, 41.255866 ], [ -111.98851, 41.255509 ], [ -111.988566, 41.255336 ] ] ] } },
{ "type": "Feature", "properties": { "group_index": 0, "value": 900.0, "center": [ -111.98927819829682, 41.251853645770915 ], "point_id": 0 }, "geometry": { "type": "Polygon", "coordinates": [ [ [ -111.992484, 41.244253 ], [ -111.989776, 41.24074 ], [ -111.989416, 41.24074 ], [ -111.985155, 41.243655 ], [ -111.984596, 41.24401 ], [ -111.984431, 41.244145 ], [ -111.980933, 41.247304 ], [ -111.978514, 41.247195 ], [ -111.978154, 41.247188 ], [ -111.977538, 41.247593 ], [ -111.976332, 41.248452 ], [ -111.976325, 41.248812 ], [ -111.976735, 41.251808 ], [ -111.976869, 41.251964 ], [ -111.981276, 41.25544 ], [ -111.982569, 41.255846 ], [ -111.982929, 41.255851 ], [ -111.988352, 41.255866 ], [ -111.98851, 41.255509 ], [ -111.988566, 41.255336 ], [ -111.989272, 41.252946 ], [ -111.989269, 41.252534 ], [ -111.989274, 41.252135 ], [ -111.98927, 41.250974 ], [ -111.990825, 41.245802 ], [ -111.99248, 41.244613 ], [ -111.992484, 41.244253 ] ] ] } },
{ "type": "Feature", "properties": { "group_index": 0, "value": 300.0, "center": [ -111.74949500837293, 40.31134873154676 ], "point_id": 0 }, "geometry": { "type": "Polygon", "coordinates": [ [ [ -111.753772, 40.310372 ], [ -111.753676, 40.310026 ], [ -111.750625, 40.308991 ], [ -111.746544, 40.307359 ], [ -111.74626, 40.30758 ], [ -111.746704, 40.30815 ], [ -111.747147, 40.308721 ], [ -111.747703, 40.309412 ], [ -111.748256, 40.310101 ], [ -111.749698, 40.311959 ], [ -111.7507, 40.313282 ], [ -111.750714, 40.3133 ], [ -111.75193, 40.312781 ], [ -111.753624, 40.310985 ], [ -111.753772, 40.310372 ] ] ] } },
{ "type": "Feature", "properties": { "group_index": 0, "value": 600.0, "center": [ -111.74949500837293, 40.31134873154676 ], "point_id": 0 }, "geometry": { "type": "Polygon", "coordinates": [ [ [ -111.758216, 40.310345 ], [ -111.758218, 40.309413 ], [ -111.75373, 40.306185 ], [ -111.753376, 40.306119 ], [ -111.751518, 40.305968 ], [ -111.751152, 40.305978 ], [ -111.748054, 40.306473 ], [ -111.744748, 40.304966 ], [ -111.744457, 40.305177 ], [ -111.745965, 40.310677 ], [ -111.746052, 40.310876 ], [ -111.746138, 40.311075 ], [ -111.750714, 40.3133 ], [ -111.755883, 40.312855 ], [ -111.756131, 40.312835 ], [ -111.756379, 40.312814 ], [ -111.758127, 40.310694 ], [ -111.758216, 40.310345 ] ] ] } },
{ "type": "Feature", "properties": { "group_index": 0, "value": 900.0, "center": [ -111.74949500837293, 40.31134873154676 ], "point_id": 0 }, "geometry": { "type": "Polygon", "coordinates": [ [ [ -111.761813, 40.311283 ], [ -111.759619, 40.307851 ], [ -111.759079, 40.307246 ], [ -111.755499, 40.303638 ], [ -111.753488, 40.302652 ], [ -111.753132, 40.302704 ], [ -111.747482, 40.302841 ], [ -111.744633, 40.302361 ], [ -111.742881, 40.301936 ], [ -111.742237, 40.301818 ], [ -111.741951, 40.302036 ], [ -111.742109, 40.302243 ], [ -111.742267, 40.30245 ], [ -111.744218, 40.306944 ], [ -111.743997, 40.311427 ], [ -111.744047, 40.311783 ], [ -111.74497, 40.311653 ], [ -111.750714, 40.3133 ], [ -111.755883, 40.312855 ], [ -111.758535, 40.31423 ], [ -111.758814, 40.314368 ], [ -111.759171, 40.314321 ], [ -111.76042, 40.313297 ], [ -111.76156, 40.311978 ], [ -111.76182, 40.311337 ], [ -111.761813, 40.311283 ] ] ] } }
]
}
