{
"type": "FeatureCollection",
"name": "UTA_Stops_and_Most_Recent_Ridership_830X_iso_foot-walking",
"crs": { "type": "name", "properties": { "name": "urn:ogc:def:crs:OGC:1.3:CRS84" } },
"features": [
{ "type": "Feature", "properties": { "group_index": 0, "value": 300.0, "center": [ -111.71244271157859, 40.27581511458681 ], "point_id": 5160 }, "geometry": { "type": "Polygon", "coordinates": [ [ [ -111.717548, 40.275874 ], [ -111.716999, 40.275307 ], [ -111.714581, 40.273575 ], [ -111.714005, 40.273168 ], [ -111.713083, 40.272879 ], [ -111.712438, 40.272718 ], [ -111.709099, 40.273774 ], [ -111.708713, 40.274005 ], [ -111.707723, 40.275263 ], [ -111.707716, 40.275623 ], [ -111.707956, 40.276377 ], [ -111.710155, 40.277634 ], [ -111.712605, 40.278054 ], [ -111.714216, 40.277979 ], [ -111.715975, 40.277195 ], [ -111.716285, 40.277011 ], [ -111.717445, 40.276219 ], [ -111.717548, 40.275874 ] ] ] } },
{ "type": "Feature", "properties": { "group_index": 0, "value": 600.0, "center": [ -111.71244271157859, 40.27581511458681 ], "point_id": 5160 }, "geometry": { "type": "Polygon", "coordinates": [ [ [ -111.721535, 40.275559 ], [ -111.721552, 40.275483 ], [ -111.721546, 40.275123 ], [ -111.721485, 40.274964 ], [ -111.721103, 40.274967 ], [ -111.716277, 40.273452 ], [ -111.713807, 40.270416 ], [ -111.711927, 40.269145 ], [ -111.711814, 40.269092 ], [ -111.711454, 40.269102 ], [ -111.711223, 40.269207 ], [ -111.707622, 40.271728 ], [ -111.704491, 40.273726 ], [ -111.703872, 40.274107 ], [ -111.703701, 40.274307 ], [ -111.703177, 40.274918 ], [ -111.703012, 40.275123 ], [ -111.703011, 40.275483 ], [ -111.703052, 40.275549 ], [ -111.705128, 40.27785 ], [ -111.705869, 40.278635 ], [ -111.707135, 40.279556 ], [ -111.707656, 40.279761 ], [ -111.708366, 40.279956 ], [ -111.708576, 40.279987 ], [ -111.709614, 40.280085 ], [ -111.715151, 40.280825 ], [ -111.715588, 40.281013 ], [ -111.715787, 40.281063 ], [ -111.715962, 40.28106 ], [ -111.716673, 40.280951 ], [ -111.716889, 40.280839 ], [ -111.720526, 40.278564 ], [ -111.720792, 40.278322 ], [ -111.721535, 40.275559 ] ] ] } },
{ "type": "Feature", "properties": { "group_index": 0, "value": 900.0, "center": [ -111.71244271157859, 40.27581511458681 ], "point_id": 5160 }, "geometry": { "type": "Polygon", "coordinates": [ [ [ -111.726489, 40.275215 ], [ -111.726435, 40.275064 ], [ -111.726376, 40.274929 ], [ -111.725664, 40.274489 ], [ -111.725509, 40.274464 ], [ -111.725229, 40.274547 ], [ -111.721485, 40.274964 ], [ -111.721103, 40.274967 ], [ -111.716277, 40.273452 ], [ -111.713807, 40.270416 ], [ -111.712334, 40.26852 ], [ -111.712187, 40.268347 ], [ -111.712051, 40.268186 ], [ -111.711889, 40.267995 ], [ -111.711722, 40.267804 ], [ -111.711559, 40.267625 ], [ -111.711172, 40.267315 ], [ -111.709165, 40.266219 ], [ -111.708969, 40.266215 ], [ -111.708813, 40.266233 ], [ -111.708507, 40.266379 ], [ -111.704925, 40.270244 ], [ -111.701345, 40.27225 ], [ -111.700463, 40.272883 ], [ -111.699855, 40.273336 ], [ -111.699102, 40.274026 ], [ -111.698101, 40.275073 ], [ -111.698099, 40.275433 ], [ -111.698148, 40.27552 ], [ -111.701151, 40.278161 ], [ -111.702443, 40.279812 ], [ -111.703297, 40.280647 ], [ -111.704191, 40.2813 ], [ -111.704845, 40.281714 ], [ -111.705205, 40.281711 ], [ -111.707987, 40.28083 ], [ -111.709183, 40.280229 ], [ -111.709614, 40.280085 ], [ -111.711115, 40.279547 ], [ -111.715077, 40.282828 ], [ -111.715524, 40.283132 ], [ -111.71804, 40.283769 ], [ -111.718139, 40.283767 ], [ -111.723195, 40.281847 ], [ -111.723462, 40.281605 ], [ -111.724062, 40.279618 ], [ -111.726485, 40.275575 ], [ -111.726489, 40.275215 ] ] ] } },
{ "type": "Feature", "properties": { "group_index": 0, "value": 300.0, "center": [ -111.71181622707599, 40.275488081336626 ], "point_id": 5161 }, "geometry": { "type": "Polygon", "coordinates": [ [ [ -111.716872, 40.275703 ], [ -111.714684, 40.273712 ], [ -111.714098, 40.273287 ], [ -111.712988, 40.272921 ], [ -111.712475, 40.272768 ], [ -111.707469, 40.274414 ], [ -111.707438, 40.274441 ], [ -111.706946, 40.27519 ], [ -111.706945, 40.27555 ], [ -111.707337, 40.275972 ], [ -111.707951, 40.276522 ], [ -111.71024, 40.277764 ], [ -111.712535, 40.278151 ], [ -111.712834, 40.278155 ], [ -111.716667, 40.276145 ], [ -111.716813, 40.276058 ], [ -111.716872, 40.275703 ] ] ] } },
{ "type": "Feature", "properties": { "group_index": 0, "value": 600.0, "center": [ -111.71181622707599, 40.275488081336626 ], "point_id": 5161 }, "geometry": { "type": "Polygon", "coordinates": [ [ [ -111.721188, 40.275489 ], [ -111.721182, 40.275129 ], [ -111.72116, 40.274966 ], [ -111.72094, 40.274968 ], [ -111.716277, 40.273452 ], [ -111.713807, 40.270416 ], [ -111.711926, 40.269175 ], [ -111.711815, 40.269113 ], [ -111.711455, 40.269123 ], [ -111.711302, 40.269206 ], [ -111.709738, 40.270425 ], [ -111.707778, 40.27183 ], [ -111.704159, 40.273194 ], [ -111.703283, 40.273637 ], [ -111.701756, 40.274916 ], [ -111.701756, 40.275276 ], [ -111.702298, 40.275806 ], [ -111.702363, 40.275868 ], [ -111.706853, 40.279645 ], [ -111.70746, 40.279838 ], [ -111.708655, 40.280119 ], [ -111.709016, 40.280139 ], [ -111.709426, 40.280131 ], [ -111.715087, 40.280729 ], [ -111.716445, 40.28061 ], [ -111.716482, 40.280596 ], [ -111.716486, 40.280595 ], [ -111.716523, 40.280581 ], [ -111.720235, 40.278244 ], [ -111.720501, 40.278002 ], [ -111.721188, 40.275489 ] ] ] } },
{ "type": "Feature", "properties": { "group_index": 0, "value": 900.0, "center": [ -111.71181622707599, 40.275488081336626 ], "point_id": 5161 }, "geometry": { "type": "Polygon", "coordinates": [ [ [ -111.726116, 40.275292 ], [ -111.726112, 40.274932 ], [ -111.725442, 40.274655 ], [ -111.725359, 40.274664 ], [ -111.722318, 40.275032 ], [ -111.72116, 40.274966 ], [ -111.72094, 40.274968 ], [ -111.716277, 40.273452 ], [ -111.713807, 40.270416 ], [ -111.712334, 40.26852 ], [ -111.712187, 40.268347 ], [ -111.712051, 40.268186 ], [ -111.711889, 40.267995 ], [ -111.711722, 40.267804 ], [ -111.711559, 40.267625 ], [ -111.711172, 40.267315 ], [ -111.709106, 40.266255 ], [ -111.708855, 40.266281 ], [ -111.70859, 40.266441 ], [ -111.705055, 40.269905 ], [ -111.700288, 40.272311 ], [ -111.700007, 40.272477 ], [ -111.698853, 40.273148 ], [ -111.697195, 40.275067 ], [ -111.697193, 40.275427 ], [ -111.697252, 40.275511 ], [ -111.700156, 40.278287 ], [ -111.703154, 40.280647 ], [ -111.704846, 40.281857 ], [ -111.705206, 40.281854 ], [ -111.705829, 40.281603 ], [ -111.707987, 40.28083 ], [ -111.709183, 40.280229 ], [ -111.709426, 40.280131 ], [ -111.711115, 40.279547 ], [ -111.715566, 40.282819 ], [ -111.715705, 40.282899 ], [ -111.717842, 40.2833 ], [ -111.718202, 40.283283 ], [ -111.722798, 40.281391 ], [ -111.72309, 40.281179 ], [ -111.723323, 40.279823 ], [ -111.726034, 40.275569 ], [ -111.726116, 40.275292 ] ] ] } },
{ "type": "Feature", "properties": { "group_index": 0, "value": 300.0, "center": [ -111.70395996906807, 40.27358008983678 ], "point_id": 5162 }, "geometry": { "type": "Polygon", "coordinates": [ [ [ -111.709789, 40.273928 ], [ -111.7065, 40.270904 ], [ -111.705286, 40.270473 ], [ -111.705169, 40.270463 ], [ -111.701272, 40.27225 ], [ -111.700408, 40.272865 ], [ -111.699939, 40.27327 ], [ -111.699809, 40.273446 ], [ -111.699823, 40.273686 ], [ -111.699957, 40.27383 ], [ -111.702451, 40.276071 ], [ -111.704542, 40.276859 ], [ -111.704645, 40.276891 ], [ -111.705005, 40.276883 ], [ -111.706067, 40.276574 ], [ -111.70612, 40.27655 ], [ -111.70971, 40.27428 ], [ -111.709789, 40.273928 ] ] ] } },
{ "type": "Feature", "properties": { "group_index": 0, "value": 600.0, "center": [ -111.70395996906807, 40.27358008983678 ], "point_id": 5162 }, "geometry": { "type": "Polygon", "coordinates": [ [ [ -111.713538, 40.274627 ], [ -111.711535, 40.270662 ], [ -111.710052, 40.269535 ], [ -111.709809, 40.269536 ], [ -111.709567, 40.269536 ], [ -111.705055, 40.269905 ], [ -111.700525, 40.272319 ], [ -111.696609, 40.27224 ], [ -111.69625, 40.272232 ], [ -111.69577, 40.272578 ], [ -111.695161, 40.273084 ], [ -111.695035, 40.273196 ], [ -111.694966, 40.273634 ], [ -111.694969, 40.27371 ], [ -111.695109, 40.273912 ], [ -111.695827, 40.274497 ], [ -111.698619, 40.276499 ], [ -111.700867, 40.278058 ], [ -111.704504, 40.280596 ], [ -111.704731, 40.280637 ], [ -111.70509, 40.280629 ], [ -111.707041, 40.279702 ], [ -111.709278, 40.278527 ], [ -111.709571, 40.278317 ], [ -111.713292, 40.275285 ], [ -111.713515, 40.27472 ], [ -111.713538, 40.274627 ] ] ] } },
{ "type": "Feature", "properties": { "group_index": 0, "value": 900.0, "center": [ -111.70395996906807, 40.27358008983678 ], "point_id": 5162 }, "geometry": { "type": "Polygon", "coordinates": [ [ [ -111.718312, 40.275254 ], [ -111.718227, 40.27507 ], [ -111.716433, 40.273271 ], [ -111.713807, 40.270416 ], [ -111.712025, 40.267877 ], [ -111.711973, 40.267817 ], [ -111.711008, 40.267584 ], [ -111.710642, 40.267551 ], [ -111.710417, 40.267534 ], [ -111.710274, 40.267546 ], [ -111.710002, 40.267685 ], [ -111.705055, 40.269905 ], [ -111.704803, 40.27022 ], [ -111.699722, 40.271928 ], [ -111.697805, 40.27098 ], [ -111.696613, 40.269877 ], [ -111.696574, 40.269859 ], [ -111.695348, 40.269369 ], [ -111.694988, 40.269375 ], [ -111.694839, 40.269473 ], [ -111.69136, 40.271795 ], [ -111.691173, 40.27198 ], [ -111.689989, 40.273305 ], [ -111.689989, 40.273345 ], [ -111.689992, 40.273581 ], [ -111.689993, 40.273607 ], [ -111.690136, 40.273756 ], [ -111.690271, 40.273888 ], [ -111.690354, 40.273968 ], [ -111.692192, 40.275471 ], [ -111.69262, 40.275801 ], [ -111.694546, 40.27728 ], [ -111.69713, 40.279186 ], [ -111.699213, 40.280743 ], [ -111.701899, 40.282711 ], [ -111.70468, 40.284344 ], [ -111.704772, 40.284384 ], [ -111.705138, 40.284462 ], [ -111.705139, 40.284462 ], [ -111.705241, 40.284412 ], [ -111.708354, 40.282723 ], [ -111.713231, 40.28008 ], [ -111.71752, 40.276241 ], [ -111.718328, 40.275613 ], [ -111.718312, 40.275254 ] ] ] } },
{ "type": "Feature", "properties": { "group_index": 0, "value": 300.0, "center": [ -111.72622759885445, 40.28077680208051 ], "point_id": 5163 }, "geometry": { "type": "Polygon", "coordinates": [ [ [ -111.729982, 40.28089 ], [ -111.729554, 40.279117 ], [ -111.729454, 40.278981 ], [ -111.729063, 40.278699 ], [ -111.728306, 40.278259 ], [ -111.725591, 40.277616 ], [ -111.725154, 40.277744 ], [ -111.724921, 40.277851 ], [ -111.72489, 40.277865 ], [ -111.724871, 40.277876 ], [ -111.72274, 40.279582 ], [ -111.722816, 40.279933 ], [ -111.72597, 40.282707 ], [ -111.728605, 40.283805 ], [ -111.72889, 40.283585 ], [ -111.729593, 40.282695 ], [ -111.729681, 40.282572 ], [ -111.729982, 40.28089 ] ] ] } },
{ "type": "Feature", "properties": { "group_index": 0, "value": 600.0, "center": [ -111.72622759885445, 40.28077680208051 ], "point_id": 5163 }, "geometry": { "type": "Polygon", "coordinates": [ [ [ -111.734828, 40.281894 ], [ -111.734479, 40.278758 ], [ -111.731215, 40.276669 ], [ -111.729493, 40.275717 ], [ -111.729212, 40.275625 ], [ -111.725425, 40.274623 ], [ -111.725297, 40.274648 ], [ -111.725228, 40.274674 ], [ -111.724071, 40.275179 ], [ -111.720167, 40.277635 ], [ -111.720056, 40.277726 ], [ -111.719901, 40.277877 ], [ -111.719105, 40.27923 ], [ -111.718991, 40.279486 ], [ -111.718826, 40.280191 ], [ -111.718812, 40.280609 ], [ -111.719188, 40.280873 ], [ -111.722175, 40.281864 ], [ -111.722375, 40.281912 ], [ -111.725228, 40.282622 ], [ -111.730164, 40.285495 ], [ -111.730524, 40.2855 ], [ -111.731672, 40.285268 ], [ -111.733452, 40.283987 ], [ -111.734821, 40.282253 ], [ -111.734828, 40.281894 ] ] ] } },
{ "type": "Feature", "properties": { "group_index": 0, "value": 900.0, "center": [ -111.72622759885445, 40.28077680208051 ], "point_id": 5163 }, "geometry": { "type": "Polygon", "coordinates": [ [ [ -111.73909, 40.279095 ], [ -111.738956, 40.278915 ], [ -111.738359, 40.278297 ], [ -111.737444, 40.277664 ], [ -111.735139, 40.27711 ], [ -111.731272, 40.274115 ], [ -111.730801, 40.273735 ], [ -111.72975, 40.273082 ], [ -111.724684, 40.271789 ], [ -111.724415, 40.271752 ], [ -111.724301, 40.271772 ], [ -111.724253, 40.271795 ], [ -111.721891, 40.273324 ], [ -111.721063, 40.273953 ], [ -111.716328, 40.275613 ], [ -111.715775, 40.277692 ], [ -111.716147, 40.280679 ], [ -111.717031, 40.282784 ], [ -111.717842, 40.283296 ], [ -111.721041, 40.284321 ], [ -111.723959, 40.285495 ], [ -111.724513, 40.285485 ], [ -111.724763, 40.285485 ], [ -111.730164, 40.285495 ], [ -111.730828, 40.28646 ], [ -111.731268, 40.287137 ], [ -111.73159, 40.287514 ], [ -111.733439, 40.287791 ], [ -111.733798, 40.287773 ], [ -111.734196, 40.287526 ], [ -111.735359, 40.286635 ], [ -111.738382, 40.281576 ], [ -111.738577, 40.281273 ], [ -111.73909, 40.279095 ] ] ] } },
{ "type": "Feature", "properties": { "group_index": 0, "value": 300.0, "center": [ -111.69464828768498, 40.273482870276816 ], "point_id": 5164 }, "geometry": { "type": "Polygon", "coordinates": [ [ [ -111.699408, 40.273624 ], [ -111.699412, 40.273264 ], [ -111.698965, 40.271925 ], [ -111.69551, 40.270071 ], [ -111.695162, 40.26997 ], [ -111.694802, 40.269976 ], [ -111.691865, 40.271839 ], [ -111.690424, 40.273171 ], [ -111.690406, 40.273651 ], [ -111.690481, 40.273762 ], [ -111.690885, 40.274082 ], [ -111.691677, 40.274721 ], [ -111.693385, 40.276005 ], [ -111.695097, 40.27717 ], [ -111.695109, 40.27717 ], [ -111.696031, 40.276476 ], [ -111.697644, 40.275276 ], [ -111.699206, 40.273956 ], [ -111.699355, 40.273825 ], [ -111.699408, 40.273624 ] ] ] } },
{ "type": "Feature", "properties": { "group_index": 0, "value": 600.0, "center": [ -111.69464828768498, 40.273482870276816 ], "point_id": 5164 }, "geometry": { "type": "Polygon", "coordinates": [ [ [ -111.704319, 40.273672 ], [ -111.704322, 40.273312 ], [ -111.704243, 40.273196 ], [ -111.70275, 40.271841 ], [ -111.699816, 40.268094 ], [ -111.694946, 40.266072 ], [ -111.694922, 40.266072 ], [ -111.693535, 40.267089 ], [ -111.689158, 40.269854 ], [ -111.68728, 40.271418 ], [ -111.685513, 40.27313 ], [ -111.685511, 40.27349 ], [ -111.685588, 40.273791 ], [ -111.686843, 40.274885 ], [ -111.687579, 40.275448 ], [ -111.689972, 40.277175 ], [ -111.69039, 40.277482 ], [ -111.695037, 40.281021 ], [ -111.695397, 40.28101 ], [ -111.697995, 40.278942 ], [ -111.702278, 40.275477 ], [ -111.704203, 40.274001 ], [ -111.704265, 40.273878 ], [ -111.704319, 40.273672 ] ] ] } },
{ "type": "Feature", "properties": { "group_index": 0, "value": 900.0, "center": [ -111.69464828768498, 40.273482870276816 ], "point_id": 5164 }, "geometry": { "type": "Polygon", "coordinates": [ [ [ -111.70992, 40.273957 ], [ -111.707078, 40.270686 ], [ -111.703905, 40.266401 ], [ -111.703863, 40.266378 ], [ -111.70372, 40.266349 ], [ -111.701195, 40.26605 ], [ -111.697298, 40.264136 ], [ -111.695001, 40.262466 ], [ -111.694641, 40.262473 ], [ -111.691572, 40.264481 ], [ -111.68841, 40.266761 ], [ -111.685375, 40.26859 ], [ -111.682957, 40.270528 ], [ -111.680534, 40.273004 ], [ -111.680514, 40.273099 ], [ -111.680467, 40.273342 ], [ -111.680434, 40.273701 ], [ -111.68402, 40.276653 ], [ -111.687844, 40.279271 ], [ -111.690405, 40.281164 ], [ -111.694464, 40.284635 ], [ -111.694867, 40.284635 ], [ -111.69527, 40.284635 ], [ -111.695814, 40.284264 ], [ -111.697933, 40.282691 ], [ -111.698041, 40.282611 ], [ -111.699485, 40.281529 ], [ -111.700609, 40.280662 ], [ -111.7014, 40.279968 ], [ -111.706464, 40.27694 ], [ -111.706658, 40.276815 ], [ -111.709842, 40.274309 ], [ -111.70992, 40.273957 ] ] ] } },
{ "type": "Feature", "properties": { "group_index": 0, "value": 300.0, "center": [ -111.66714002907752, 40.26258762550694 ], "point_id": 5165 }, "geometry": { "type": "Polygon", "coordinates": [ [ [ -111.671377, 40.262285 ], [ -111.671178, 40.261985 ], [ -111.669744, 40.260625 ], [ -111.668178, 40.259599 ], [ -111.668074, 40.259567 ], [ -111.667715, 40.259533 ], [ -111.664257, 40.259556 ], [ -111.664024, 40.259644 ], [ -111.663776, 40.259904 ], [ -111.663085, 40.263371 ], [ -111.663084, 40.263413 ], [ -111.663226, 40.263814 ], [ -111.666043, 40.265817 ], [ -111.666109, 40.265817 ], [ -111.66657, 40.26581 ], [ -111.670554, 40.265717 ], [ -111.670757, 40.26542 ], [ -111.671377, 40.262285 ] ] ] } },
{ "type": "Feature", "properties": { "group_index": 0, "value": 600.0, "center": [ -111.66714002907752, 40.26258762550694 ], "point_id": 5165 }, "geometry": { "type": "Polygon", "coordinates": [ [ [ -111.675892, 40.262029 ], [ -111.675379, 40.261154 ], [ -111.672852, 40.259016 ], [ -111.669876, 40.256838 ], [ -111.668199, 40.2559 ], [ -111.667839, 40.255909 ], [ -111.66402, 40.256163 ], [ -111.660799, 40.256459 ], [ -111.660552, 40.256721 ], [ -111.659193, 40.262407 ], [ -111.65859, 40.262823 ], [ -111.658198, 40.26303 ], [ -111.658205, 40.26324 ], [ -111.658206, 40.263253 ], [ -111.658209, 40.263278 ], [ -111.658489, 40.263883 ], [ -111.660049, 40.264617 ], [ -111.665833, 40.266024 ], [ -111.669604, 40.267859 ], [ -111.671997, 40.268879 ], [ -111.672354, 40.268929 ], [ -111.672751, 40.268627 ], [ -111.67277, 40.268392 ], [ -111.672788, 40.268156 ], [ -111.674825, 40.263164 ], [ -111.675955, 40.262383 ], [ -111.675892, 40.262029 ] ] ] } },
{ "type": "Feature", "properties": { "group_index": 0, "value": 900.0, "center": [ -111.66714002907752, 40.26258762550694 ], "point_id": 5165 }, "geometry": { "type": "Polygon", "coordinates": [ [ [ -111.676759, 40.259909 ], [ -111.675569, 40.25711 ], [ -111.673311, 40.255118 ], [ -111.673239, 40.255067 ], [ -111.669631, 40.252652 ], [ -111.669363, 40.252531 ], [ -111.665255, 40.253057 ], [ -111.661968, 40.252718 ], [ -111.661871, 40.252718 ], [ -111.6586, 40.253961 ], [ -111.658396, 40.254097 ], [ -111.656884, 40.255089 ], [ -111.656509, 40.255603 ], [ -111.656503, 40.255654 ], [ -111.6565, 40.255963 ], [ -111.656603, 40.258618 ], [ -111.653492, 40.262776 ], [ -111.65344, 40.263081 ], [ -111.653456, 40.263465 ], [ -111.653478, 40.263573 ], [ -111.65366, 40.263883 ], [ -111.654758, 40.264888 ], [ -111.657546, 40.267297 ], [ -111.657893, 40.267394 ], [ -111.660158, 40.265938 ], [ -111.665833, 40.266024 ], [ -111.66881, 40.267111 ], [ -111.670714, 40.271439 ], [ -111.672511, 40.272235 ], [ -111.672866, 40.272305 ], [ -111.673069, 40.272267 ], [ -111.673314, 40.272004 ], [ -111.673709, 40.268504 ], [ -111.67602, 40.264615 ], [ -111.676208, 40.264263 ], [ -111.676759, 40.259909 ] ] ] } },
{ "type": "Feature", "properties": { "group_index": 0, "value": 300.0, "center": [ -111.65202986416554, 40.25560303196658 ], "point_id": 5166 }, "geometry": { "type": "Polygon", "coordinates": [ [ [ -111.656929, 40.25552 ], [ -111.656154, 40.254886 ], [ -111.650928, 40.252792 ], [ -111.650627, 40.252824 ], [ -111.650529, 40.252845 ], [ -111.650231, 40.252923 ], [ -111.64953, 40.253256 ], [ -111.647865, 40.254796 ], [ -111.647389, 40.256305 ], [ -111.647394, 40.256411 ], [ -111.647475, 40.256655 ], [ -111.64752, 40.256749 ], [ -111.649244, 40.257791 ], [ -111.653144, 40.258432 ], [ -111.653504, 40.258424 ], [ -111.655934, 40.256727 ], [ -111.656855, 40.255973 ], [ -111.656921, 40.25588 ], [ -111.656929, 40.25552 ] ] ] } },
{ "type": "Feature", "properties": { "group_index": 0, "value": 600.0, "center": [ -111.65202986416554, 40.25560303196658 ], "point_id": 5166 }, "geometry": { "type": "Polygon", "coordinates": [ [ [ -111.659839, 40.253948 ], [ -111.65939, 40.253469 ], [ -111.656342, 40.25125 ], [ -111.656173, 40.251161 ], [ -111.652131, 40.249234 ], [ -111.651955, 40.249183 ], [ -111.651595, 40.249192 ], [ -111.649443, 40.249898 ], [ -111.646037, 40.251678 ], [ -111.64335, 40.254628 ], [ -111.642578, 40.25653 ], [ -111.642642, 40.256884 ], [ -111.642937, 40.25743 ], [ -111.643222, 40.257623 ], [ -111.647577, 40.260274 ], [ -111.647897, 40.260437 ], [ -111.652648, 40.261423 ], [ -111.656122, 40.260453 ], [ -111.660809, 40.257448 ], [ -111.661092, 40.25723 ], [ -111.661339, 40.256968 ], [ -111.661413, 40.256868 ], [ -111.659839, 40.253948 ] ] ] } },
{ "type": "Feature", "properties": { "group_index": 0, "value": 900.0, "center": [ -111.65202986416554, 40.25560303196658 ], "point_id": 5166 }, "geometry": { "type": "Polygon", "coordinates": [ [ [ -111.664703, 40.256964 ], [ -111.664675, 40.255837 ], [ -111.662785, 40.251893 ], [ -111.659149, 40.248709 ], [ -111.658614, 40.24834 ], [ -111.6541, 40.245586 ], [ -111.652555, 40.245603 ], [ -111.651838, 40.245701 ], [ -111.648482, 40.246554 ], [ -111.64735, 40.247114 ], [ -111.645382, 40.248222 ], [ -111.643371, 40.249527 ], [ -111.643273, 40.249605 ], [ -111.643114, 40.249761 ], [ -111.640434, 40.25255 ], [ -111.639415, 40.255648 ], [ -111.639042, 40.256889 ], [ -111.639053, 40.256934 ], [ -111.639097, 40.257113 ], [ -111.63969, 40.258825 ], [ -111.640295, 40.259611 ], [ -111.64058, 40.259978 ], [ -111.640679, 40.260069 ], [ -111.6455, 40.262779 ], [ -111.647244, 40.26276 ], [ -111.647604, 40.262757 ], [ -111.64906, 40.262424 ], [ -111.65351, 40.262947 ], [ -111.655405, 40.264147 ], [ -111.656028, 40.264341 ], [ -111.656387, 40.264318 ], [ -111.657079, 40.263667 ], [ -111.658006, 40.262916 ], [ -111.660355, 40.261456 ], [ -111.663718, 40.260417 ], [ -111.663917, 40.260345 ], [ -111.664151, 40.260072 ], [ -111.664244, 40.259853 ], [ -111.664703, 40.256964 ] ] ] } },
{ "type": "Feature", "properties": { "group_index": 0, "value": 300.0, "center": [ -111.65204874044807, 40.25585360756638 ], "point_id": 5167 }, "geometry": { "type": "Polygon", "coordinates": [ [ [ -111.65695, 40.255751 ], [ -111.656879, 40.255613 ], [ -111.656605, 40.255395 ], [ -111.65615, 40.255091 ], [ -111.6508, 40.252947 ], [ -111.65054, 40.252967 ], [ -111.649902, 40.253317 ], [ -111.648316, 40.254585 ], [ -111.648284, 40.254614 ], [ -111.648139, 40.254793 ], [ -111.647439, 40.256288 ], [ -111.647388, 40.256413 ], [ -111.647371, 40.256553 ], [ -111.647514, 40.256751 ], [ -111.6476, 40.25683 ], [ -111.648916, 40.257815 ], [ -111.653328, 40.258623 ], [ -111.656004, 40.25703 ], [ -111.656942, 40.256111 ], [ -111.65695, 40.255751 ] ] ] } },
{ "type": "Feature", "properties": { "group_index": 0, "value": 600.0, "center": [ -111.65204874044807, 40.25585360756638 ], "point_id": 5167 }, "geometry": { "type": "Polygon", "coordinates": [ [ [ -111.659665, 40.253948 ], [ -111.659307, 40.253469 ], [ -111.65634, 40.251449 ], [ -111.656174, 40.251369 ], [ -111.652097, 40.249422 ], [ -111.651737, 40.249405 ], [ -111.651672, 40.249417 ], [ -111.651585, 40.249437 ], [ -111.649464, 40.250168 ], [ -111.646317, 40.251642 ], [ -111.643567, 40.254614 ], [ -111.642573, 40.256531 ], [ -111.642637, 40.256885 ], [ -111.642936, 40.257515 ], [ -111.647482, 40.260574 ], [ -111.647827, 40.260678 ], [ -111.652648, 40.261423 ], [ -111.656119, 40.260699 ], [ -111.656373, 40.260527 ], [ -111.660927, 40.257573 ], [ -111.661189, 40.257326 ], [ -111.661342, 40.256971 ], [ -111.659665, 40.253948 ] ] ] } },
{ "type": "Feature", "properties": { "group_index": 0, "value": 900.0, "center": [ -111.65204874044807, 40.25585360756638 ], "point_id": 5167 }, "geometry": { "type": "Polygon", "coordinates": [ [ [ -111.664703, 40.256964 ], [ -111.664675, 40.255837 ], [ -111.664492, 40.255527 ], [ -111.662169, 40.252027 ], [ -111.662037, 40.251879 ], [ -111.659149, 40.248891 ], [ -111.658807, 40.248631 ], [ -111.654041, 40.24565 ], [ -111.652654, 40.245724 ], [ -111.65209, 40.245843 ], [ -111.648375, 40.246881 ], [ -111.647612, 40.247213 ], [ -111.64545, 40.248382 ], [ -111.643569, 40.249535 ], [ -111.64344, 40.249676 ], [ -111.641016, 40.252566 ], [ -111.6394, 40.255655 ], [ -111.63909, 40.256946 ], [ -111.639079, 40.257096 ], [ -111.639676, 40.258821 ], [ -111.640861, 40.260432 ], [ -111.64547, 40.262961 ], [ -111.645879, 40.262977 ], [ -111.647246, 40.262972 ], [ -111.647606, 40.262969 ], [ -111.653527, 40.263105 ], [ -111.654517, 40.26366 ], [ -111.655048, 40.264043 ], [ -111.656039, 40.264513 ], [ -111.656398, 40.26449 ], [ -111.657573, 40.263473 ], [ -111.658542, 40.262736 ], [ -111.660655, 40.26158 ], [ -111.664409, 40.260807 ], [ -111.664657, 40.260546 ], [ -111.664703, 40.256964 ] ] ] } },
{ "type": "Feature", "properties": { "group_index": 0, "value": 300.0, "center": [ -111.64626236622387, 40.25651773341981 ], "point_id": 5168 }, "geometry": { "type": "Polygon", "coordinates": [ [ [ -111.651152, 40.255371 ], [ -111.648811, 40.254147 ], [ -111.648314, 40.253884 ], [ -111.6468, 40.25352 ], [ -111.646738, 40.25352 ], [ -111.645321, 40.253717 ], [ -111.644365, 40.2542 ], [ -111.64324, 40.254995 ], [ -111.641876, 40.256676 ], [ -111.641773, 40.257021 ], [ -111.64189, 40.257222 ], [ -111.642027, 40.257396 ], [ -111.643215, 40.258405 ], [ -111.646963, 40.258955 ], [ -111.649024, 40.258246 ], [ -111.649342, 40.258078 ], [ -111.651135, 40.25573 ], [ -111.651152, 40.255371 ] ] ] } },
{ "type": "Feature", "properties": { "group_index": 0, "value": 600.0, "center": [ -111.64626236622387, 40.25651773341981 ], "point_id": 5168 }, "geometry": { "type": "Polygon", "coordinates": [ [ [ -111.655767, 40.255476 ], [ -111.652915, 40.251907 ], [ -111.65269, 40.251626 ], [ -111.648795, 40.250818 ], [ -111.646743, 40.250218 ], [ -111.646114, 40.250177 ], [ -111.644931, 40.250403 ], [ -111.644423, 40.250606 ], [ -111.643183, 40.251227 ], [ -111.641144, 40.252593 ], [ -111.638556, 40.2561 ], [ -111.63862, 40.256753 ], [ -111.638759, 40.258102 ], [ -111.639661, 40.259858 ], [ -111.640161, 40.260801 ], [ -111.640335, 40.260979 ], [ -111.640543, 40.261123 ], [ -111.641408, 40.261458 ], [ -111.644825, 40.261795 ], [ -111.647754, 40.260919 ], [ -111.652861, 40.25824 ], [ -111.655113, 40.256542 ], [ -111.655654, 40.256068 ], [ -111.655691, 40.256001 ], [ -111.655767, 40.255836 ], [ -111.655767, 40.255476 ] ] ] } },
{ "type": "Feature", "properties": { "group_index": 0, "value": 900.0, "center": [ -111.64626236622387, 40.25651773341981 ], "point_id": 5168 }, "geometry": { "type": "Polygon", "coordinates": [ [ [ -111.65896, 40.254187 ], [ -111.656535, 40.250572 ], [ -111.656208, 40.250003 ], [ -111.654427, 40.249016 ], [ -111.652054, 40.247764 ], [ -111.648776, 40.247438 ], [ -111.64606, 40.246784 ], [ -111.646025, 40.246777 ], [ -111.645665, 40.246782 ], [ -111.643088, 40.247498 ], [ -111.642523, 40.247743 ], [ -111.638408, 40.249686 ], [ -111.638139, 40.249926 ], [ -111.6381, 40.250011 ], [ -111.638071, 40.250098 ], [ -111.637979, 40.250392 ], [ -111.637368, 40.252505 ], [ -111.637123, 40.253489 ], [ -111.636823, 40.254686 ], [ -111.636799, 40.254819 ], [ -111.636967, 40.255138 ], [ -111.638129, 40.258347 ], [ -111.63767, 40.26367 ], [ -111.637598, 40.263923 ], [ -111.63766, 40.26403 ], [ -111.637911, 40.264101 ], [ -111.638259, 40.264125 ], [ -111.643163, 40.264419 ], [ -111.644885, 40.264876 ], [ -111.645187, 40.264875 ], [ -111.64519, 40.264875 ], [ -111.645493, 40.26487 ], [ -111.645836, 40.26481 ], [ -111.64753, 40.264265 ], [ -111.649356, 40.263368 ], [ -111.653636, 40.261026 ], [ -111.65553, 40.260223 ], [ -111.657032, 40.259137 ], [ -111.660318, 40.256774 ], [ -111.660552, 40.256501 ], [ -111.660729, 40.256232 ], [ -111.65896, 40.254187 ] ] ] } },
{ "type": "Feature", "properties": { "group_index": 0, "value": 300.0, "center": [ -111.64622213860362, 40.25678998070727 ], "point_id": 5169 }, "geometry": { "type": "Polygon", "coordinates": [ [ [ -111.650709, 40.255592 ], [ -111.650708, 40.255505 ], [ -111.650527, 40.255315 ], [ -111.648817, 40.254408 ], [ -111.648318, 40.254208 ], [ -111.647186, 40.253958 ], [ -111.646922, 40.253904 ], [ -111.645394, 40.253793 ], [ -111.645324, 40.25381 ], [ -111.645074, 40.253936 ], [ -111.643297, 40.255156 ], [ -111.643114, 40.255312 ], [ -111.641832, 40.256663 ], [ -111.641729, 40.257008 ], [ -111.642006, 40.257643 ], [ -111.642926, 40.25834 ], [ -111.643215, 40.258473 ], [ -111.646963, 40.258955 ], [ -111.649053, 40.25832 ], [ -111.649393, 40.2582 ], [ -111.650688, 40.255951 ], [ -111.650709, 40.255592 ] ] ] } },
{ "type": "Feature", "properties": { "group_index": 0, "value": 600.0, "center": [ -111.64622213860362, 40.25678998070727 ], "point_id": 5169 }, "geometry": { "type": "Polygon", "coordinates": [ [ [ -111.65564, 40.255708 ], [ -111.655563, 40.255527 ], [ -111.651884, 40.251934 ], [ -111.648626, 40.251008 ], [ -111.646413, 40.250371 ], [ -111.646169, 40.250355 ], [ -111.645241, 40.250501 ], [ -111.644497, 40.250802 ], [ -111.643189, 40.251423 ], [ -111.641293, 40.252654 ], [ -111.638539, 40.256109 ], [ -111.638671, 40.258035 ], [ -111.638746, 40.258289 ], [ -111.639514, 40.259888 ], [ -111.640073, 40.260975 ], [ -111.640245, 40.261154 ], [ -111.640566, 40.261318 ], [ -111.641273, 40.261568 ], [ -111.645018, 40.262031 ], [ -111.647749, 40.260982 ], [ -111.652865, 40.258238 ], [ -111.655106, 40.25654 ], [ -111.655637, 40.256068 ], [ -111.65564, 40.255708 ] ] ] } },
{ "type": "Feature", "properties": { "group_index": 0, "value": 900.0, "center": [ -111.64622213860362, 40.25678998070727 ], "point_id": 5169 }, "geometry": { "type": "Polygon", "coordinates": [ [ [ -111.66045, 40.256152 ], [ -111.660412, 40.25598 ], [ -111.658633, 40.254145 ], [ -111.656351, 40.25077 ], [ -111.656196, 40.250585 ], [ -111.656045, 40.250468 ], [ -111.654641, 40.249524 ], [ -111.652174, 40.248128 ], [ -111.651828, 40.24803 ], [ -111.646064, 40.247037 ], [ -111.645664, 40.247031 ], [ -111.645621, 40.247031 ], [ -111.643274, 40.247588 ], [ -111.642373, 40.24801 ], [ -111.638553, 40.249848 ], [ -111.638284, 40.250088 ], [ -111.638192, 40.250281 ], [ -111.638138, 40.250479 ], [ -111.637499, 40.252775 ], [ -111.637334, 40.253377 ], [ -111.637058, 40.254501 ], [ -111.637011, 40.254708 ], [ -111.636993, 40.25489 ], [ -111.638129, 40.258347 ], [ -111.637235, 40.263823 ], [ -111.6374, 40.264143 ], [ -111.637538, 40.264369 ], [ -111.637874, 40.2644 ], [ -111.638233, 40.264409 ], [ -111.643823, 40.264778 ], [ -111.644524, 40.264877 ], [ -111.645675, 40.264966 ], [ -111.645716, 40.264966 ], [ -111.647534, 40.264515 ], [ -111.649597, 40.263366 ], [ -111.653639, 40.261025 ], [ -111.655532, 40.260223 ], [ -111.657025, 40.259139 ], [ -111.66015, 40.256793 ], [ -111.66036, 40.256501 ], [ -111.66045, 40.256152 ] ] ] } },
{ "type": "Feature", "properties": { "group_index": 0, "value": 300.0, "center": [ -111.64609923279977, 40.24585237061384 ], "point_id": 5170 }, "geometry": { "type": "Polygon", "coordinates": [ [ [ -111.650784, 40.245349 ], [ -111.648744, 40.243541 ], [ -111.646828, 40.242358 ], [ -111.646749, 40.242322 ], [ -111.646389, 40.242322 ], [ -111.643921, 40.243535 ], [ -111.642256, 40.244699 ], [ -111.642084, 40.245869 ], [ -111.642074, 40.246414 ], [ -111.642363, 40.24696 ], [ -111.644523, 40.248675 ], [ -111.644864, 40.248918 ], [ -111.645698, 40.249232 ], [ -111.646094, 40.249285 ], [ -111.646311, 40.249207 ], [ -111.649337, 40.247483 ], [ -111.650091, 40.246934 ], [ -111.650269, 40.246747 ], [ -111.650814, 40.245707 ], [ -111.650784, 40.245349 ] ] ] } },
{ "type": "Feature", "properties": { "group_index": 0, "value": 600.0, "center": [ -111.64609923279977, 40.24585237061384 ], "point_id": 5170 }, "geometry": { "type": "Polygon", "coordinates": [ [ [ -111.65543, 40.244336 ], [ -111.655339, 40.24425 ], [ -111.65518, 40.244136 ], [ -111.653707, 40.243202 ], [ -111.649263, 40.240293 ], [ -111.647067, 40.23875 ], [ -111.646775, 40.238575 ], [ -111.646415, 40.238575 ], [ -111.644474, 40.239606 ], [ -111.642976, 40.240545 ], [ -111.640871, 40.241989 ], [ -111.637559, 40.244634 ], [ -111.637481, 40.244697 ], [ -111.637406, 40.24479 ], [ -111.637405, 40.244811 ], [ -111.637482, 40.245057 ], [ -111.64065, 40.249279 ], [ -111.641553, 40.250396 ], [ -111.641613, 40.250444 ], [ -111.642381, 40.250981 ], [ -111.644398, 40.252435 ], [ -111.645598, 40.25271 ], [ -111.645958, 40.252712 ], [ -111.647281, 40.252486 ], [ -111.650057, 40.250822 ], [ -111.650353, 40.250633 ], [ -111.65193, 40.249555 ], [ -111.653231, 40.248429 ], [ -111.653386, 40.248262 ], [ -111.653587, 40.248001 ], [ -111.65543, 40.244358 ], [ -111.65543, 40.244336 ] ] ] } },
{ "type": "Feature", "properties": { "group_index": 0, "value": 900.0, "center": [ -111.64609923279977, 40.24585237061384 ], "point_id": 5170 }, "geometry": { "type": "Polygon", "coordinates": [ [ [ -111.660224, 40.244272 ], [ -111.660135, 40.244152 ], [ -111.658936, 40.243191 ], [ -111.65629, 40.241177 ], [ -111.655153, 40.240312 ], [ -111.653967, 40.2396 ], [ -111.653732, 40.239457 ], [ -111.648746, 40.236216 ], [ -111.648634, 40.236131 ], [ -111.647148, 40.235001 ], [ -111.64679, 40.234829 ], [ -111.64643, 40.234827 ], [ -111.644506, 40.235856 ], [ -111.643121, 40.23674 ], [ -111.642427, 40.237181 ], [ -111.640213, 40.238707 ], [ -111.636966, 40.241162 ], [ -111.634987, 40.242459 ], [ -111.634472, 40.243104 ], [ -111.632654, 40.245553 ], [ -111.632892, 40.245824 ], [ -111.636539, 40.250215 ], [ -111.637283, 40.25228 ], [ -111.637307, 40.252337 ], [ -111.637386, 40.252529 ], [ -111.637402, 40.252547 ], [ -111.638501, 40.253118 ], [ -111.643289, 40.255533 ], [ -111.644719, 40.256141 ], [ -111.645079, 40.256137 ], [ -111.648356, 40.255414 ], [ -111.649377, 40.254892 ], [ -111.650427, 40.254336 ], [ -111.653864, 40.252463 ], [ -111.656561, 40.249636 ], [ -111.658322, 40.248065 ], [ -111.660225, 40.244632 ], [ -111.660224, 40.244272 ] ] ] } },
{ "type": "Feature", "properties": { "group_index": 0, "value": 300.0, "center": [ -111.65131271915783, 40.24306906140394 ], "point_id": 5171 }, "geometry": { "type": "Polygon", "coordinates": [ [ [ -111.656222, 40.242899 ], [ -111.656062, 40.242694 ], [ -111.653815, 40.240928 ], [ -111.652596, 40.240101 ], [ -111.651739, 40.239501 ], [ -111.651557, 40.239458 ], [ -111.651374, 40.239459 ], [ -111.650056, 40.240088 ], [ -111.648039, 40.241434 ], [ -111.646413, 40.242832 ], [ -111.646277, 40.242982 ], [ -111.646278, 40.243014 ], [ -111.646467, 40.243289 ], [ -111.649309, 40.245699 ], [ -111.650932, 40.246524 ], [ -111.651151, 40.246527 ], [ -111.65124, 40.246527 ], [ -111.654256, 40.244654 ], [ -111.654877, 40.244288 ], [ -111.656165, 40.243319 ], [ -111.656221, 40.243259 ], [ -111.656222, 40.242899 ] ] ] } },
{ "type": "Feature", "properties": { "group_index": 0, "value": 600.0, "center": [ -111.65131271915783, 40.24306906140394 ], "point_id": 5171 }, "geometry": { "type": "Polygon", "coordinates": [ [ [ -111.66112, 40.242855 ], [ -111.659076, 40.241162 ], [ -111.655142, 40.238263 ], [ -111.655117, 40.238244 ], [ -111.654076, 40.237461 ], [ -111.653334, 40.236897 ], [ -111.652453, 40.236226 ], [ -111.651758, 40.235755 ], [ -111.651399, 40.235748 ], [ -111.650095, 40.236335 ], [ -111.648196, 40.237736 ], [ -111.645108, 40.239963 ], [ -111.642014, 40.241989 ], [ -111.641506, 40.242825 ], [ -111.641505, 40.243185 ], [ -111.641551, 40.243287 ], [ -111.643613, 40.245067 ], [ -111.646829, 40.248138 ], [ -111.648126, 40.248867 ], [ -111.649954, 40.249654 ], [ -111.651616, 40.249681 ], [ -111.651626, 40.249681 ], [ -111.651914, 40.249646 ], [ -111.652126, 40.249619 ], [ -111.656828, 40.24676 ], [ -111.659519, 40.244633 ], [ -111.661064, 40.243325 ], [ -111.661121, 40.243215 ], [ -111.66112, 40.242855 ] ] ] } },
{ "type": "Feature", "properties": { "group_index": 0, "value": 900.0, "center": [ -111.65131271915783, 40.24306906140394 ], "point_id": 5171 }, "geometry": { "type": "Polygon", "coordinates": [ [ [ -111.665378, 40.242197 ], [ -111.66396, 40.24099 ], [ -111.659172, 40.237562 ], [ -111.65908, 40.237491 ], [ -111.657371, 40.236156 ], [ -111.655732, 40.234912 ], [ -111.655624, 40.234829 ], [ -111.653662, 40.233379 ], [ -111.652, 40.23213 ], [ -111.651882, 40.232042 ], [ -111.651768, 40.232005 ], [ -111.651408, 40.232006 ], [ -111.651315, 40.232034 ], [ -111.649953, 40.232752 ], [ -111.649802, 40.232854 ], [ -111.649681, 40.232937 ], [ -111.645988, 40.235396 ], [ -111.643646, 40.237184 ], [ -111.641118, 40.23916 ], [ -111.63658, 40.242779 ], [ -111.636566, 40.242801 ], [ -111.636558, 40.243065 ], [ -111.636558, 40.243118 ], [ -111.63656, 40.243161 ], [ -111.639483, 40.245772 ], [ -111.642405, 40.2487 ], [ -111.643139, 40.249213 ], [ -111.647426, 40.25236 ], [ -111.647464, 40.252373 ], [ -111.650729, 40.253303 ], [ -111.650948, 40.253237 ], [ -111.653721, 40.2524 ], [ -111.657171, 40.250501 ], [ -111.659149, 40.248756 ], [ -111.662058, 40.24666 ], [ -111.663287, 40.245816 ], [ -111.664631, 40.244403 ], [ -111.665369, 40.242557 ], [ -111.665378, 40.242197 ] ] ] } },
{ "type": "Feature", "properties": { "group_index": 0, "value": 300.0, "center": [ -111.66129879503157, 40.22514958482903 ], "point_id": 5172 }, "geometry": { "type": "Polygon", "coordinates": [ [ [ -111.665131, 40.225876 ], [ -111.662738, 40.222338 ], [ -111.66102, 40.221949 ], [ -111.660898, 40.221947 ], [ -111.660538, 40.221945 ], [ -111.660428, 40.221998 ], [ -111.658799, 40.223117 ], [ -111.657827, 40.22444 ], [ -111.657827, 40.2248 ], [ -111.658609, 40.225952 ], [ -111.659903, 40.226908 ], [ -111.661734, 40.228186 ], [ -111.661948, 40.228271 ], [ -111.662308, 40.228273 ], [ -111.66244, 40.228238 ], [ -111.662579, 40.228139 ], [ -111.664044, 40.227035 ], [ -111.664161, 40.226949 ], [ -111.665133, 40.226236 ], [ -111.665131, 40.225876 ] ] ] } },
{ "type": "Feature", "properties": { "group_index": 0, "value": 600.0, "center": [ -111.66129879503157, 40.22514958482903 ], "point_id": 5172 }, "geometry": { "type": "Polygon", "coordinates": [ [ [ -111.668863, 40.226805 ], [ -111.666778, 40.221721 ], [ -111.666638, 40.221593 ], [ -111.663812, 40.21974 ], [ -111.662684, 40.219067 ], [ -111.66253, 40.218979 ], [ -111.661571, 40.218975 ], [ -111.661545, 40.218975 ], [ -111.659018, 40.219401 ], [ -111.658774, 40.219519 ], [ -111.657291, 40.220612 ], [ -111.655794, 40.221867 ], [ -111.65571, 40.221987 ], [ -111.653705, 40.225536 ], [ -111.653701, 40.225896 ], [ -111.655315, 40.22721 ], [ -111.657057, 40.228663 ], [ -111.658442, 40.229742 ], [ -111.661928, 40.232017 ], [ -111.662288, 40.232021 ], [ -111.662863, 40.231905 ], [ -111.667125, 40.228489 ], [ -111.668597, 40.227368 ], [ -111.66886, 40.227165 ], [ -111.668863, 40.226805 ] ] ] } },
{ "type": "Feature", "properties": { "group_index": 0, "value": 900.0, "center": [ -111.66129879503157, 40.22514958482903 ], "point_id": 5172 }, "geometry": { "type": "Polygon", "coordinates": [ [ [ -111.673718, 40.226935 ], [ -111.67226, 40.225613 ], [ -111.671262, 40.221258 ], [ -111.671132, 40.220863 ], [ -111.670921, 40.220571 ], [ -111.667545, 40.218483 ], [ -111.665234, 40.21718 ], [ -111.661172, 40.216132 ], [ -111.659393, 40.21584 ], [ -111.659149, 40.215801 ], [ -111.658789, 40.215803 ], [ -111.658576, 40.21585 ], [ -111.655939, 40.217733 ], [ -111.653869, 40.219552 ], [ -111.650887, 40.221915 ], [ -111.64911, 40.22477 ], [ -111.648684, 40.225461 ], [ -111.648676, 40.225651 ], [ -111.648796, 40.225838 ], [ -111.64972, 40.226791 ], [ -111.653551, 40.229815 ], [ -111.655134, 40.231089 ], [ -111.655991, 40.231778 ], [ -111.656864, 40.232416 ], [ -111.658728, 40.233755 ], [ -111.661464, 40.235483 ], [ -111.661911, 40.235749 ], [ -111.662271, 40.235748 ], [ -111.662391, 40.235732 ], [ -111.662873, 40.235423 ], [ -111.663818, 40.234765 ], [ -111.664854, 40.23399 ], [ -111.665015, 40.233869 ], [ -111.666594, 40.232657 ], [ -111.668343, 40.231333 ], [ -111.668492, 40.231219 ], [ -111.670083, 40.230017 ], [ -111.67366, 40.227384 ], [ -111.673718, 40.226935 ] ] ] } },
{ "type": "Feature", "properties": { "group_index": 0, "value": 300.0, "center": [ -111.65862079890529, 40.22861264825596 ], "point_id": 5173 }, "geometry": { "type": "Polygon", "coordinates": [ [ [ -111.663349, 40.228319 ], [ -111.663138, 40.228114 ], [ -111.661665, 40.226868 ], [ -111.660001, 40.225606 ], [ -111.658916, 40.224871 ], [ -111.658556, 40.224868 ], [ -111.656632, 40.226025 ], [ -111.65415, 40.228087 ], [ -111.653901, 40.228285 ], [ -111.653899, 40.228645 ], [ -111.654879, 40.229759 ], [ -111.65513, 40.229971 ], [ -111.656522, 40.231094 ], [ -111.657748, 40.232111 ], [ -111.65861, 40.232425 ], [ -111.658759, 40.23243 ], [ -111.660083, 40.231467 ], [ -111.662048, 40.229997 ], [ -111.662138, 40.229928 ], [ -111.66229, 40.229792 ], [ -111.663348, 40.228679 ], [ -111.663349, 40.228319 ] ] ] } },
{ "type": "Feature", "properties": { "group_index": 0, "value": 600.0, "center": [ -111.65862079890529, 40.22861264825596 ], "point_id": 5173 }, "geometry": { "type": "Polygon", "coordinates": [ [ [ -111.668257, 40.228336 ], [ -111.668046, 40.228129 ], [ -111.666337, 40.226662 ], [ -111.665283, 40.225876 ], [ -111.662485, 40.223721 ], [ -111.659082, 40.221068 ], [ -111.658928, 40.221068 ], [ -111.658756, 40.221117 ], [ -111.65856, 40.221206 ], [ -111.658075, 40.221481 ], [ -111.65687, 40.222418 ], [ -111.652532, 40.225525 ], [ -111.650831, 40.22684 ], [ -111.649136, 40.228154 ], [ -111.648992, 40.228275 ], [ -111.648991, 40.228635 ], [ -111.64997, 40.229743 ], [ -111.650164, 40.229951 ], [ -111.651871, 40.231289 ], [ -111.653268, 40.232409 ], [ -111.65505, 40.233739 ], [ -111.656968, 40.235095 ], [ -111.658414, 40.236106 ], [ -111.658774, 40.236107 ], [ -111.660562, 40.23504 ], [ -111.662026, 40.233981 ], [ -111.662311, 40.233762 ], [ -111.665413, 40.231209 ], [ -111.667129, 40.229892 ], [ -111.668256, 40.228696 ], [ -111.668257, 40.228336 ] ] ] } },
{ "type": "Feature", "properties": { "group_index": 0, "value": 900.0, "center": [ -111.65862079890529, 40.22861264825596 ], "point_id": 5173 }, "geometry": { "type": "Polygon", "coordinates": [ [ [ -111.672952, 40.22853 ], [ -111.672952, 40.22853 ], [ -111.672952, 40.228514 ], [ -111.671479, 40.226907 ], [ -111.671384, 40.226816 ], [ -111.667709, 40.224057 ], [ -111.665157, 40.221654 ], [ -111.660825, 40.218428 ], [ -111.659539, 40.217544 ], [ -111.659402, 40.217456 ], [ -111.659081, 40.217283 ], [ -111.658979, 40.217282 ], [ -111.658641, 40.217461 ], [ -111.657042, 40.218365 ], [ -111.655861, 40.219076 ], [ -111.652724, 40.221808 ], [ -111.649109, 40.224211 ], [ -111.645063, 40.227242 ], [ -111.644777, 40.22746 ], [ -111.644139, 40.228099 ], [ -111.644147, 40.228459 ], [ -111.644172, 40.228508 ], [ -111.644204, 40.228568 ], [ -111.644962, 40.229681 ], [ -111.645136, 40.229856 ], [ -111.647285, 40.231577 ], [ -111.650073, 40.233726 ], [ -111.650292, 40.233896 ], [ -111.65197, 40.23518 ], [ -111.652236, 40.235384 ], [ -111.653976, 40.236712 ], [ -111.654912, 40.237426 ], [ -111.657703, 40.239384 ], [ -111.658282, 40.239781 ], [ -111.658401, 40.239851 ], [ -111.658761, 40.239855 ], [ -111.658974, 40.239759 ], [ -111.66065, 40.238718 ], [ -111.660796, 40.238615 ], [ -111.661752, 40.237935 ], [ -111.663385, 40.236788 ], [ -111.666149, 40.234689 ], [ -111.668276, 40.233095 ], [ -111.672036, 40.229908 ], [ -111.672106, 40.229819 ], [ -111.672952, 40.228546 ], [ -111.672952, 40.22853 ] ] ] } },
{ "type": "Feature", "properties": { "group_index": 0, "value": 300.0, "center": [ -111.6586622, 40.241497 ], "point_id": 5174 }, "geometry": { "type": "Polygon", "coordinates": [ [ [ -111.661993, 40.240561 ], [ -111.661993, 40.240515 ], [ -111.661875, 40.240334 ], [ -111.661735, 40.24022 ], [ -111.660682, 40.239413 ], [ -111.659572, 40.238544 ], [ -111.659075, 40.238228 ], [ -111.658965, 40.238169 ], [ -111.658483, 40.238052 ], [ -111.658292, 40.238051 ], [ -111.65542, 40.240313 ], [ -111.654578, 40.240935 ], [ -111.654011, 40.24142 ], [ -111.654008, 40.24178 ], [ -111.654066, 40.241902 ], [ -111.654168, 40.241983 ], [ -111.65569, 40.243163 ], [ -111.657492, 40.244542 ], [ -111.658259, 40.245084 ], [ -111.658458, 40.245168 ], [ -111.658818, 40.245173 ], [ -111.659046, 40.245099 ], [ -111.661124, 40.24365 ], [ -111.661686, 40.243136 ], [ -111.661993, 40.240561 ] ] ] } },
{ "type": "Feature", "properties": { "group_index": 0, "value": 600.0, "center": [ -111.6586622, 40.241497 ], "point_id": 5174 }, "geometry": { "type": "Polygon", "coordinates": [ [ [ -111.666783, 40.240349 ], [ -111.666656, 40.240229 ], [ -111.664413, 40.238428 ], [ -111.663248, 40.23758 ], [ -111.660572, 40.235572 ], [ -111.659725, 40.234922 ], [ -111.658993, 40.234417 ], [ -111.658784, 40.234398 ], [ -111.658424, 40.234396 ], [ -111.657575, 40.234918 ], [ -111.655923, 40.236156 ], [ -111.655665, 40.236352 ], [ -111.652585, 40.238693 ], [ -111.650756, 40.240089 ], [ -111.650128, 40.240601 ], [ -111.649107, 40.241445 ], [ -111.649106, 40.241805 ], [ -111.649158, 40.241888 ], [ -111.652496, 40.245116 ], [ -111.652902, 40.245463 ], [ -111.654, 40.246396 ], [ -111.658255, 40.248833 ], [ -111.658445, 40.248915 ], [ -111.658805, 40.24892 ], [ -111.659149, 40.248812 ], [ -111.662474, 40.246589 ], [ -111.663474, 40.245817 ], [ -111.664907, 40.244497 ], [ -111.665008, 40.244405 ], [ -111.666783, 40.240709 ], [ -111.666783, 40.240349 ] ] ] } },
{ "type": "Feature", "properties": { "group_index": 0, "value": 900.0, "center": [ -111.6586622, 40.241497 ], "point_id": 5174 }, "geometry": { "type": "Polygon", "coordinates": [ [ [ -111.671684, 40.240333 ], [ -111.671591, 40.240239 ], [ -111.671504, 40.240159 ], [ -111.67014, 40.239044 ], [ -111.669881, 40.238839 ], [ -111.668362, 40.237712 ], [ -111.663913, 40.23419 ], [ -111.661273, 40.23207 ], [ -111.660662, 40.231594 ], [ -111.659576, 40.230947 ], [ -111.659109, 40.230688 ], [ -111.659015, 40.23067 ], [ -111.658767, 40.23065 ], [ -111.658407, 40.23065 ], [ -111.658316, 40.230651 ], [ -111.656368, 40.232052 ], [ -111.654518, 40.233379 ], [ -111.654083, 40.233695 ], [ -111.649689, 40.237083 ], [ -111.645483, 40.240303 ], [ -111.644464, 40.241213 ], [ -111.644456, 40.241417 ], [ -111.644461, 40.241573 ], [ -111.644867, 40.242317 ], [ -111.644916, 40.242393 ], [ -111.648056, 40.246159 ], [ -111.651599, 40.249344 ], [ -111.651735, 40.249444 ], [ -111.656033, 40.251827 ], [ -111.658252, 40.252632 ], [ -111.658425, 40.252664 ], [ -111.658785, 40.252664 ], [ -111.658967, 40.25259 ], [ -111.660486, 40.251765 ], [ -111.661982, 40.25059 ], [ -111.662902, 40.249913 ], [ -111.667444, 40.247208 ], [ -111.66836, 40.246682 ], [ -111.669908, 40.244454 ], [ -111.670002, 40.244277 ], [ -111.671683, 40.240693 ], [ -111.671684, 40.240333 ] ] ] } },
{ "type": "Feature", "properties": { "group_index": 0, "value": 300.0, "center": [ -111.6586951533722, 40.23745202965437 ], "point_id": 5175 }, "geometry": { "type": "Polygon", "coordinates": [ [ [ -111.662528, 40.238432 ], [ -111.662528, 40.238432 ], [ -111.662383, 40.236972 ], [ -111.661852, 40.236354 ], [ -111.660136, 40.235049 ], [ -111.658994, 40.234223 ], [ -111.658634, 40.234222 ], [ -111.658425, 40.234225 ], [ -111.658318, 40.234297 ], [ -111.657238, 40.235055 ], [ -111.656838, 40.235328 ], [ -111.655708, 40.236154 ], [ -111.65545, 40.23635 ], [ -111.654071, 40.237461 ], [ -111.65407, 40.237821 ], [ -111.654167, 40.237907 ], [ -111.654313, 40.238027 ], [ -111.655057, 40.238605 ], [ -111.6581, 40.2411 ], [ -111.658393, 40.241115 ], [ -111.658605, 40.241116 ], [ -111.658965, 40.24112 ], [ -111.659953, 40.240481 ], [ -111.661492, 40.239277 ], [ -111.662528, 40.238434 ], [ -111.662528, 40.238433 ], [ -111.662528, 40.238432 ] ] ] } },
{ "type": "Feature", "properties": { "group_index": 0, "value": 600.0, "center": [ -111.6586951533722, 40.23745202965437 ], "point_id": 5175 }, "geometry": { "type": "Polygon", "coordinates": [ [ [ -111.666739, 40.236747 ], [ -111.666742, 40.236387 ], [ -111.666617, 40.236272 ], [ -111.664123, 40.234222 ], [ -111.66144, 40.231898 ], [ -111.65968, 40.23067 ], [ -111.659016, 40.230476 ], [ -111.658656, 40.230475 ], [ -111.658408, 40.230478 ], [ -111.658316, 40.230495 ], [ -111.656692, 40.231679 ], [ -111.653869, 40.233694 ], [ -111.649496, 40.237069 ], [ -111.649164, 40.237443 ], [ -111.64916, 40.237803 ], [ -111.64926, 40.237892 ], [ -111.649394, 40.238012 ], [ -111.65093, 40.239232 ], [ -111.651064, 40.239335 ], [ -111.652533, 40.240461 ], [ -111.652797, 40.240665 ], [ -111.654516, 40.241982 ], [ -111.656071, 40.243164 ], [ -111.657752, 40.244437 ], [ -111.657886, 40.24454 ], [ -111.658015, 40.244632 ], [ -111.658262, 40.244783 ], [ -111.658463, 40.244859 ], [ -111.658823, 40.244864 ], [ -111.659048, 40.244808 ], [ -111.660987, 40.243651 ], [ -111.663963, 40.241288 ], [ -111.664714, 40.240705 ], [ -111.666523, 40.239186 ], [ -111.666739, 40.236747 ] ] ] } },
{ "type": "Feature", "properties": { "group_index": 0, "value": 900.0, "center": [ -111.6586951533722, 40.23745202965437 ], "point_id": 5175 }, "geometry": { "type": "Polygon", "coordinates": [ [ [ -111.67165, 40.236766 ], [ -111.671648, 40.236406 ], [ -111.671525, 40.236287 ], [ -111.671421, 40.236199 ], [ -111.668337, 40.233642 ], [ -111.666434, 40.232086 ], [ -111.665085, 40.230962 ], [ -111.66494, 40.230848 ], [ -111.663302, 40.229568 ], [ -111.663127, 40.229433 ], [ -111.661308, 40.228109 ], [ -111.660746, 40.227722 ], [ -111.659232, 40.226862 ], [ -111.659065, 40.226786 ], [ -111.658908, 40.226737 ], [ -111.658548, 40.226735 ], [ -111.658322, 40.226774 ], [ -111.658014, 40.226978 ], [ -111.654568, 40.229398 ], [ -111.651096, 40.232034 ], [ -111.650977, 40.232124 ], [ -111.649359, 40.233364 ], [ -111.649141, 40.233532 ], [ -111.648961, 40.233672 ], [ -111.644314, 40.237202 ], [ -111.644318, 40.237562 ], [ -111.645573, 40.238829 ], [ -111.647612, 40.240542 ], [ -111.647703, 40.24062 ], [ -111.647809, 40.2407 ], [ -111.649424, 40.241888 ], [ -111.653729, 40.245987 ], [ -111.653993, 40.246232 ], [ -111.658256, 40.248534 ], [ -111.658448, 40.248608 ], [ -111.658808, 40.248608 ], [ -111.65915, 40.248539 ], [ -111.66193, 40.246758 ], [ -111.663281, 40.245816 ], [ -111.667411, 40.242349 ], [ -111.667957, 40.241983 ], [ -111.668138, 40.241848 ], [ -111.669749, 40.240595 ], [ -111.669848, 40.240516 ], [ -111.671327, 40.239299 ], [ -111.671431, 40.239205 ], [ -111.67165, 40.236766 ] ] ] } },
{ "type": "Feature", "properties": { "group_index": 0, "value": 300.0, "center": [ -111.6610425, 40.21685000000008 ], "point_id": 5176 }, "geometry": { "type": "Polygon", "coordinates": [ [ [ -111.663164, 40.218715 ], [ -111.663227, 40.218481 ], [ -111.6631, 40.214762 ], [ -111.661921, 40.213139 ], [ -111.661818, 40.213155 ], [ -111.661142, 40.213309 ], [ -111.659423, 40.213912 ], [ -111.658817, 40.214521 ], [ -111.65705, 40.2177 ], [ -111.657037, 40.217815 ], [ -111.657438, 40.218187 ], [ -111.659322, 40.219882 ], [ -111.6596, 40.219885 ], [ -111.659878, 40.219888 ], [ -111.661945, 40.219597 ], [ -111.66282, 40.219481 ], [ -111.662964, 40.219426 ], [ -111.663164, 40.218715 ] ] ] } },
{ "type": "Feature", "properties": { "group_index": 0, "value": 600.0, "center": [ -111.6610425, 40.21685000000008 ], "point_id": 5176 }, "geometry": { "type": "Polygon", "coordinates": [ [ [ -111.664147, 40.214696 ], [ -111.661459, 40.211878 ], [ -111.659118, 40.210453 ], [ -111.658758, 40.210447 ], [ -111.655024, 40.213486 ], [ -111.653896, 40.214435 ], [ -111.653824, 40.214788 ], [ -111.653816, 40.215935 ], [ -111.65382, 40.216134 ], [ -111.653824, 40.216334 ], [ -111.653925, 40.219422 ], [ -111.656924, 40.222131 ], [ -111.657022, 40.222202 ], [ -111.658991, 40.223472 ], [ -111.65908, 40.223493 ], [ -111.662214, 40.223669 ], [ -111.662574, 40.223672 ], [ -111.664305, 40.221962 ], [ -111.666452, 40.217329 ], [ -111.664147, 40.214696 ] ] ] } },
{ "type": "Feature", "properties": { "group_index": 0, "value": 900.0, "center": [ -111.6610425, 40.21685000000008 ], "point_id": 5176 }, "geometry": { "type": "Polygon", "coordinates": [ [ [ -111.669217, 40.221403 ], [ -111.669011, 40.218274 ], [ -111.668266, 40.216414 ], [ -111.667631, 40.21595 ], [ -111.666328, 40.215504 ], [ -111.662844, 40.213501 ], [ -111.661235, 40.207727 ], [ -111.661307, 40.207384 ], [ -111.660955, 40.20731 ], [ -111.65978, 40.207511 ], [ -111.657022, 40.208493 ], [ -111.656303, 40.208769 ], [ -111.652218, 40.211058 ], [ -111.652101, 40.211179 ], [ -111.648963, 40.21624 ], [ -111.648964, 40.2166 ], [ -111.649905, 40.219064 ], [ -111.652138, 40.222261 ], [ -111.652288, 40.222374 ], [ -111.655249, 40.224549 ], [ -111.658547, 40.226919 ], [ -111.658907, 40.226921 ], [ -111.662207, 40.226902 ], [ -111.662567, 40.226902 ], [ -111.665034, 40.224996 ], [ -111.667439, 40.223296 ], [ -111.669214, 40.221763 ], [ -111.669217, 40.221403 ] ] ] } },
{ "type": "Feature", "properties": { "group_index": 0, "value": 300.0, "center": [ -111.65635536663109, 40.21458159413558 ], "point_id": 5177 }, "geometry": { "type": "Polygon", "coordinates": [ [ [ -111.661357, 40.214409 ], [ -111.661326, 40.214373 ], [ -111.659094, 40.211868 ], [ -111.658734, 40.211862 ], [ -111.657188, 40.211872 ], [ -111.656869, 40.211889 ], [ -111.656549, 40.211905 ], [ -111.654853, 40.212047 ], [ -111.654457, 40.212105 ], [ -111.652609, 40.212647 ], [ -111.652227, 40.215161 ], [ -111.652228, 40.215212 ], [ -111.652228, 40.215212 ], [ -111.652229, 40.215263 ], [ -111.652409, 40.215497 ], [ -111.653467, 40.216534 ], [ -111.655812, 40.21811 ], [ -111.656172, 40.218103 ], [ -111.658731, 40.216732 ], [ -111.659582, 40.216094 ], [ -111.661186, 40.214917 ], [ -111.661397, 40.214511 ], [ -111.661357, 40.214409 ] ] ] } },
{ "type": "Feature", "properties": { "group_index": 0, "value": 600.0, "center": [ -111.65635536663109, 40.21458159413558 ], "point_id": 5177 }, "geometry": { "type": "Polygon", "coordinates": [ [ [ -111.664704, 40.215375 ], [ -111.664147, 40.214696 ], [ -111.662344, 40.212929 ], [ -111.66035, 40.20938 ], [ -111.660054, 40.209175 ], [ -111.659211, 40.209006 ], [ -111.655684, 40.208999 ], [ -111.655324, 40.208996 ], [ -111.651886, 40.20925 ], [ -111.651129, 40.209872 ], [ -111.649777, 40.211139 ], [ -111.649602, 40.211453 ], [ -111.648874, 40.216241 ], [ -111.648875, 40.216601 ], [ -111.652701, 40.220035 ], [ -111.653811, 40.220893 ], [ -111.656353, 40.221681 ], [ -111.656712, 40.221667 ], [ -111.659528, 40.220009 ], [ -111.662411, 40.218043 ], [ -111.664981, 40.216282 ], [ -111.66526, 40.216054 ], [ -111.664704, 40.215375 ] ] ] } },
{ "type": "Feature", "properties": { "group_index": 0, "value": 900.0, "center": [ -111.65635536663109, 40.21458159413558 ], "point_id": 5177 }, "geometry": { "type": "Polygon", "coordinates": [ [ [ -111.667631, 40.218497 ], [ -111.667632, 40.218276 ], [ -111.667632, 40.218276 ], [ -111.667632, 40.218056 ], [ -111.667632, 40.217835 ], [ -111.667538, 40.217281 ], [ -111.664704, 40.215375 ], [ -111.664147, 40.214696 ], [ -111.663018, 40.213714 ], [ -111.662844, 40.213501 ], [ -111.662344, 40.212929 ], [ -111.663963, 40.207221 ], [ -111.663939, 40.206862 ], [ -111.662968, 40.206757 ], [ -111.662157, 40.206786 ], [ -111.656708, 40.20558 ], [ -111.654891, 40.205715 ], [ -111.653094, 40.205933 ], [ -111.652881, 40.205965 ], [ -111.652689, 40.20602 ], [ -111.652521, 40.206086 ], [ -111.647504, 40.208533 ], [ -111.646492, 40.212245 ], [ -111.646489, 40.213182 ], [ -111.646485, 40.214118 ], [ -111.646547, 40.214383 ], [ -111.646613, 40.214547 ], [ -111.647273, 40.215549 ], [ -111.647917, 40.216522 ], [ -111.649742, 40.21881 ], [ -111.650618, 40.222278 ], [ -111.655247, 40.22438 ], [ -111.656973, 40.224895 ], [ -111.659148, 40.223818 ], [ -111.662544, 40.221873 ], [ -111.667548, 40.218801 ], [ -111.667631, 40.218718 ], [ -111.667631, 40.218497 ] ] ] } },
{ "type": "Feature", "properties": { "group_index": 0, "value": 300.0, "center": [ -111.6552029094105, 40.20895070898844 ], "point_id": 5178 }, "geometry": { "type": "Polygon", "coordinates": [ [ [ -111.659746, 40.207924 ], [ -111.659595, 40.207597 ], [ -111.656827, 40.205892 ], [ -111.65471, 40.205751 ], [ -111.653961, 40.205932 ], [ -111.653715, 40.206049 ], [ -111.650443, 40.208552 ], [ -111.650347, 40.208652 ], [ -111.650248, 40.20883 ], [ -111.65024, 40.208994 ], [ -111.652937, 40.211362 ], [ -111.65305, 40.211444 ], [ -111.653178, 40.211538 ], [ -111.654435, 40.211814 ], [ -111.654794, 40.211787 ], [ -111.657124, 40.211431 ], [ -111.658458, 40.210987 ], [ -111.658803, 40.210853 ], [ -111.65991, 40.209988 ], [ -111.660178, 40.209748 ], [ -111.659746, 40.207924 ] ] ] } },
{ "type": "Feature", "properties": { "group_index": 0, "value": 600.0, "center": [ -111.6552029094105, 40.20895070898844 ], "point_id": 5178 }, "geometry": { "type": "Polygon", "coordinates": [ [ [ -111.665431, 40.206827 ], [ -111.664952, 40.20665 ], [ -111.664577, 40.206664 ], [ -111.664202, 40.206678 ], [ -111.663581, 40.206717 ], [ -111.662966, 40.206757 ], [ -111.662159, 40.206786 ], [ -111.656336, 40.205406 ], [ -111.65471, 40.205751 ], [ -111.653454, 40.206027 ], [ -111.648876, 40.208093 ], [ -111.646211, 40.207637 ], [ -111.646087, 40.207631 ], [ -111.645088, 40.20848 ], [ -111.645088, 40.20884 ], [ -111.649377, 40.212666 ], [ -111.651339, 40.21423 ], [ -111.652924, 40.214834 ], [ -111.65593, 40.214687 ], [ -111.658581, 40.21393 ], [ -111.658923, 40.213819 ], [ -111.659303, 40.212921 ], [ -111.661128, 40.209208 ], [ -111.665434, 40.207187 ], [ -111.665431, 40.206827 ] ] ] } },
{ "type": "Feature", "properties": { "group_index": 0, "value": 900.0, "center": [ -111.6552029094105, 40.20895070898844 ], "point_id": 5178 }, "geometry": { "type": "Polygon", "coordinates": [ [ [ -111.669762, 40.20682 ], [ -111.669709, 40.206713 ], [ -111.669383, 40.206696 ], [ -111.669057, 40.206678 ], [ -111.667016, 40.206664 ], [ -111.664983, 40.206649 ], [ -111.664952, 40.20665 ], [ -111.664588, 40.206664 ], [ -111.664577, 40.206664 ], [ -111.664202, 40.206678 ], [ -111.663581, 40.206717 ], [ -111.662966, 40.206757 ], [ -111.662159, 40.206786 ], [ -111.656336, 40.205406 ], [ -111.65471, 40.205751 ], [ -111.653454, 40.206027 ], [ -111.648876, 40.208093 ], [ -111.646999, 40.207839 ], [ -111.646211, 40.207637 ], [ -111.645342, 40.207446 ], [ -111.64237, 40.206673 ], [ -111.642026, 40.206778 ], [ -111.640644, 40.20903 ], [ -111.640607, 40.209111 ], [ -111.640629, 40.20947 ], [ -111.640812, 40.209459 ], [ -111.640995, 40.209448 ], [ -111.641193, 40.209422 ], [ -111.641379, 40.209398 ], [ -111.642241, 40.209238 ], [ -111.646491, 40.212548 ], [ -111.646486, 40.213827 ], [ -111.65002, 40.216597 ], [ -111.652125, 40.218439 ], [ -111.652485, 40.218445 ], [ -111.656132, 40.218523 ], [ -111.658976, 40.217642 ], [ -111.661854, 40.215763 ], [ -111.662464, 40.21535 ], [ -111.662461, 40.215131 ], [ -111.662426, 40.214693 ], [ -111.665732, 40.209786 ], [ -111.667097, 40.208875 ], [ -111.667395, 40.208673 ], [ -111.669745, 40.20718 ], [ -111.669762, 40.20682 ] ] ] } },
{ "type": "Feature", "properties": { "group_index": 0, "value": 300.0, "center": [ -111.67958024409761, 40.27314101504308 ], "point_id": 5182 }, "geometry": { "type": "Polygon", "coordinates": [ [ [ -111.684587, 40.273237 ], [ -111.684339, 40.272991 ], [ -111.683512, 40.272285 ], [ -111.68278, 40.271922 ], [ -111.679882, 40.27093 ], [ -111.679112, 40.270657 ], [ -111.678752, 40.270655 ], [ -111.676934, 40.271229 ], [ -111.675675, 40.271883 ], [ -111.674466, 40.272564 ], [ -111.674379, 40.272914 ], [ -111.67462, 40.2733 ], [ -111.677113, 40.275257 ], [ -111.678263, 40.275722 ], [ -111.678623, 40.275726 ], [ -111.682321, 40.274668 ], [ -111.68447, 40.273487 ], [ -111.684602, 40.273272 ], [ -111.684587, 40.273237 ] ] ] } },
{ "type": "Feature", "properties": { "group_index": 0, "value": 600.0, "center": [ -111.67958024409761, 40.27314101504308 ], "point_id": 5182 }, "geometry": { "type": "Polygon", "coordinates": [ [ [ -111.689382, 40.273158 ], [ -111.685898, 40.27034 ], [ -111.684313, 40.269455 ], [ -111.680429, 40.267308 ], [ -111.680069, 40.267303 ], [ -111.675888, 40.267979 ], [ -111.67214, 40.26983 ], [ -111.671732, 40.270419 ], [ -111.671905, 40.272086 ], [ -111.672517, 40.275095 ], [ -111.672929, 40.276127 ], [ -111.675883, 40.278076 ], [ -111.677495, 40.279127 ], [ -111.677855, 40.27913 ], [ -111.678838, 40.279072 ], [ -111.679378, 40.278889 ], [ -111.67994, 40.278437 ], [ -111.685762, 40.277015 ], [ -111.686093, 40.276871 ], [ -111.68625, 40.276792 ], [ -111.686548, 40.276558 ], [ -111.68807, 40.275197 ], [ -111.689218, 40.273858 ], [ -111.689379, 40.273518 ], [ -111.689382, 40.273158 ] ] ] } },
{ "type": "Feature", "properties": { "group_index": 0, "value": 900.0, "center": [ -111.67958024409761, 40.27314101504308 ], "point_id": 5182 }, "geometry": { "type": "Polygon", "coordinates": [ [ [ -111.694413, 40.273079 ], [ -111.692185, 40.271007 ], [ -111.689479, 40.269432 ], [ -111.686111, 40.26664 ], [ -111.683822, 40.265944 ], [ -111.681167, 40.265394 ], [ -111.677254, 40.264717 ], [ -111.676894, 40.264721 ], [ -111.671816, 40.265847 ], [ -111.671541, 40.266079 ], [ -111.671004, 40.268962 ], [ -111.669421, 40.273302 ], [ -111.669418, 40.273662 ], [ -111.670777, 40.274994 ], [ -111.672226, 40.279259 ], [ -111.676998, 40.282663 ], [ -111.677269, 40.282799 ], [ -111.678367, 40.282806 ], [ -111.678727, 40.282807 ], [ -111.678831, 40.282781 ], [ -111.679878, 40.28243 ], [ -111.680851, 40.281643 ], [ -111.681062, 40.281483 ], [ -111.68679, 40.280314 ], [ -111.687316, 40.280562 ], [ -111.687646, 40.280419 ], [ -111.687816, 40.280344 ], [ -111.688074, 40.280154 ], [ -111.689255, 40.278925 ], [ -111.692622, 40.275401 ], [ -111.694042, 40.274005 ], [ -111.694406, 40.273439 ], [ -111.694413, 40.273079 ] ] ] } },
{ "type": "Feature", "properties": { "group_index": 0, "value": 300.0, "center": [ -111.64597412168003, 40.24574378067243 ], "point_id": 5184 }, "geometry": { "type": "Polygon", "coordinates": [ [ [ -111.650194, 40.245394 ], [ -111.649469, 40.244243 ], [ -111.648747, 40.243541 ], [ -111.646828, 40.242356 ], [ -111.646749, 40.24232 ], [ -111.646657, 40.242278 ], [ -111.646297, 40.242265 ], [ -111.644451, 40.243182 ], [ -111.643921, 40.243452 ], [ -111.642077, 40.2447 ], [ -111.642078, 40.24506 ], [ -111.642074, 40.246414 ], [ -111.64234, 40.24696 ], [ -111.644538, 40.248675 ], [ -111.644864, 40.248918 ], [ -111.645698, 40.24917 ], [ -111.646054, 40.249228 ], [ -111.646311, 40.249137 ], [ -111.647648, 40.24819 ], [ -111.649047, 40.247251 ], [ -111.649685, 40.246758 ], [ -111.649982, 40.246399 ], [ -111.65022, 40.245753 ], [ -111.650194, 40.245394 ] ] ] } },
{ "type": "Feature", "properties": { "group_index": 0, "value": 600.0, "center": [ -111.64597412168003, 40.24574378067243 ], "point_id": 5184 }, "geometry": { "type": "Polygon", "coordinates": [ [ [ -111.654694, 40.244158 ], [ -111.650736, 40.241409 ], [ -111.649265, 40.240293 ], [ -111.64707, 40.23875 ], [ -111.646775, 40.238573 ], [ -111.646692, 40.238538 ], [ -111.646332, 40.238536 ], [ -111.644475, 40.23945 ], [ -111.642772, 40.240545 ], [ -111.640713, 40.241989 ], [ -111.639507, 40.242946 ], [ -111.637363, 40.244634 ], [ -111.637286, 40.244697 ], [ -111.637286, 40.245057 ], [ -111.640665, 40.249281 ], [ -111.641565, 40.250389 ], [ -111.641626, 40.250437 ], [ -111.642381, 40.250981 ], [ -111.6446, 40.252364 ], [ -111.645609, 40.252618 ], [ -111.645965, 40.252675 ], [ -111.647202, 40.252461 ], [ -111.647341, 40.252411 ], [ -111.649929, 40.250639 ], [ -111.65173, 40.249142 ], [ -111.652906, 40.248108 ], [ -111.652967, 40.248026 ], [ -111.654934, 40.244755 ], [ -111.654694, 40.244158 ] ] ] } },
{ "type": "Feature", "properties": { "group_index": 0, "value": 900.0, "center": [ -111.64597412168003, 40.24574378067243 ], "point_id": 5184 }, "geometry": { "type": "Polygon", "coordinates": [ [ [ -111.659643, 40.244342 ], [ -111.659643, 40.244327 ], [ -111.659479, 40.244163 ], [ -111.658915, 40.243649 ], [ -111.656108, 40.241547 ], [ -111.655183, 40.240893 ], [ -111.650484, 40.237454 ], [ -111.647147, 40.235 ], [ -111.64679, 40.234827 ], [ -111.646718, 40.234792 ], [ -111.646358, 40.234789 ], [ -111.644588, 40.235559 ], [ -111.642229, 40.237181 ], [ -111.639889, 40.238756 ], [ -111.636667, 40.241029 ], [ -111.634893, 40.242395 ], [ -111.634363, 40.242969 ], [ -111.632591, 40.245665 ], [ -111.632563, 40.245848 ], [ -111.636539, 40.250215 ], [ -111.637283, 40.25228 ], [ -111.637386, 40.252529 ], [ -111.637394, 40.252538 ], [ -111.638513, 40.253112 ], [ -111.64305, 40.255353 ], [ -111.643291, 40.255467 ], [ -111.644718, 40.256087 ], [ -111.645078, 40.256082 ], [ -111.648355, 40.255349 ], [ -111.649036, 40.255042 ], [ -111.64929, 40.254893 ], [ -111.650424, 40.254206 ], [ -111.653453, 40.252281 ], [ -111.656218, 40.249479 ], [ -111.657736, 40.248071 ], [ -111.65784, 40.247948 ], [ -111.659568, 40.244633 ], [ -111.659643, 40.244342 ] ] ] } },
{ "type": "Feature", "properties": { "group_index": 0, "value": 300.0, "center": [ -111.65870890653858, 40.23337994279608 ], "point_id": 5185 }, "geometry": { "type": "Polygon", "coordinates": [ [ [ -111.663323, 40.233419 ], [ -111.662014, 40.232078 ], [ -111.661808, 40.231899 ], [ -111.6606, 40.230949 ], [ -111.659018, 40.230105 ], [ -111.658768, 40.230103 ], [ -111.658408, 40.230103 ], [ -111.658317, 40.230153 ], [ -111.656683, 40.23125 ], [ -111.655658, 40.232049 ], [ -111.654074, 40.233379 ], [ -111.654074, 40.233739 ], [ -111.654175, 40.233902 ], [ -111.654364, 40.234055 ], [ -111.655251, 40.234737 ], [ -111.65776, 40.236619 ], [ -111.658408, 40.237047 ], [ -111.658768, 40.23705 ], [ -111.658981, 40.237045 ], [ -111.660142, 40.236441 ], [ -111.662973, 40.234082 ], [ -111.663243, 40.233864 ], [ -111.663324, 40.233779 ], [ -111.663323, 40.233419 ] ] ] } },
{ "type": "Feature", "properties": { "group_index": 0, "value": 600.0, "center": [ -111.65870890653858, 40.23337994279608 ], "point_id": 5185 }, "geometry": { "type": "Polygon", "coordinates": [ [ [ -111.668233, 40.233414 ], [ -111.66692, 40.232087 ], [ -111.665571, 40.230963 ], [ -111.665426, 40.230849 ], [ -111.663789, 40.229565 ], [ -111.662438, 40.228572 ], [ -111.660749, 40.227351 ], [ -111.659063, 40.22641 ], [ -111.658911, 40.226361 ], [ -111.658551, 40.226359 ], [ -111.658379, 40.226417 ], [ -111.656711, 40.227568 ], [ -111.654869, 40.228841 ], [ -111.654082, 40.229397 ], [ -111.652361, 40.230719 ], [ -111.65225, 40.230806 ], [ -111.650749, 40.232034 ], [ -111.649167, 40.233363 ], [ -111.649165, 40.233723 ], [ -111.649266, 40.233892 ], [ -111.649447, 40.234034 ], [ -111.651169, 40.235376 ], [ -111.652863, 40.236716 ], [ -111.65443, 40.237907 ], [ -111.658144, 40.240711 ], [ -111.658394, 40.240795 ], [ -111.658754, 40.240796 ], [ -111.658968, 40.240793 ], [ -111.659146, 40.240718 ], [ -111.659536, 40.240477 ], [ -111.660967, 40.23937 ], [ -111.662078, 40.238531 ], [ -111.662999, 40.237842 ], [ -111.664454, 40.236743 ], [ -111.664589, 40.23664 ], [ -111.664717, 40.23654 ], [ -111.665879, 40.235646 ], [ -111.66788, 40.234099 ], [ -111.66815, 40.233883 ], [ -111.66823, 40.233774 ], [ -111.668233, 40.233414 ] ] ] } },
{ "type": "Feature", "properties": { "group_index": 0, "value": 900.0, "center": [ -111.65870890653858, 40.23337994279608 ], "point_id": 5185 }, "geometry": { "type": "Polygon", "coordinates": [ [ [ -111.673141, 40.233432 ], [ -111.672224, 40.232193 ], [ -111.670501, 40.230864 ], [ -111.670384, 40.230774 ], [ -111.669895, 40.2304 ], [ -111.667489, 40.228556 ], [ -111.665202, 40.22688 ], [ -111.662569, 40.224272 ], [ -111.658945, 40.222619 ], [ -111.658585, 40.222608 ], [ -111.657746, 40.223208 ], [ -111.653296, 40.226291 ], [ -111.652625, 40.226759 ], [ -111.652509, 40.226845 ], [ -111.65236, 40.226957 ], [ -111.65187, 40.227321 ], [ -111.650883, 40.228073 ], [ -111.65062, 40.228275 ], [ -111.648988, 40.229518 ], [ -111.647453, 40.230703 ], [ -111.647203, 40.230906 ], [ -111.644695, 40.232963 ], [ -111.644398, 40.233338 ], [ -111.644396, 40.233698 ], [ -111.644439, 40.233858 ], [ -111.644587, 40.234028 ], [ -111.646497, 40.235657 ], [ -111.648967, 40.237555 ], [ -111.651205, 40.239232 ], [ -111.651338, 40.239334 ], [ -111.653081, 40.240665 ], [ -111.654842, 40.241982 ], [ -111.658169, 40.244439 ], [ -111.658432, 40.244636 ], [ -111.658446, 40.244636 ], [ -111.658905, 40.244634 ], [ -111.660734, 40.243324 ], [ -111.66269, 40.241907 ], [ -111.664339, 40.240705 ], [ -111.667858, 40.237961 ], [ -111.669491, 40.236759 ], [ -111.669648, 40.23664 ], [ -111.669758, 40.236555 ], [ -111.672789, 40.234123 ], [ -111.673058, 40.233895 ], [ -111.673139, 40.233792 ], [ -111.673141, 40.233432 ] ] ] } },
{ "type": "Feature", "properties": { "group_index": 0, "value": 300.0, "center": [ -111.66080522210196, 40.22510895508543 ], "point_id": 5190 }, "geometry": { "type": "Polygon", "coordinates": [ [ [ -111.664635, 40.225878 ], [ -111.662737, 40.222398 ], [ -111.66102, 40.221998 ], [ -111.660898, 40.221997 ], [ -111.660538, 40.221996 ], [ -111.660429, 40.222041 ], [ -111.659077, 40.223122 ], [ -111.658147, 40.22444 ], [ -111.658147, 40.2248 ], [ -111.659079, 40.225957 ], [ -111.659903, 40.226592 ], [ -111.66195, 40.227895 ], [ -111.66231, 40.227891 ], [ -111.662444, 40.227859 ], [ -111.66258, 40.227759 ], [ -111.664636, 40.226238 ], [ -111.664635, 40.225878 ] ] ] } },
{ "type": "Feature", "properties": { "group_index": 0, "value": 600.0, "center": [ -111.66080522210196, 40.22510895508543 ], "point_id": 5190 }, "geometry": { "type": "Polygon", "coordinates": [ [ [ -111.668367, 40.2268 ], [ -111.666579, 40.221595 ], [ -111.666481, 40.221526 ], [ -111.663992, 40.219777 ], [ -111.662551, 40.219074 ], [ -111.661386, 40.219053 ], [ -111.658907, 40.21952 ], [ -111.657293, 40.220714 ], [ -111.655927, 40.221866 ], [ -111.655839, 40.221986 ], [ -111.654176, 40.225541 ], [ -111.654171, 40.225901 ], [ -111.655785, 40.227211 ], [ -111.655932, 40.227333 ], [ -111.657527, 40.228664 ], [ -111.658474, 40.229405 ], [ -111.661223, 40.231197 ], [ -111.66174, 40.231529 ], [ -111.661932, 40.231638 ], [ -111.662292, 40.231642 ], [ -111.662407, 40.231606 ], [ -111.662564, 40.23151 ], [ -111.662875, 40.231315 ], [ -111.664624, 40.229999 ], [ -111.664719, 40.229928 ], [ -111.666629, 40.228487 ], [ -111.668101, 40.227367 ], [ -111.668255, 40.227249 ], [ -111.668363, 40.22716 ], [ -111.668367, 40.2268 ] ] ] } },
{ "type": "Feature", "properties": { "group_index": 0, "value": 900.0, "center": [ -111.66080522210196, 40.22510895508543 ], "point_id": 5190 }, "geometry": { "type": "Polygon", "coordinates": [ [ [ -111.673513, 40.227024 ], [ -111.67335, 40.226914 ], [ -111.671762, 40.225605 ], [ -111.671198, 40.221206 ], [ -111.671036, 40.220933 ], [ -111.670825, 40.220641 ], [ -111.667546, 40.218572 ], [ -111.665519, 40.217353 ], [ -111.661105, 40.216129 ], [ -111.659149, 40.215902 ], [ -111.658789, 40.215904 ], [ -111.658563, 40.216025 ], [ -111.655809, 40.217961 ], [ -111.653855, 40.219598 ], [ -111.65102, 40.221913 ], [ -111.649111, 40.224994 ], [ -111.649112, 40.225327 ], [ -111.649113, 40.22566 ], [ -111.649266, 40.225839 ], [ -111.649369, 40.22595 ], [ -111.650738, 40.227135 ], [ -111.654021, 40.229812 ], [ -111.654213, 40.229967 ], [ -111.655603, 40.231091 ], [ -111.65586, 40.231288 ], [ -111.656657, 40.231902 ], [ -111.658336, 40.23305 ], [ -111.66191, 40.235412 ], [ -111.662085, 40.235416 ], [ -111.662298, 40.235398 ], [ -111.662537, 40.235293 ], [ -111.662665, 40.235207 ], [ -111.664226, 40.234087 ], [ -111.664358, 40.233989 ], [ -111.664519, 40.233866 ], [ -111.666092, 40.232652 ], [ -111.667847, 40.231332 ], [ -111.667996, 40.231218 ], [ -111.669586, 40.230013 ], [ -111.673512, 40.227384 ], [ -111.673513, 40.227024 ] ] ] } }
]
}
