{
"type": "FeatureCollection",
"name": "CommuterRail_Stations_iso_foot-walking_10min",
"crs": { "type": "name", "properties": { "name": "urn:ogc:def:crs:OGC:1.3:CRS84" } },
"features": [
{ "type": "Feature", "properties": { "group_index": 0, "value": 600.0, "center": [ -111.98062136647515, 41.22481841275901 ], "point_id": 7 }, "geometry": { "type": "Polygon", "coordinates": [ [ [ -111.983855, 41.228041 ], [ -111.983035, 41.227398 ], [ -111.980414, 41.22385 ], [ -111.979661, 41.220586 ], [ -111.979639, 41.220128 ], [ -111.979607, 41.219639 ], [ -111.979573, 41.218675 ], [ -111.979291, 41.218129 ], [ -111.978931, 41.218116 ], [ -111.978488, 41.218371 ], [ -111.975623, 41.220422 ], [ -111.97479, 41.221029 ], [ -111.971744, 41.224692 ], [ -111.97174, 41.225052 ], [ -111.974248, 41.22716 ], [ -111.974411, 41.227292 ], [ -111.978199, 41.230388 ], [ -111.978643, 41.230585 ], [ -111.979003, 41.230596 ], [ -111.979102, 41.23054 ], [ -111.98448, 41.229908 ], [ -111.985199, 41.230361 ], [ -111.985656, 41.230676 ], [ -111.986043, 41.230619 ], [ -111.986242, 41.230319 ], [ -111.983855, 41.228041 ] ] ] } },
{ "type": "Feature", "properties": { "group_index": 0, "value": 600.0, "center": [ -112.01380783474808, 41.094784632913175 ], "point_id": 5 }, "geometry": { "type": "Polygon", "coordinates": [ [ [ -112.01738, 41.099391 ], [ -112.017189, 41.099141 ], [ -112.017065, 41.098981 ], [ -112.016941, 41.098821 ], [ -112.014462, 41.095592 ], [ -112.013558, 41.094342 ], [ -112.011579, 41.09285 ], [ -112.011396, 41.092755 ], [ -112.011232, 41.092707 ], [ -112.007092, 41.091905 ], [ -112.006732, 41.091904 ], [ -112.005618, 41.092679 ], [ -112.00562, 41.093039 ], [ -112.006475, 41.097072 ], [ -112.006714, 41.097663 ], [ -112.006825, 41.097779 ], [ -112.008605, 41.098437 ], [ -112.010283, 41.098878 ], [ -112.010533, 41.098922 ], [ -112.010782, 41.098958 ], [ -112.01671, 41.09982 ], [ -112.017285, 41.099859 ], [ -112.017571, 41.099641 ], [ -112.01738, 41.099391 ] ] ] } },
{ "type": "Feature", "properties": { "group_index": 0, "value": 600.0, "center": [ -111.96538470350531, 41.057189169417256 ], "point_id": 4 }, "geometry": { "type": "Polygon", "coordinates": [ [ [ -111.973022, 41.059921 ], [ -111.972979, 41.059776 ], [ -111.972545, 41.059548 ], [ -111.971685, 41.059023 ], [ -111.969071, 41.054107 ], [ -111.968916, 41.053782 ], [ -111.968328, 41.053702 ], [ -111.967278, 41.053733 ], [ -111.967153, 41.053752 ], [ -111.967105, 41.053761 ], [ -111.966759, 41.053861 ], [ -111.961268, 41.056006 ], [ -111.961041, 41.056027 ], [ -111.960899, 41.05604 ], [ -111.958506, 41.056017 ], [ -111.958333, 41.056017 ], [ -111.958312, 41.056526 ], [ -111.958339, 41.056639 ], [ -111.961814, 41.060167 ], [ -111.966861, 41.062275 ], [ -111.96882, 41.063006 ], [ -111.969446, 41.062884 ], [ -111.969554, 41.062829 ], [ -111.973025, 41.060281 ], [ -111.973022, 41.059921 ] ] ] } },
{ "type": "Feature", "properties": { "group_index": 0, "value": 600.0, "center": [ -111.90290777461979, 40.88103234562655 ], "point_id": 2 }, "geometry": { "type": "Polygon", "coordinates": [ [ [ -111.907416, 40.88395 ], [ -111.905302, 40.88285 ], [ -111.90413, 40.877975 ], [ -111.904326, 40.87752 ], [ -111.904525, 40.877056 ], [ -111.904786, 40.87634 ], [ -111.905047, 40.875624 ], [ -111.904708, 40.8755 ], [ -111.902298, 40.874792 ], [ -111.901938, 40.874787 ], [ -111.900168, 40.875741 ], [ -111.899273, 40.876712 ], [ -111.897716, 40.878597 ], [ -111.897594, 40.878959 ], [ -111.89621, 40.88399 ], [ -111.896251, 40.884347 ], [ -111.896369, 40.884465 ], [ -111.898331, 40.886148 ], [ -111.899002, 40.886514 ], [ -111.901837, 40.887549 ], [ -111.902197, 40.887551 ], [ -111.907192, 40.884416 ], [ -111.907417, 40.88431 ], [ -111.907416, 40.88395 ] ] ] } },
{ "type": "Feature", "properties": { "group_index": 0, "value": 600.0, "center": [ -111.90489670986916, 40.98652587071849 ], "point_id": 3 }, "geometry": { "type": "Polygon", "coordinates": [ [ [ -111.912572, 40.987761 ], [ -111.912578, 40.987356 ], [ -111.911958, 40.984013 ], [ -111.911703, 40.983576 ], [ -111.910896, 40.982491 ], [ -111.909247, 40.981377 ], [ -111.908008, 40.980662 ], [ -111.90655, 40.979808 ], [ -111.90619, 40.979808 ], [ -111.902465, 40.98005 ], [ -111.901941, 40.980314 ], [ -111.901542, 40.980514 ], [ -111.901393, 40.980674 ], [ -111.901394, 40.980701 ], [ -111.901877, 40.983964 ], [ -111.9022, 40.985908 ], [ -111.902257, 40.986096 ], [ -111.902521, 40.986342 ], [ -111.906248, 40.989258 ], [ -111.910651, 40.991432 ], [ -111.91091, 40.99156 ], [ -111.911116, 40.991265 ], [ -111.912517, 40.9888 ], [ -111.912572, 40.987761 ] ] ] } },
{ "type": "Feature", "properties": { "group_index": 0, "value": 600.0, "center": [ -112.0110306, 41.3084111 ], "point_id": 8 }, "geometry": { "type": "Polygon", "coordinates": [ [ [ -112.017533, 41.306848 ], [ -112.01746, 41.306527 ], [ -112.014748, 41.304718 ], [ -112.014481, 41.304723 ], [ -112.014214, 41.304728 ], [ -112.014214, 41.304728 ], [ -112.013946, 41.304733 ], [ -112.013679, 41.304737 ], [ -112.00822, 41.306855 ], [ -112.00401, 41.30482 ], [ -112.000214, 41.306514 ], [ -112.000213, 41.306874 ], [ -112.003809, 41.310473 ], [ -112.003996, 41.310625 ], [ -112.007959, 41.313578 ], [ -112.00828, 41.313742 ], [ -112.010606, 41.313393 ], [ -112.012999, 41.312745 ], [ -112.013503, 41.31222 ], [ -112.016477, 41.307744 ], [ -112.017413, 41.307187 ], [ -112.017533, 41.306848 ] ] ] } },
{ "type": "Feature", "properties": { "group_index": 0, "value": 600.0, "center": [ -112.03945052776315, 41.18873213332462 ], "point_id": 6 }, "geometry": { "type": "Polygon", "coordinates": [ [ [ -112.042104, 41.190541 ], [ -112.042104, 41.19054 ], [ -112.042105, 41.190478 ], [ -112.041213, 41.188407 ], [ -112.039926, 41.187099 ], [ -112.036863, 41.186446 ], [ -112.036499, 41.186566 ], [ -112.032486, 41.190225 ], [ -112.032356, 41.19056 ], [ -112.032376, 41.190619 ], [ -112.033681, 41.193492 ], [ -112.033909, 41.193771 ], [ -112.037242, 41.192851 ], [ -112.040715, 41.191614 ], [ -112.042003, 41.190722 ], [ -112.042104, 41.190603 ], [ -112.042104, 41.190541 ] ] ] } },
{ "type": "Feature", "properties": { "group_index": 0, "value": 600.0, "center": [ -111.8966364783375, 40.42539741003109 ], "point_id": 0 }, "geometry": { "type": "Polygon", "coordinates": [ [ [ -111.903243, 40.427168 ], [ -111.902889, 40.426196 ], [ -111.902874, 40.42616 ], [ -111.902699, 40.425855 ], [ -111.902389, 40.42547 ], [ -111.90208, 40.425085 ], [ -111.899075, 40.422953 ], [ -111.896028, 40.420975 ], [ -111.893113, 40.419393 ], [ -111.892753, 40.419389 ], [ -111.890981, 40.419575 ], [ -111.890934, 40.419626 ], [ -111.890737, 40.419839 ], [ -111.890691, 40.419892 ], [ -111.890137, 40.421342 ], [ -111.888467, 40.425425 ], [ -111.888291, 40.426128 ], [ -111.888195, 40.426564 ], [ -111.888084, 40.42708 ], [ -111.888009, 40.427542 ], [ -111.890266, 40.42976 ], [ -111.890734, 40.43022 ], [ -111.890751, 40.430235 ], [ -111.890993, 40.430274 ], [ -111.892506, 40.430529 ], [ -111.895518, 40.43101 ], [ -111.899378, 40.430912 ], [ -111.902664, 40.43088 ], [ -111.902897, 40.430606 ], [ -111.903243, 40.427168 ] ] ] } },
{ "type": "Feature", "properties": { "group_index": 0, "value": 600.0, "center": [ -111.81967908559471, 40.37307916002236 ], "point_id": 0 }, "geometry": { "type": "Polygon", "coordinates": [ [ [ -111.82882, 40.372641 ], [ -111.826389, 40.370575 ], [ -111.822843, 40.367993 ], [ -111.821664, 40.367098 ], [ -111.821659, 40.367098 ], [ -111.821659, 40.367098 ], [ -111.821653, 40.367098 ], [ -111.817587, 40.367041 ], [ -111.817513, 40.367074 ], [ -111.81651, 40.367544 ], [ -111.813365, 40.370195 ], [ -111.810877, 40.371742 ], [ -111.810071, 40.37249 ], [ -111.810068, 40.37285 ], [ -111.810736, 40.372877 ], [ -111.814742, 40.372911 ], [ -111.819315, 40.374349 ], [ -111.819997, 40.374594 ], [ -111.821944, 40.375061 ], [ -111.827568, 40.372993 ], [ -111.828818, 40.373001 ], [ -111.82882, 40.372641 ] ] ] } },
{ "type": "Feature", "properties": { "group_index": 0, "value": 600.0, "center": [ -111.72609041341013, 40.27993748551257 ], "point_id": 0 }, "geometry": { "type": "Polygon", "coordinates": [ [ [ -111.734557, 40.279118 ], [ -111.734555, 40.278758 ], [ -111.731335, 40.276848 ], [ -111.7295, 40.275462 ], [ -111.726047, 40.273915 ], [ -111.726013, 40.273909 ], [ -111.72597, 40.273915 ], [ -111.724166, 40.274253 ], [ -111.722549, 40.275187 ], [ -111.719644, 40.277225 ], [ -111.719412, 40.2775 ], [ -111.718749, 40.278826 ], [ -111.71843, 40.279697 ], [ -111.718307, 40.280182 ], [ -111.718312, 40.280364 ], [ -111.718462, 40.280904 ], [ -111.71851, 40.280978 ], [ -111.718629, 40.281084 ], [ -111.721731, 40.282118 ], [ -111.72373, 40.282472 ], [ -111.72861, 40.283812 ], [ -111.730677, 40.284936 ], [ -111.731037, 40.284933 ], [ -111.73164, 40.284499 ], [ -111.732801, 40.28334 ], [ -111.73359, 40.282053 ], [ -111.734557, 40.279118 ] ] ] } },
{ "type": "Feature", "properties": { "group_index": 0, "value": 600.0, "center": [ -111.66069005363003, 40.225462209608224 ], "point_id": 0 }, "geometry": { "type": "Polygon", "coordinates": [ [ [ -111.668732, 40.226803 ], [ -111.665899, 40.221517 ], [ -111.663548, 40.219939 ], [ -111.663248, 40.219751 ], [ -111.661975, 40.219234 ], [ -111.661916, 40.219238 ], [ -111.661916, 40.219238 ], [ -111.661856, 40.219242 ], [ -111.659199, 40.21952 ], [ -111.659017, 40.21956 ], [ -111.656364, 40.220724 ], [ -111.655113, 40.221992 ], [ -111.653314, 40.225532 ], [ -111.6533, 40.225712 ], [ -111.653299, 40.22584 ], [ -111.653311, 40.225892 ], [ -111.654924, 40.22721 ], [ -111.656666, 40.228661 ], [ -111.65801, 40.229768 ], [ -111.658178, 40.229889 ], [ -111.658513, 40.230095 ], [ -111.660339, 40.231194 ], [ -111.661917, 40.231951 ], [ -111.662111, 40.231951 ], [ -111.662793, 40.231905 ], [ -111.666993, 40.228489 ], [ -111.668053, 40.227701 ], [ -111.66862, 40.227249 ], [ -111.668728, 40.227163 ], [ -111.668732, 40.226803 ] ] ] } },
{ "type": "Feature", "properties": { "group_index": 0, "value": 600.0, "center": [ -111.89628619705994, 40.66029234406321 ], "point_id": 0 }, "geometry": { "type": "Polygon", "coordinates": [ [ [ -111.903163, 40.660249 ], [ -111.899893, 40.658506 ], [ -111.897736, 40.6555 ], [ -111.897446, 40.655287 ], [ -111.894116, 40.655234 ], [ -111.892936, 40.655751 ], [ -111.891781, 40.657235 ], [ -111.889451, 40.661706 ], [ -111.889573, 40.663086 ], [ -111.889814, 40.664442 ], [ -111.890016, 40.664635 ], [ -111.890352, 40.664825 ], [ -111.891894, 40.665665 ], [ -111.892143, 40.665714 ], [ -111.892162, 40.665714 ], [ -111.892314, 40.665715 ], [ -111.89254, 40.665714 ], [ -111.893125, 40.665147 ], [ -111.898833, 40.664689 ], [ -111.899192, 40.664672 ], [ -111.899852, 40.664259 ], [ -111.903115, 40.660713 ], [ -111.903216, 40.660605 ], [ -111.903163, 40.660249 ] ] ] } },
{ "type": "Feature", "properties": { "group_index": 0, "value": 600.0, "center": [ -111.90182223871608, 40.563127156389335 ], "point_id": 0 }, "geometry": { "type": "Polygon", "coordinates": [ [ [ -111.905304, 40.567644 ], [ -111.90575, 40.565532 ], [ -111.905191, 40.560746 ], [ -111.905138, 40.558838 ], [ -111.902894, 40.557555 ], [ -111.902683, 40.557482 ], [ -111.902323, 40.557484 ], [ -111.900281, 40.558975 ], [ -111.900039, 40.559577 ], [ -111.899967, 40.559871 ], [ -111.900876, 40.565784 ], [ -111.9041, 40.569774 ], [ -111.904184, 40.569772 ], [ -111.904799, 40.569547 ], [ -111.905304, 40.567644 ] ] ] } },
{ "type": "Feature", "properties": { "group_index": 0, "value": 600.0, "center": [ -111.90438359776039, 40.515933128987136 ], "point_id": 0 }, "geometry": { "type": "Polygon", "coordinates": [ [ [ -111.909996, 40.513518 ], [ -111.909479, 40.512122 ], [ -111.907429, 40.509885 ], [ -111.907185, 40.509642 ], [ -111.907132, 40.509621 ], [ -111.906354, 40.509441 ], [ -111.905075, 40.51081 ], [ -111.905035, 40.510914 ], [ -111.904708, 40.512236 ], [ -111.904379, 40.514986 ], [ -111.904406, 40.516472 ], [ -111.904935, 40.51878 ], [ -111.90519, 40.519702 ], [ -111.90539, 40.520393 ], [ -111.905748, 40.520422 ], [ -111.90666, 40.520109 ], [ -111.910153, 40.5173 ], [ -111.909996, 40.513518 ] ] ] } },
{ "type": "Feature", "properties": { "group_index": 0, "value": 600.0, "center": [ -111.90898626622871, 40.76237447665463 ], "point_id": 0 }, "geometry": { "type": "Polygon", "coordinates": [ [ [ -111.916571, 40.764655 ], [ -111.912972, 40.761629 ], [ -111.910415, 40.760439 ], [ -111.908337, 40.756138 ], [ -111.908336, 40.755745 ], [ -111.908336, 40.755352 ], [ -111.907976, 40.755353 ], [ -111.907076, 40.755937 ], [ -111.906604, 40.756277 ], [ -111.902334, 40.759426 ], [ -111.90118, 40.760301 ], [ -111.901038, 40.760459 ], [ -111.901038, 40.760819 ], [ -111.901058, 40.760998 ], [ -111.903572, 40.765016 ], [ -111.905209, 40.766363 ], [ -111.908262, 40.768694 ], [ -111.908622, 40.768695 ], [ -111.909338, 40.768498 ], [ -111.911367, 40.767304 ], [ -111.91549, 40.765858 ], [ -111.915712, 40.765733 ], [ -111.916249, 40.765325 ], [ -111.916443, 40.765173 ], [ -111.916586, 40.765015 ], [ -111.916571, 40.764655 ] ] ] } },
{ "type": "Feature", "properties": { "group_index": 0, "value": 600.0, "center": [ -111.90508628926047, 40.77221478266119 ], "point_id": 0 }, "geometry": { "type": "Polygon", "coordinates": [ [ [ -111.911466, 40.769109 ], [ -111.909535, 40.767139 ], [ -111.908228, 40.76607 ], [ -111.905646, 40.764841 ], [ -111.905638, 40.764841 ], [ -111.905221, 40.764901 ], [ -111.904001, 40.765347 ], [ -111.903338, 40.76572 ], [ -111.899727, 40.768379 ], [ -111.896333, 40.771189 ], [ -111.896043, 40.771501 ], [ -111.896044, 40.771861 ], [ -111.899914, 40.776169 ], [ -111.901423, 40.777363 ], [ -111.902683, 40.77807 ], [ -111.905318, 40.778545 ], [ -111.905678, 40.778535 ], [ -111.905946, 40.778379 ], [ -111.906191, 40.778188 ], [ -111.908833, 40.776201 ], [ -111.909015, 40.776057 ], [ -111.909084, 40.775983 ], [ -111.909127, 40.77588 ], [ -111.909127, 40.77552 ], [ -111.909253, 40.771859 ], [ -111.911483, 40.769468 ], [ -111.911466, 40.769109 ] ] ] } },
{ "type": "Feature", "properties": { "group_index": 0, "value": 600.0, "center": [ -111.6377354674211, 40.161437594967786 ], "point_id": 0 }, "geometry": { "type": "Polygon", "coordinates": [ [ [ -111.647638, 40.161224 ], [ -111.645848, 40.159119 ], [ -111.645549, 40.158919 ], [ -111.642442, 40.157255 ], [ -111.642082, 40.157256 ], [ -111.641864, 40.157306 ], [ -111.641014, 40.157999 ], [ -111.63621, 40.160978 ], [ -111.635304, 40.160977 ], [ -111.633381, 40.161158 ], [ -111.63338, 40.161518 ], [ -111.635274, 40.161526 ], [ -111.637168, 40.161535 ], [ -111.6383, 40.161439 ], [ -111.642209, 40.165447 ], [ -111.642569, 40.165449 ], [ -111.647127, 40.161678 ], [ -111.647409, 40.161674 ], [ -111.647641, 40.161584 ], [ -111.647638, 40.161224 ] ] ] } },
{ "type": "Feature", "properties": { "group_index": 0, "value": 600.0, "center": [ -111.67968402333383, 40.110480760024835 ], "point_id": 0 }, "geometry": { "type": "Polygon", "coordinates": [ [ [ -111.686635, 40.107926 ], [ -111.684625, 40.10518 ], [ -111.683539, 40.105179 ], [ -111.682453, 40.105178 ], [ -111.682236, 40.105208 ], [ -111.679607, 40.105898 ], [ -111.675527, 40.106282 ], [ -111.675167, 40.106283 ], [ -111.673062, 40.107852 ], [ -111.673058, 40.108212 ], [ -111.673171, 40.108463 ], [ -111.674116, 40.109015 ], [ -111.674635, 40.109422 ], [ -111.674632, 40.115263 ], [ -111.674629, 40.115623 ], [ -111.679452, 40.117975 ], [ -111.679812, 40.117975 ], [ -111.68289, 40.115703 ], [ -111.682894, 40.115343 ], [ -111.679858, 40.111299 ], [ -111.684341, 40.108282 ], [ -111.686634, 40.108286 ], [ -111.686635, 40.107926 ] ] ] } },
{ "type": "Feature", "properties": { "group_index": 0, "value": 600.0, "center": [ -111.76039230804949, 40.03255605649781 ], "point_id": 0 }, "geometry": { "type": "Polygon", "coordinates": [ [ [ -111.763524, 40.035462 ], [ -111.763351, 40.032614 ], [ -111.760582, 40.032337 ], [ -111.760006, 40.032446 ], [ -111.759429, 40.032555 ], [ -111.759355, 40.032587 ], [ -111.756873, 40.033726 ], [ -111.756686, 40.033806 ], [ -111.756644, 40.033864 ], [ -111.756646, 40.034349 ], [ -111.75837, 40.038785 ], [ -111.75869, 40.038951 ], [ -111.763525, 40.0355 ], [ -111.763524, 40.035462 ] ] ] } },
{ "type": "Feature", "properties": { "group_index": 0, "value": 600.0, "center": [ -111.9265471, 40.478665 ], "point_id": 0 }, "geometry": { "type": "Polygon", "coordinates": [ [ [ -111.929836, 40.473255 ], [ -111.928621, 40.472495 ], [ -111.928283, 40.472375 ], [ -111.927612, 40.472185 ], [ -111.923738, 40.47291 ], [ -111.923393, 40.473013 ], [ -111.923417, 40.473387 ], [ -111.924032, 40.477508 ], [ -111.92474, 40.47901 ], [ -111.925091, 40.47909 ], [ -111.926788, 40.478275 ], [ -111.92704, 40.477883 ], [ -111.927778, 40.476703 ], [ -111.929877, 40.473594 ], [ -111.929924, 40.47352 ], [ -111.929836, 40.473255 ] ] ] } },
{ "type": "Feature", "properties": { "group_index": 0, "value": 600.0, "center": [ -111.89480912200777, 40.921588917280836 ], "point_id": 0 }, "geometry": { "type": "Polygon", "coordinates": [ [ [ -111.90098, 40.923433 ], [ -111.901302, 40.921829 ], [ -111.901364, 40.92152 ], [ -111.901522, 40.920698 ], [ -111.901682, 40.919867 ], [ -111.901825, 40.919103 ], [ -111.901695, 40.91795 ], [ -111.90143, 40.917706 ], [ -111.89696, 40.915708 ], [ -111.8966, 40.915709 ], [ -111.896387, 40.915825 ], [ -111.894787, 40.91714 ], [ -111.892601, 40.91897 ], [ -111.889169, 40.919514 ], [ -111.888546, 40.919426 ], [ -111.888331, 40.919419 ], [ -111.887857, 40.919404 ], [ -111.887217, 40.919664 ], [ -111.885084, 40.921194 ], [ -111.884926, 40.921444 ], [ -111.884929, 40.921804 ], [ -111.885722, 40.922435 ], [ -111.886358, 40.922946 ], [ -111.886687, 40.923138 ], [ -111.887571, 40.923655 ], [ -111.888623, 40.924103 ], [ -111.890286, 40.924804 ], [ -111.894383, 40.925863 ], [ -111.896162, 40.927218 ], [ -111.896547, 40.927501 ], [ -111.896752, 40.927641 ], [ -111.896871, 40.927637 ], [ -111.89778, 40.927053 ], [ -111.900658, 40.925036 ], [ -111.90098, 40.923433 ] ] ] } },
{ "type": "Feature", "properties": { "group_index": 0, "value": 600.0, "center": [ -112.03556874212168, 41.13994863419441 ], "point_id": 0 }, "geometry": { "type": "Polygon", "coordinates": [ [ [ -112.045466, 41.139843 ], [ -112.045461, 41.139783 ], [ -112.045404, 41.139698 ], [ -112.045089, 41.139437 ], [ -112.041935, 41.136797 ], [ -112.038813, 41.134875 ], [ -112.036323, 41.132879 ], [ -112.035141, 41.132756 ], [ -112.034781, 41.132746 ], [ -112.030213, 41.136114 ], [ -112.026069, 41.139433 ], [ -112.025885, 41.139597 ], [ -112.025783, 41.139814 ], [ -112.025724, 41.139951 ], [ -112.025726, 41.140113 ], [ -112.026195, 41.140636 ], [ -112.030638, 41.14423 ], [ -112.030998, 41.144231 ], [ -112.03382, 41.144311 ], [ -112.03703, 41.145797 ], [ -112.037759, 41.145883 ], [ -112.038119, 41.145884 ], [ -112.038231, 41.14586 ], [ -112.040917, 41.143956 ], [ -112.044528, 41.141023 ], [ -112.045459, 41.140203 ], [ -112.045488, 41.140127 ], [ -112.045466, 41.139843 ] ] ] } },
{ "type": "Feature", "properties": { "group_index": 0, "value": 600.0, "center": [ -111.98927819829682, 41.251853645770915 ], "point_id": 0 }, "geometry": { "type": "Polygon", "coordinates": [ [ [ -111.988566, 41.255336 ], [ -111.989272, 41.252946 ], [ -111.989274, 41.252135 ], [ -111.98927, 41.250974 ], [ -111.988662, 41.245124 ], [ -111.988527, 41.244975 ], [ -111.988483, 41.244975 ], [ -111.988483, 41.244975 ], [ -111.988439, 41.244974 ], [ -111.988302, 41.24512 ], [ -111.982762, 41.24724 ], [ -111.981314, 41.248543 ], [ -111.980817, 41.250389 ], [ -111.980813, 41.250749 ], [ -111.981852, 41.252026 ], [ -111.982119, 41.252276 ], [ -111.985684, 41.255173 ], [ -111.988352, 41.255866 ], [ -111.98851, 41.255509 ], [ -111.988566, 41.255336 ] ] ] } },
{ "type": "Feature", "properties": { "group_index": 0, "value": 600.0, "center": [ -111.74949500837293, 40.31134873154676 ], "point_id": 0 }, "geometry": { "type": "Polygon", "coordinates": [ [ [ -111.758216, 40.310345 ], [ -111.758218, 40.309413 ], [ -111.75373, 40.306185 ], [ -111.753376, 40.306119 ], [ -111.751518, 40.305968 ], [ -111.751152, 40.305978 ], [ -111.748054, 40.306473 ], [ -111.744748, 40.304966 ], [ -111.744457, 40.305177 ], [ -111.745965, 40.310677 ], [ -111.746052, 40.310876 ], [ -111.746138, 40.311075 ], [ -111.750714, 40.3133 ], [ -111.755883, 40.312855 ], [ -111.756131, 40.312835 ], [ -111.756379, 40.312814 ], [ -111.758127, 40.310694 ], [ -111.758216, 40.310345 ] ] ] } }
]
}
