{
"type": "FeatureCollection",
"name": "UTA_Stops_and_Most_Recent_Ridership_830X_iso_foot-walking_10min",
"crs": { "type": "name", "properties": { "name": "urn:ogc:def:crs:OGC:1.3:CRS84" } },
"features": [
{ "type": "Feature", "properties": { "group_index": 0, "value": 600.0, "center": [ -111.71244271157859, 40.27581511458681 ], "point_id": 5160 }, "geometry": { "type": "Polygon", "coordinates": [ [ [ -111.721535, 40.275559 ], [ -111.721552, 40.275483 ], [ -111.721546, 40.275123 ], [ -111.721485, 40.274964 ], [ -111.721103, 40.274967 ], [ -111.716277, 40.273452 ], [ -111.713807, 40.270416 ], [ -111.711927, 40.269145 ], [ -111.711814, 40.269092 ], [ -111.711454, 40.269102 ], [ -111.711223, 40.269207 ], [ -111.707622, 40.271728 ], [ -111.704491, 40.273726 ], [ -111.703872, 40.274107 ], [ -111.703701, 40.274307 ], [ -111.703177, 40.274918 ], [ -111.703012, 40.275123 ], [ -111.703011, 40.275483 ], [ -111.703052, 40.275549 ], [ -111.705128, 40.27785 ], [ -111.705869, 40.278635 ], [ -111.707135, 40.279556 ], [ -111.707656, 40.279761 ], [ -111.708044, 40.279867 ], [ -111.708366, 40.279956 ], [ -111.709383, 40.280217 ], [ -111.709404, 40.280221 ], [ -111.715151, 40.280825 ], [ -111.715485, 40.28105 ], [ -111.715787, 40.281063 ], [ -111.715962, 40.28106 ], [ -111.716673, 40.280951 ], [ -111.716889, 40.280839 ], [ -111.720526, 40.278564 ], [ -111.720792, 40.278322 ], [ -111.721535, 40.275559 ] ] ] } },
{ "type": "Feature", "properties": { "group_index": 0, "value": 600.0, "center": [ -111.71181622707599, 40.275488081336626 ], "point_id": 5161 }, "geometry": { "type": "Polygon", "coordinates": [ [ [ -111.721188, 40.275489 ], [ -111.721182, 40.275129 ], [ -111.72116, 40.274966 ], [ -111.72094, 40.274968 ], [ -111.716277, 40.273452 ], [ -111.713807, 40.270416 ], [ -111.711926, 40.269175 ], [ -111.711815, 40.269113 ], [ -111.711455, 40.269123 ], [ -111.711302, 40.269206 ], [ -111.709738, 40.270425 ], [ -111.707778, 40.27183 ], [ -111.704159, 40.273194 ], [ -111.703283, 40.273637 ], [ -111.701756, 40.274916 ], [ -111.701756, 40.275276 ], [ -111.702453, 40.276183 ], [ -111.706924, 40.279716 ], [ -111.708561, 40.280114 ], [ -111.708655, 40.280119 ], [ -111.709016, 40.280139 ], [ -111.709426, 40.280131 ], [ -111.715087, 40.280729 ], [ -111.716445, 40.28061 ], [ -111.716482, 40.280596 ], [ -111.716486, 40.280595 ], [ -111.716523, 40.280581 ], [ -111.720235, 40.278244 ], [ -111.720501, 40.278002 ], [ -111.721188, 40.275489 ] ] ] } },
{ "type": "Feature", "properties": { "group_index": 0, "value": 600.0, "center": [ -111.70395996906807, 40.27358008983678 ], "point_id": 5162 }, "geometry": { "type": "Polygon", "coordinates": [ [ [ -111.713538, 40.274627 ], [ -111.711535, 40.270662 ], [ -111.710052, 40.269535 ], [ -111.709809, 40.269536 ], [ -111.709567, 40.269536 ], [ -111.705055, 40.269905 ], [ -111.700525, 40.272319 ], [ -111.696609, 40.27224 ], [ -111.69625, 40.272232 ], [ -111.695085, 40.27303 ], [ -111.695035, 40.273196 ], [ -111.694966, 40.273634 ], [ -111.694969, 40.27371 ], [ -111.695109, 40.273912 ], [ -111.696532, 40.275266 ], [ -111.700867, 40.278058 ], [ -111.704504, 40.280596 ], [ -111.704731, 40.280637 ], [ -111.70509, 40.280629 ], [ -111.70734, 40.279579 ], [ -111.709478, 40.278577 ], [ -111.713292, 40.275285 ], [ -111.713515, 40.27472 ], [ -111.713538, 40.274627 ] ] ] } },
{ "type": "Feature", "properties": { "group_index": 0, "value": 600.0, "center": [ -111.72622759885445, 40.28077680208051 ], "point_id": 5163 }, "geometry": { "type": "Polygon", "coordinates": [ [ [ -111.734828, 40.281894 ], [ -111.734479, 40.278758 ], [ -111.731215, 40.276669 ], [ -111.729493, 40.275717 ], [ -111.729212, 40.275625 ], [ -111.725425, 40.274623 ], [ -111.725297, 40.274648 ], [ -111.725228, 40.274674 ], [ -111.724071, 40.275179 ], [ -111.720167, 40.277635 ], [ -111.720056, 40.277726 ], [ -111.719901, 40.277877 ], [ -111.719105, 40.27923 ], [ -111.718991, 40.279486 ], [ -111.718826, 40.280191 ], [ -111.718812, 40.280609 ], [ -111.719021, 40.280815 ], [ -111.719188, 40.280873 ], [ -111.722175, 40.281864 ], [ -111.722375, 40.281912 ], [ -111.725228, 40.282622 ], [ -111.730164, 40.285495 ], [ -111.730524, 40.2855 ], [ -111.731975, 40.285211 ], [ -111.733452, 40.283987 ], [ -111.734821, 40.282253 ], [ -111.734828, 40.281894 ] ] ] } },
{ "type": "Feature", "properties": { "group_index": 0, "value": 600.0, "center": [ -111.69464828768498, 40.273482870276816 ], "point_id": 5164 }, "geometry": { "type": "Polygon", "coordinates": [ [ [ -111.704319, 40.273672 ], [ -111.704322, 40.273312 ], [ -111.704243, 40.273196 ], [ -111.70275, 40.271841 ], [ -111.699816, 40.268094 ], [ -111.694946, 40.266072 ], [ -111.694922, 40.266072 ], [ -111.693535, 40.267089 ], [ -111.689158, 40.269854 ], [ -111.68728, 40.271418 ], [ -111.685623, 40.273023 ], [ -111.685513, 40.27313 ], [ -111.685511, 40.27349 ], [ -111.685574, 40.273896 ], [ -111.686843, 40.274885 ], [ -111.687579, 40.275448 ], [ -111.68821, 40.275914 ], [ -111.690059, 40.277241 ], [ -111.69039, 40.277482 ], [ -111.695037, 40.281021 ], [ -111.695397, 40.28101 ], [ -111.698383, 40.278888 ], [ -111.702717, 40.275278 ], [ -111.704203, 40.274001 ], [ -111.704265, 40.273878 ], [ -111.704319, 40.273672 ] ] ] } },
{ "type": "Feature", "properties": { "group_index": 0, "value": 600.0, "center": [ -111.66714002907752, 40.26258762550694 ], "point_id": 5165 }, "geometry": { "type": "Polygon", "coordinates": [ [ [ -111.675892, 40.262029 ], [ -111.675379, 40.261154 ], [ -111.672852, 40.259016 ], [ -111.672232, 40.258558 ], [ -111.669876, 40.256838 ], [ -111.669682, 40.256703 ], [ -111.668199, 40.2559 ], [ -111.667839, 40.255909 ], [ -111.66402, 40.256163 ], [ -111.660905, 40.256392 ], [ -111.660799, 40.256459 ], [ -111.660552, 40.256721 ], [ -111.659072, 40.262421 ], [ -111.658198, 40.26303 ], [ -111.658205, 40.26324 ], [ -111.658206, 40.263253 ], [ -111.658209, 40.263278 ], [ -111.658489, 40.263883 ], [ -111.660049, 40.264617 ], [ -111.665833, 40.266024 ], [ -111.669604, 40.267859 ], [ -111.671997, 40.268879 ], [ -111.672354, 40.268929 ], [ -111.672751, 40.268627 ], [ -111.67277, 40.268392 ], [ -111.672788, 40.268156 ], [ -111.672768, 40.267808 ], [ -111.674825, 40.263164 ], [ -111.675772, 40.262591 ], [ -111.675955, 40.262383 ], [ -111.675892, 40.262029 ] ] ] } },
{ "type": "Feature", "properties": { "group_index": 0, "value": 600.0, "center": [ -111.65202986416554, 40.25560303196658 ], "point_id": 5166 }, "geometry": { "type": "Polygon", "coordinates": [ [ [ -111.659839, 40.253948 ], [ -111.659332, 40.253264 ], [ -111.656342, 40.25125 ], [ -111.656173, 40.251161 ], [ -111.652131, 40.249234 ], [ -111.651955, 40.249183 ], [ -111.651595, 40.249192 ], [ -111.649443, 40.249898 ], [ -111.646037, 40.251678 ], [ -111.64335, 40.254628 ], [ -111.64329, 40.254722 ], [ -111.642578, 40.25653 ], [ -111.642642, 40.256884 ], [ -111.642937, 40.25743 ], [ -111.643222, 40.257623 ], [ -111.647577, 40.260274 ], [ -111.647897, 40.260437 ], [ -111.648664, 40.260752 ], [ -111.652648, 40.261423 ], [ -111.656122, 40.260453 ], [ -111.656498, 40.260228 ], [ -111.660809, 40.257448 ], [ -111.661092, 40.25723 ], [ -111.661339, 40.256968 ], [ -111.661413, 40.256868 ], [ -111.659839, 40.253948 ] ] ] } },
{ "type": "Feature", "properties": { "group_index": 0, "value": 600.0, "center": [ -111.65204874044807, 40.25585360756638 ], "point_id": 5167 }, "geometry": { "type": "Polygon", "coordinates": [ [ [ -111.66138, 40.256837 ], [ -111.659665, 40.253948 ], [ -111.659307, 40.253469 ], [ -111.658108, 40.252585 ], [ -111.656759, 40.25161 ], [ -111.652097, 40.249422 ], [ -111.651737, 40.249405 ], [ -111.651672, 40.249417 ], [ -111.651585, 40.249437 ], [ -111.649464, 40.250168 ], [ -111.646317, 40.251642 ], [ -111.64604, 40.251937 ], [ -111.643567, 40.254614 ], [ -111.642573, 40.256531 ], [ -111.642637, 40.256885 ], [ -111.642936, 40.257515 ], [ -111.647482, 40.260574 ], [ -111.647827, 40.260678 ], [ -111.648516, 40.260834 ], [ -111.652648, 40.261423 ], [ -111.656119, 40.260699 ], [ -111.656235, 40.260625 ], [ -111.660927, 40.257573 ], [ -111.661189, 40.257326 ], [ -111.661342, 40.256971 ], [ -111.66138, 40.256837 ] ] ] } },
{ "type": "Feature", "properties": { "group_index": 0, "value": 600.0, "center": [ -111.64626236622387, 40.25651773341981 ], "point_id": 5168 }, "geometry": { "type": "Polygon", "coordinates": [ [ [ -111.655767, 40.255476 ], [ -111.652915, 40.251907 ], [ -111.65269, 40.251626 ], [ -111.648795, 40.250818 ], [ -111.646743, 40.250218 ], [ -111.646114, 40.250177 ], [ -111.644931, 40.250403 ], [ -111.644423, 40.250606 ], [ -111.643183, 40.251227 ], [ -111.641144, 40.252593 ], [ -111.638556, 40.2561 ], [ -111.63862, 40.256753 ], [ -111.638759, 40.258102 ], [ -111.638915, 40.258687 ], [ -111.640161, 40.260801 ], [ -111.640335, 40.260979 ], [ -111.640543, 40.261123 ], [ -111.641408, 40.261458 ], [ -111.644825, 40.261795 ], [ -111.647754, 40.260919 ], [ -111.652861, 40.25824 ], [ -111.655113, 40.256542 ], [ -111.655654, 40.256068 ], [ -111.655691, 40.256001 ], [ -111.655767, 40.255836 ], [ -111.655767, 40.255476 ] ] ] } },
{ "type": "Feature", "properties": { "group_index": 0, "value": 600.0, "center": [ -111.64622213860362, 40.25678998070727 ], "point_id": 5169 }, "geometry": { "type": "Polygon", "coordinates": [ [ [ -111.65564, 40.255708 ], [ -111.655563, 40.255527 ], [ -111.655512, 40.255477 ], [ -111.651884, 40.251934 ], [ -111.648626, 40.251008 ], [ -111.646413, 40.250371 ], [ -111.646169, 40.250355 ], [ -111.645241, 40.250501 ], [ -111.644497, 40.250802 ], [ -111.643189, 40.251423 ], [ -111.641293, 40.252654 ], [ -111.638539, 40.256109 ], [ -111.638671, 40.258035 ], [ -111.638746, 40.258289 ], [ -111.639514, 40.259888 ], [ -111.640073, 40.260975 ], [ -111.640245, 40.261154 ], [ -111.640566, 40.261318 ], [ -111.641273, 40.261568 ], [ -111.645018, 40.262031 ], [ -111.647749, 40.260982 ], [ -111.652865, 40.258238 ], [ -111.655106, 40.25654 ], [ -111.655637, 40.256068 ], [ -111.65564, 40.255708 ] ] ] } },
{ "type": "Feature", "properties": { "group_index": 0, "value": 600.0, "center": [ -111.64609923279977, 40.24585237061384 ], "point_id": 5170 }, "geometry": { "type": "Polygon", "coordinates": [ [ [ -111.65543, 40.244336 ], [ -111.655339, 40.24425 ], [ -111.65518, 40.244136 ], [ -111.654366, 40.243598 ], [ -111.653707, 40.243202 ], [ -111.649263, 40.240293 ], [ -111.647067, 40.23875 ], [ -111.646775, 40.238575 ], [ -111.646415, 40.238575 ], [ -111.645573, 40.238839 ], [ -111.643395, 40.240216 ], [ -111.640871, 40.241989 ], [ -111.638473, 40.243747 ], [ -111.637565, 40.244588 ], [ -111.637406, 40.24479 ], [ -111.637391, 40.245017 ], [ -111.64065, 40.249279 ], [ -111.641553, 40.250396 ], [ -111.641613, 40.250444 ], [ -111.642381, 40.250981 ], [ -111.644398, 40.252435 ], [ -111.645598, 40.25271 ], [ -111.645958, 40.252712 ], [ -111.647281, 40.252486 ], [ -111.650057, 40.250822 ], [ -111.650353, 40.250633 ], [ -111.65193, 40.249555 ], [ -111.653231, 40.248429 ], [ -111.653386, 40.248262 ], [ -111.653587, 40.248001 ], [ -111.65543, 40.244358 ], [ -111.65543, 40.244336 ] ] ] } },
{ "type": "Feature", "properties": { "group_index": 0, "value": 600.0, "center": [ -111.65131271915783, 40.24306906140394 ], "point_id": 5171 }, "geometry": { "type": "Polygon", "coordinates": [ [ [ -111.66112, 40.242855 ], [ -111.659076, 40.241162 ], [ -111.655142, 40.238263 ], [ -111.655117, 40.238244 ], [ -111.654076, 40.237461 ], [ -111.653334, 40.236897 ], [ -111.652453, 40.236226 ], [ -111.652331, 40.23614 ], [ -111.651758, 40.235755 ], [ -111.651399, 40.235748 ], [ -111.650095, 40.236335 ], [ -111.645188, 40.239749 ], [ -111.641847, 40.242103 ], [ -111.641506, 40.242825 ], [ -111.641505, 40.243185 ], [ -111.641551, 40.243287 ], [ -111.641809, 40.243536 ], [ -111.643613, 40.245067 ], [ -111.646829, 40.248138 ], [ -111.648126, 40.248867 ], [ -111.648401, 40.249009 ], [ -111.649954, 40.249654 ], [ -111.651616, 40.249681 ], [ -111.651626, 40.249681 ], [ -111.651914, 40.249646 ], [ -111.652126, 40.249619 ], [ -111.656828, 40.24676 ], [ -111.659519, 40.244633 ], [ -111.661064, 40.243325 ], [ -111.661121, 40.243215 ], [ -111.66112, 40.242855 ] ] ] } },
{ "type": "Feature", "properties": { "group_index": 0, "value": 600.0, "center": [ -111.66129879503157, 40.22514958482903 ], "point_id": 5172 }, "geometry": { "type": "Polygon", "coordinates": [ [ [ -111.668863, 40.226805 ], [ -111.666778, 40.221721 ], [ -111.666638, 40.221593 ], [ -111.663812, 40.21974 ], [ -111.662684, 40.219067 ], [ -111.66253, 40.218979 ], [ -111.661571, 40.218975 ], [ -111.661545, 40.218975 ], [ -111.659018, 40.219401 ], [ -111.658912, 40.219419 ], [ -111.658774, 40.219519 ], [ -111.656337, 40.221286 ], [ -111.655794, 40.221867 ], [ -111.65571, 40.221987 ], [ -111.653705, 40.225536 ], [ -111.653701, 40.225896 ], [ -111.653714, 40.225993 ], [ -111.657838, 40.229406 ], [ -111.660741, 40.231307 ], [ -111.661786, 40.231951 ], [ -111.661928, 40.232017 ], [ -111.662288, 40.232021 ], [ -111.662863, 40.231905 ], [ -111.667125, 40.228489 ], [ -111.668597, 40.227368 ], [ -111.668752, 40.227249 ], [ -111.66886, 40.227165 ], [ -111.668863, 40.226805 ] ] ] } },
{ "type": "Feature", "properties": { "group_index": 0, "value": 600.0, "center": [ -111.65862079890529, 40.22861264825596 ], "point_id": 5173 }, "geometry": { "type": "Polygon", "coordinates": [ [ [ -111.668257, 40.228336 ], [ -111.668046, 40.228129 ], [ -111.666337, 40.226662 ], [ -111.662575, 40.223549 ], [ -111.659082, 40.221068 ], [ -111.658928, 40.221068 ], [ -111.658756, 40.221117 ], [ -111.65856, 40.221206 ], [ -111.657849, 40.221604 ], [ -111.65687, 40.222418 ], [ -111.652532, 40.225525 ], [ -111.650885, 40.226776 ], [ -111.649136, 40.228154 ], [ -111.648992, 40.228275 ], [ -111.648991, 40.228635 ], [ -111.64997, 40.229743 ], [ -111.650164, 40.229951 ], [ -111.651871, 40.231289 ], [ -111.653268, 40.232409 ], [ -111.65505, 40.233739 ], [ -111.656968, 40.235095 ], [ -111.658414, 40.236106 ], [ -111.658774, 40.236107 ], [ -111.65994, 40.235464 ], [ -111.660562, 40.23504 ], [ -111.661896, 40.234079 ], [ -111.662026, 40.233981 ], [ -111.662311, 40.233762 ], [ -111.665413, 40.231209 ], [ -111.667129, 40.229892 ], [ -111.668256, 40.228696 ], [ -111.668257, 40.228336 ] ] ] } },
{ "type": "Feature", "properties": { "group_index": 0, "value": 600.0, "center": [ -111.6586622, 40.241497 ], "point_id": 5174 }, "geometry": { "type": "Polygon", "coordinates": [ [ [ -111.666783, 40.240349 ], [ -111.666656, 40.240229 ], [ -111.664413, 40.238428 ], [ -111.663122, 40.237484 ], [ -111.661376, 40.236174 ], [ -111.659725, 40.234922 ], [ -111.659623, 40.234844 ], [ -111.658993, 40.234417 ], [ -111.658784, 40.234398 ], [ -111.658424, 40.234396 ], [ -111.657575, 40.234918 ], [ -111.655923, 40.236156 ], [ -111.655665, 40.236352 ], [ -111.652585, 40.238693 ], [ -111.650756, 40.240089 ], [ -111.650128, 40.240601 ], [ -111.649107, 40.241445 ], [ -111.649106, 40.241805 ], [ -111.649158, 40.241888 ], [ -111.652496, 40.245116 ], [ -111.652902, 40.245463 ], [ -111.654, 40.246396 ], [ -111.656745, 40.248009 ], [ -111.658255, 40.248833 ], [ -111.658445, 40.248915 ], [ -111.658805, 40.24892 ], [ -111.659149, 40.248812 ], [ -111.662474, 40.246589 ], [ -111.663474, 40.245817 ], [ -111.664907, 40.244497 ], [ -111.665008, 40.244405 ], [ -111.666783, 40.240709 ], [ -111.666783, 40.240349 ] ] ] } },
{ "type": "Feature", "properties": { "group_index": 0, "value": 600.0, "center": [ -111.6586951533722, 40.23745202965437 ], "point_id": 5175 }, "geometry": { "type": "Polygon", "coordinates": [ [ [ -111.666739, 40.236747 ], [ -111.666742, 40.236387 ], [ -111.666617, 40.236272 ], [ -111.664123, 40.234222 ], [ -111.66144, 40.231898 ], [ -111.65968, 40.23067 ], [ -111.659016, 40.230476 ], [ -111.658656, 40.230475 ], [ -111.658408, 40.230478 ], [ -111.658316, 40.230495 ], [ -111.656144, 40.232051 ], [ -111.654304, 40.233379 ], [ -111.653869, 40.233694 ], [ -111.649496, 40.237069 ], [ -111.649164, 40.237443 ], [ -111.64916, 40.237803 ], [ -111.64926, 40.237892 ], [ -111.649394, 40.238012 ], [ -111.65093, 40.239232 ], [ -111.651064, 40.239335 ], [ -111.652533, 40.240461 ], [ -111.652797, 40.240665 ], [ -111.654516, 40.241982 ], [ -111.656071, 40.243164 ], [ -111.656275, 40.24332 ], [ -111.657886, 40.24454 ], [ -111.658015, 40.244632 ], [ -111.658262, 40.244783 ], [ -111.658463, 40.244859 ], [ -111.658823, 40.244864 ], [ -111.659048, 40.244808 ], [ -111.660987, 40.243651 ], [ -111.663963, 40.241288 ], [ -111.664714, 40.240705 ], [ -111.666523, 40.239186 ], [ -111.666739, 40.236747 ] ] ] } },
{ "type": "Feature", "properties": { "group_index": 0, "value": 600.0, "center": [ -111.6610425, 40.21685000000008 ], "point_id": 5176 }, "geometry": { "type": "Polygon", "coordinates": [ [ [ -111.664147, 40.214696 ], [ -111.661459, 40.211878 ], [ -111.659118, 40.210453 ], [ -111.658758, 40.210447 ], [ -111.655024, 40.213486 ], [ -111.653896, 40.214435 ], [ -111.653824, 40.214788 ], [ -111.653816, 40.215935 ], [ -111.65382, 40.216134 ], [ -111.653824, 40.216334 ], [ -111.653925, 40.219422 ], [ -111.656924, 40.222131 ], [ -111.657022, 40.222202 ], [ -111.658991, 40.223472 ], [ -111.65908, 40.223493 ], [ -111.662214, 40.223669 ], [ -111.662574, 40.223672 ], [ -111.664305, 40.221962 ], [ -111.666452, 40.217329 ], [ -111.664147, 40.214696 ] ] ] } },
{ "type": "Feature", "properties": { "group_index": 0, "value": 600.0, "center": [ -111.65635536663109, 40.21458159413558 ], "point_id": 5177 }, "geometry": { "type": "Polygon", "coordinates": [ [ [ -111.664704, 40.215375 ], [ -111.664147, 40.214696 ], [ -111.662344, 40.212929 ], [ -111.66035, 40.20938 ], [ -111.660054, 40.209175 ], [ -111.659211, 40.209006 ], [ -111.655684, 40.208999 ], [ -111.655324, 40.208996 ], [ -111.651886, 40.20925 ], [ -111.651129, 40.209872 ], [ -111.649777, 40.211139 ], [ -111.649602, 40.211453 ], [ -111.648874, 40.216241 ], [ -111.648875, 40.216601 ], [ -111.652701, 40.220035 ], [ -111.653811, 40.220893 ], [ -111.656353, 40.221681 ], [ -111.656712, 40.221667 ], [ -111.659528, 40.220009 ], [ -111.662411, 40.218043 ], [ -111.664981, 40.216282 ], [ -111.66526, 40.216054 ], [ -111.664704, 40.215375 ] ] ] } },
{ "type": "Feature", "properties": { "group_index": 0, "value": 600.0, "center": [ -111.6552029094105, 40.20895070898844 ], "point_id": 5178 }, "geometry": { "type": "Polygon", "coordinates": [ [ [ -111.665431, 40.206827 ], [ -111.664952, 40.20665 ], [ -111.664577, 40.206664 ], [ -111.664202, 40.206678 ], [ -111.663581, 40.206717 ], [ -111.662966, 40.206757 ], [ -111.662159, 40.206786 ], [ -111.656336, 40.205406 ], [ -111.653454, 40.206027 ], [ -111.648876, 40.208093 ], [ -111.646211, 40.207637 ], [ -111.646087, 40.207631 ], [ -111.645088, 40.20848 ], [ -111.645088, 40.20884 ], [ -111.649377, 40.212666 ], [ -111.651339, 40.21423 ], [ -111.652924, 40.214834 ], [ -111.653667, 40.214813 ], [ -111.655925, 40.214769 ], [ -111.655958, 40.214768 ], [ -111.658581, 40.21393 ], [ -111.658923, 40.213819 ], [ -111.659303, 40.212921 ], [ -111.661128, 40.209208 ], [ -111.665434, 40.207187 ], [ -111.665431, 40.206827 ] ] ] } },
{ "type": "Feature", "properties": { "group_index": 0, "value": 600.0, "center": [ -111.67958024409761, 40.27314101504308 ], "point_id": 5182 }, "geometry": { "type": "Polygon", "coordinates": [ [ [ -111.689443, 40.27307 ], [ -111.685898, 40.27034 ], [ -111.684452, 40.269514 ], [ -111.680429, 40.267308 ], [ -111.680069, 40.267303 ], [ -111.675888, 40.267979 ], [ -111.67214, 40.26983 ], [ -111.671732, 40.270419 ], [ -111.671905, 40.272086 ], [ -111.672517, 40.275095 ], [ -111.672929, 40.276127 ], [ -111.675838, 40.278136 ], [ -111.677146, 40.278976 ], [ -111.677495, 40.279127 ], [ -111.677855, 40.27913 ], [ -111.678838, 40.279072 ], [ -111.679195, 40.278957 ], [ -111.679378, 40.278889 ], [ -111.67994, 40.278437 ], [ -111.685762, 40.277015 ], [ -111.686093, 40.276871 ], [ -111.68625, 40.276792 ], [ -111.686548, 40.276558 ], [ -111.68807, 40.275197 ], [ -111.689218, 40.273858 ], [ -111.689442, 40.27343 ], [ -111.689443, 40.27307 ] ] ] } },
{ "type": "Feature", "properties": { "group_index": 0, "value": 600.0, "center": [ -111.64597412168003, 40.24574378067243 ], "point_id": 5184 }, "geometry": { "type": "Polygon", "coordinates": [ [ [ -111.654694, 40.244158 ], [ -111.650736, 40.241409 ], [ -111.649265, 40.240293 ], [ -111.64707, 40.23875 ], [ -111.646775, 40.238573 ], [ -111.646692, 40.238538 ], [ -111.646332, 40.238536 ], [ -111.645574, 40.238769 ], [ -111.644475, 40.23945 ], [ -111.642772, 40.240545 ], [ -111.640713, 40.241989 ], [ -111.638472, 40.243639 ], [ -111.637558, 40.244422 ], [ -111.637286, 40.244697 ], [ -111.637286, 40.245057 ], [ -111.637389, 40.245242 ], [ -111.640665, 40.249281 ], [ -111.641565, 40.250389 ], [ -111.641626, 40.250437 ], [ -111.642381, 40.250981 ], [ -111.6446, 40.252364 ], [ -111.645609, 40.252618 ], [ -111.645965, 40.252675 ], [ -111.647202, 40.252461 ], [ -111.647341, 40.252411 ], [ -111.649929, 40.250639 ], [ -111.65173, 40.249142 ], [ -111.652906, 40.248108 ], [ -111.652967, 40.248026 ], [ -111.654934, 40.244755 ], [ -111.654694, 40.244158 ] ] ] } },
{ "type": "Feature", "properties": { "group_index": 0, "value": 600.0, "center": [ -111.65870890653858, 40.23337994279608 ], "point_id": 5185 }, "geometry": { "type": "Polygon", "coordinates": [ [ [ -111.668233, 40.233414 ], [ -111.66692, 40.232087 ], [ -111.665571, 40.230963 ], [ -111.665426, 40.230849 ], [ -111.663789, 40.229565 ], [ -111.663613, 40.229433 ], [ -111.662438, 40.228572 ], [ -111.661794, 40.22811 ], [ -111.660749, 40.227351 ], [ -111.659063, 40.22641 ], [ -111.658911, 40.226361 ], [ -111.658551, 40.226359 ], [ -111.658379, 40.226417 ], [ -111.657678, 40.226857 ], [ -111.654811, 40.228842 ], [ -111.654082, 40.229397 ], [ -111.652361, 40.230719 ], [ -111.65225, 40.230806 ], [ -111.650749, 40.232034 ], [ -111.649167, 40.233363 ], [ -111.649165, 40.233723 ], [ -111.649266, 40.233892 ], [ -111.649447, 40.234034 ], [ -111.651169, 40.235376 ], [ -111.652863, 40.236716 ], [ -111.65443, 40.237907 ], [ -111.658144, 40.240711 ], [ -111.658394, 40.240795 ], [ -111.658754, 40.240796 ], [ -111.658968, 40.240793 ], [ -111.659146, 40.240718 ], [ -111.659536, 40.240477 ], [ -111.660967, 40.23937 ], [ -111.662078, 40.238531 ], [ -111.662713, 40.238058 ], [ -111.662999, 40.237842 ], [ -111.664454, 40.236743 ], [ -111.664589, 40.23664 ], [ -111.664717, 40.23654 ], [ -111.665879, 40.235646 ], [ -111.66788, 40.234099 ], [ -111.66815, 40.233883 ], [ -111.66823, 40.233774 ], [ -111.668233, 40.233414 ] ] ] } },
{ "type": "Feature", "properties": { "group_index": 0, "value": 600.0, "center": [ -111.66080522210196, 40.22510895508543 ], "point_id": 5190 }, "geometry": { "type": "Polygon", "coordinates": [ [ [ -111.668367, 40.2268 ], [ -111.666579, 40.221595 ], [ -111.666481, 40.221526 ], [ -111.663992, 40.219777 ], [ -111.662551, 40.219074 ], [ -111.661386, 40.219053 ], [ -111.658907, 40.21952 ], [ -111.656338, 40.221303 ], [ -111.655839, 40.221986 ], [ -111.653951, 40.225635 ], [ -111.653948, 40.225995 ], [ -111.657527, 40.228664 ], [ -111.658474, 40.229405 ], [ -111.661243, 40.231304 ], [ -111.661932, 40.231638 ], [ -111.662292, 40.231642 ], [ -111.662407, 40.231606 ], [ -111.662564, 40.23151 ], [ -111.662875, 40.231315 ], [ -111.664624, 40.229999 ], [ -111.664719, 40.229928 ], [ -111.664819, 40.229853 ], [ -111.666358, 40.22869 ], [ -111.666629, 40.228487 ], [ -111.668101, 40.227367 ], [ -111.668255, 40.227249 ], [ -111.668363, 40.22716 ], [ -111.668367, 40.2268 ] ] ] } }
]
}
